sitename,address,city,dist,lat,lon
西歐台北士林加油站,台北市士林區中山北路五段570號(近福林公園),台北市,士林區,25.0951685,121.528571
全聯士林中正店站,台北市士林區中正路115號(近中正路/中山北路五段路口),台北市,士林區,25.0956749,121.5285468
台北捷運士林站,台北市士林區中正路247巷捷運站2號出口(近捷運站機車轉乘停車場),台北市,士林區,25.09343,121.52642
文昌國小地下停車場B1F站,台北市士林區文林路615巷20號(地下一樓機車停車場)(近文林路615巷6弄巷口),台北市,士林區,25.0995584,121.5213883
Gogoro 士林文林店站,台北市士林區文林路65號(近士林夜市),台北市,士林區,25.0873269,121.5257023
故宮廣場停車場站,台北市士林區至善路二段134號(近至善路二段/力行街口),台北市,士林區,25.0985529,121.5484659
社子國小地下停車場B1F站,台北市士林區延平北路6段308號(地下一樓機車停車場)(近社中街450號),台北市,士林區,25.0904715,121.5020712
延平北路5段臨時平面停車場站,台北市士林區延平北路五段1巷(近富光區民活動中心),台北市,士林區,25.0788328,121.5098975
Gogoro 天母忠誠門市站,台北市士林區忠誠路一段101號(近雨農國小),台北市,士林區,25.10485,121.528519
天母大葉高島屋百貨公司站,台北市士林區忠誠路二段55號(近大葉天母私有停車場入口),台北市,士林區,25.1118523,121.5314695
Gogoro 士林承德服務中心站,台北市士林區承德路四段340號(近承德路四段/福港街口),台北市,士林區,25.0900524,121.5174371
HiLife 北市社子店站,台北市士林區社子街63巷2號(近社子聖彌額爾天主堂),台北市,士林區,25.0875929,121.5068924
全家大港店站,台北市士林區前港街39號(近前港公園),台北市,士林區,25.084872,121.5215497
7-ELEVEN 文大店站,台北市士林區格致路57號(近格致路/菁山路口),台北市,士林區,25.1379005,121.5464069
台北捷運劍潭站,台北市士林區基河路捷運站2號出口(近捷運站機車轉乘停車場),台北市,士林區,25.09343,121.52642
台北捷運芝山站,台北市士林區福華路捷運站1號出口(近捷運站機車轉乘停車場),台北市,士林區,25.1029453,121.5225201
PGO 大同延平店站,台北市大同區延平北路三段73之1號(近臺北市延平國民小學),台北市,大同區,25.0666641,121.5110865
啟聰學校地下停車場B1F站,台北市大同區延平北路四段205號(地下一樓機車停車場)(近延平北路四段/迪化街二段口),台北市,大同區,25.0744147,121.5119779
建成公園地下停車場B1F站,台北市大同區承德路二段31號(地下一樓機車停車場)(近建成公園),台北市,大同區,25.0540267,121.5184286
Gogoro 圓山服務中心站,台北市大同區承德路三段237號(近花博公園),台北市,大同區,25.0710219,121.5188456
XY老屋站,台北市大同區昌吉街248號(近環河北路/昌吉街口),台北市,大同區,25.0657699,121.5098626
建成國中地下停車場B1F站,台北市大同區長安西路37號之1(地下一樓機車停車場)(近台北當代藝術館),台北市,大同區,25.0504086,121.5196574
第一銀行大稻程分行站,台北市大同區迪化街一段63號(近台北霞海城隍廟),台北市,大同區,25.055794,121.5101506
第一銀行重慶北路站,台北市大同區重慶北路二段180號(近太平國小),台北市,大同區,25.0601377,121.5130694
Gogoro 師大和平店站,台北市大安區和平東路一段129號(近和平東路一段141巷口),台北市,大安區,25.0267802,121.529291
國立臺北教育大學站,台北市大安區和平東路二段134號東北側機車停車場(近臥龍街/敦化南路二段172巷),台北市,大安區,25.0245857,121.5446463
Impact Hub 站,台北市大安區和平東路二段265巷3號(近和平東路/復興南路口),台北市,大安區,25.0253124,121.544109
中油信義路加油站,台北市大安區信義路四段374號(近捷運信義安和站4號出口),台北市,大安區,25.0327687,121.5556079
宜舍信義大安站,台北市大安區信義路四段67號旁平面停車場(近信義路四段/大安路一段路口),台北市,大安區,25.0325733,121.5458065
台北陽光加油站,台北市大安區建國南路一段57-1號(近市民大道/建國南路口),台北市,大安區,25.0443076,121.5370089
eReady 大安建國店站,台北市大安區建國南路二段73號(近建國南路二段/建國南路二段69巷口),台北市,大安區,25.0310782,121.5381285
勝利加油站,台北市大安區建國南路二段75-1號(近大安森林公園建國南路側),台北市,大安區,25.0310437,121.5381249
更生保護會基隆路站,台北市大安區基隆路二段166-1號旁停車場前花圃(近喬治工商),台北市,大安區,25.0271422,121.5554202
國立臺灣科技大學站,台北市大安區基隆路四段43號(近臺北市大安區公館國民小學),台北市,大安區,25.0131401,121.5402157
7-ELEVEN 華電店站,台北市大安區通化街177號(近中華電信通化服務中心),台北市,大安區,25.0274551,121.5536031
7-ELEVEN 誠安店站,台北市大安區敦化南路1段247巷12號(近敦化南路一段/安和路一段路口),台北市,大安區,25.0389771,121.549271
MissGreen 美式蔬食餐廳站,台北市大安區敦化南路二段63巷28號(近立人國際國民中小學),台北市,大安區,25.0308719,121.5505725
臺大二活停車場站,台北市大安區羅斯福路4段85號(台大學生第二學生活動中心旁)(近台大進修推廣學院),台北市,大安區,25.0130027,121.5367066
實踐大學站,台北市中山區大直街70號(近崇實路/大直街62巷口),台北市,中山區,25.0837391,121.546091
第一銀行中山分行站,台北市中山區中山北路二段59巷3弄7號(近台北國賓大飯店),台北市,中山區,25.0561939,121.5235312
全家美華店站,台北市中山區北安路819之1號(近台北捷運劍南路站),台北市,中山區,25.0849942,121.5562243
台北捷運民權西路站,台北市中山區民權西路70巷捷運站3號出口(近捷運站機車轉乘停車場),台北市,中山區,25.0614531,121.5201433
Gogoro 中山松江服務中心站,台北市中山區松江路530號(近松江路/建國北路三段口),台北市,中山區,25.066886,121.532984
合作金庫銀行自強分行站,台北市中山區南京東路二段85號(近松江路124巷/一江街口),台北市,中山區,25.0523761,121.5318859
便利停車場建國站,台北市中山區建國北路二段11巷內空地(近建國北路/長春路口),台北市,中山區,25.0536414,121.5375684
7-ELEVEN 金宴店站,台北市中山區建國北路二段151巷8號(近建國北路二段151巷/錦州街35巷路口),台北市,中山區,25.0616652,121.5385325
榮星花園地下停車場B1F站,台北市中山區建國北路三段39號(地下一樓機車停車場)(建國北路三段/五常街口),台北市,中山區,25.0640384,121.5377847
7-ELEVEN 榮鑫店站,台北市中山區建國北路三段89及91號前(近榮星花園),台北市,中山區,25.0656223,121.5368585
台北捷運劍南路站,台北市中山區敬業二路捷運站2號出口(近捷運站機車轉乘停車場),台北市,中山區,25.0847518,121.5550902
Gogoro 新生市民服務中心站,台北市中山區新生北路一段23號(近興亞公園),台北市,中山區,25.0467908,121.5316069
中油新生北路加油站,台北市中山區新生北路二段71號(近新生北路/民生東路口),台北市,中山區,25.0564859,121.5280633
濱江國中地下停車場B2F站,台北市中山區樂群二路266巷1號(地下二樓機車停車場)(近濱江國中),台北市,中山區,25.0795366,121.561715
Gogoro 光華八德店站,台北市中正區八德路一段27號(近光華商場),台北市,中正區,25.0441128,121.5312496
機器人王國站,台北市中正區中華路二段165號(近中華路/莒光路口),台北市,中正區,25.0307718,121.5042425
全家新惠安店站,台北市中正區中華路二段307巷46號(近忠義國小),台北市,中正區,25.0294127,121.5064301
全家南機場店站,台北市中正區中華路二段311巷1號(近中華路二段/中華路二段311巷路口),台北市,中正區,25.0283782,121.5057408
公館水岸新世界機車臨時平面停車場站,台北市中正區汀州路三段160巷(近自來水園區),台北市,中正區,25.013248,121.534168
東吳大學城區部站,台北市中正區延平南路133巷底(近東吳大學校區),台北市,中正區,25.0378416,121.5085023
全聯中正延平店站,台北市中正區延平南路189號(近延平南路/中華路二段75巷口),台北市,中正區,25.0337995,121.5075571
台北喜來登大飯店站,台北市中正區忠孝東路一段12號(近忠孝東路一段/鎮江街口),台北市,中正區,25.0445802,121.5224401
宏佳騰中正重慶店站,台北市中正區重慶南路二段73號(近重慶南路二段/寧波西街口),台北市,中正區,25.0302608,121.515271
西歐台北自強加油站,台北市內湖區內湖路一段146號(近內湖路一段/基湖路口),台北市,內湖區,25.082615,121.5641476
中油內湖麗山街加油站,台北市內湖區內湖路一段362號(近台新銀行內湖分行),台北市,內湖區,25.0812318,121.5710406
Gogoro 內湖西湖服務中心站,台北市內湖區內湖路一段411巷19弄17號(近麗山國小),台北市,內湖區,25.0823635,121.5718974
中油台北西湖加油站,台北市內湖區內湖路一段59號(近內湖路一段/文湖街口),台北市,內湖區,25.0850789,121.5599701
家樂福內湖店站,台北市內湖區民善街88號(近民善街/新湖二路口),台北市,內湖區,25.0601551,121.5749954
臺北市網球中心站,台北市內湖區民權東路六段208號(近民權東路六段/民權東路六段210巷口),台北市,內湖區,25.0675684,121.5969537
Gogoro 台北內湖服務中心站,台北市內湖區民權東路六段296巷66-3號(近捷運葫洲站),台北市,內湖區,25.070484,121.6086581
大湖公園地下停車場B1F站,台北市內湖區成功路5段7號(地下一樓機車停車場)(近湖山六號公園),台北市,內湖區,25.0835653,121.6020551
台北捷運大湖公園站,台北市內湖區成功路五段捷運站1號出口(近捷運站機車轉乘停車場),台北市,內湖區,25.0785936,121.6070835
CITYLINK 內湖店站,台北市內湖區成功路四段188號(近金龍路/內湖路二段口),台北市,內湖區,25.0846317,121.5938439
中油東湖加油站,台北市內湖區康寧路三段225號(近捷運東湖站3號出口),台北市,內湖區,25.0674116,121.6119972
7-ELEVEN 瓏馬店站,台北市內湖區康樂街213號(近康樂公園),台北市,內湖區,25.0761356,121.6217171
遠傳總部大樓站,台北市內湖區瑞光路468號(近遠傳瑞光直營門市),台北市,內湖區,25.0783672,121.5699158
7-ELEVEN 環金店站,台北市內湖區環山路二段81號(近德明財經科技大學),台北市,內湖區,25.0847292,121.5748886
麗車坊內湖旗艦店站,台北市內湖區舊宗路一段86號(近大潤發內湖一店),台北市,內湖區,25.059388,121.5795655
台亞堤頂交流道加油站,台北市內湖區舊宗路二段111號(近堤頂交流道),台北市,內湖區,25.0690208,121.575128
全家明興店站,台北市文山區木柵路二段109巷25弄2號(近木柵二段109巷),台北市,文山區,24.990029,121.562951
Gogoro 文山木新門市站,台北市文山區木新路三段187號(近景美女中),台北市,文山區,24.9814642,121.5601318
萬興國小地下停車場B1F站,台北市文山區秀明路2段116號(地下一樓機車停車場)(近台北市立圖書館萬興分館),台北市,文山區,24.988685,121.576501
全家名門店站,台北市文山區和平東路四段97號(近和平東路四段101巷口),台北市,文山區,25.0051143,121.5679935
台塑政大加油站,台北市文山區指南路一段53號(近木新路/指南路口),台北市,文山區,24.9878328,121.5708025
全家政富店站,台北市文山區指南路二段145號(近政治大學),台北市,文山區,24.9875136,121.5771262
景美國小地下停車場B1F站,台北市文山區景文街142巷2號(地下一樓機車停車場)(近北新橋橋下/順安街),台北市,文山區,24.9887205,121.5401225
中油萬隆加油站,台北市文山區興隆路一段13號(近台北花木批發市場),台北市,文山區,25.0044948,121.5394462
臺北花木批發市場地下停車場B1F站,台北市文山區興隆路一段15號(地下一樓機車停車場)(近羅斯福路五段97巷內入口),台北市,文山區,25.0043458,121.5405182
台塑福華加油站,台北市文山區興隆路二段244巷1號(近萬芳醫院),台北市,文山區,25.000901,121.553971
台北捷運復興崗站,台北市北投區中央北路三段53巷捷運站1號出口(近捷運站機車轉乘停車場),台北市,北投區,25.1376416,121.4854037
台北捷運忠義站,台北市北投區中央北路四段捷運站1號出口(近捷運站機車轉乘停車場),台北市,北投區,25.1298722,121.4715223
振興公園地下停車場B1F站,台北市北投區天母西路112號(地下一樓機車停車場)(近臺北榮民總醫院),台北市,北投區,25.1197546,121.5201492
Gogoro 北投文林北門市站,台北市北投區文林北路228號(近石牌派出所),台北市,北投區,25.108479,121.5140397
北投運動中心站,台北市北投區石牌路一段39巷100號(近石牌公園),台北市,北投區,25.1164732,121.5097619
第一銀行北投分行站,台北市北投區光明路133號(近光明路/溫泉路37巷口)​,台北市,北投區,25.1345292,121.5022496
七星公園地下停車場B1F站,台北市北投區光明路225號(地下一樓機車停車場)(近七星公園),台北市,北投區,25.1365489,121.5041236
北投熱海溫泉大飯店站,台北市北投區光明路258號(近北投溫泉博物館),台北市,北投區,25.1368212,121.5093335
台北捷運唭哩岸站,台北市北投區西安街二段捷運站1號出口(近捷運站機車轉乘停車場),台北市,北投區,25.1200522,121.5092552
台亞承德加油站,台北市北投區承德路七段303號(近立農公園),台北市,北投區,25.116722,121.504031
中油北投加油站,台北市北投區承德路七段384號(近承德路七段/公館路口),台北市,北投區,25.1194765,121.5024189
台北捷運明德站,台北市北投區明德路95號(捷運站機車轉乘停車場)(近東華街一段52號),台北市,北投區,25.1098346,121.5187564
石牌國小地下停車場B1F站,台北市北投區致遠2路80號(地下一樓機車停車場)(近石牌國小),台北市,北投區,25.1156862,121.5117748
八德立體停車場B1F站,台北市松山區八德路4段580號(地下一樓機車停車場)(近饒河夜市),台北市,松山區,25.0496853,121.5720034
蒲園商旅站,台北市松山區八德路四段176號(近中崙高中),台北市,松山區,25.0485349,121.563408
PGO 松山八德店站,台北市松山區八德路四段311號(近八德路四段333巷),台北市,松山區,25.0492431,121.566771
Gogoro 饒河服務中心站,台北市松山區八德路四段650號(近饒河夜市),台北市,松山區,25.0498853,121.5750533
中油民生東路加油站,台北市松山區三民路126號(近三民路/民生東路五段口),台北市,松山區,25.0595214,121.5638464
家樂福三民店2F站,台北市松山區三民路160號(二樓機車停車場)(近民權國小),台北市,松山區,25.0615926,121.5639048
偶戲博物館地下停車場B1F站,台北市松山區市民大道5段99號(地下一樓機車停車場)(近京華城購物中心市民大道側),台北市,松山區,25.0474359,121.5632341
民生配水池加壓站停車場站,台北市松山區民生東路四段131巷(近民生配水池加壓站停車場),台北市,松山區,25.059022,121.5537679
民有市場地下停車場B1F站,台北市松山區民權東路三段140巷15號(地下一樓機車停車場)(近民有一號公園),台北市,松山區,25.0608406,121.5477096
HiLife 北市松柏店站,台北市松山區光復北路102號(近博仁綜合醫院),台北市,松山區,25.0506038,121.5577463
第一銀行延吉站,台北市松山區延吉街13號(近吉仁公園),台北市,松山區,25.0464073,121.5536514
合作金庫銀行總行站,台北市松山區長安東路二段225號(近臺安醫院),台北市,松山區,25.0487974,121.5454745
全家新健康店站,台北市松山區南京東路四段133巷9弄2號(近南京東路四段133巷/健康路口),台北市,松山區,25.0532357,121.5552486
中油復興北路加油站,台北市松山區復興北路31號(近北捷南京復興站),台北市,松山區,25.0495151,121.5444235
吉盛汽車有限公司站,台北市松山區濱江街375號(近台北松山機場濱江街側),台北市,松山區,25.0726141,121.5531676
應安168 永吉場停車場站,台北市信義區永吉路120巷83號旁(近永吉路120巷/虎林街120巷口),台北市,信義區,25.0424831,121.5703138
春光公園地下停車場B1F站,台北市信義區忠孝東路 5 段 666 號(地下一樓機車停車場)(近台北市春光公園),台北市,信義區,25.0406521,121.5652968
松山工農地下停車場B1F站,台北市信義區忠孝東路五段236巷15號(地下一樓機車停車場)(近松山工農),台北市,信義區,25.0398123,121.5721029
台北市環保局三張犁分隊部站,台北市信義區忠孝東路五段255巷(近臺北市政府消防局),台北市,信義區,25.0411522,121.5707196
全家新忠隆店站,台北市信義區忠孝東路五段71巷8號(近中油忠孝東路站),台北市,信義區,25.0417726,121.5672043
Gogoro 信義松仁服務中心站,台北市信義區松仁路174號(近三犁公園),台北市,信義區,25.0280796,121.5682273
府前廣場地下停車場B1F站,台北市信義區松壽路1號(地下一樓機車停車場)(近松壽路/市府路口),台北市,信義區,25.0374508,121.5638224
KBN 鐵馬堂站,台北市信義區信安街60號(近通化街夜市),台北市,信義區,25.026628,121.5575886
臺北市公共運輸處大樓站,台北市信義區信義路五段151巷(近臺北市政府松德辦公大樓),台北市,信義區,25.0316465,121.5733692
宏佳騰台北基隆路店站,台北市信義區基隆路一段131號(近基隆路一段/松隆路口),台北市,信義區,25.0442279,121.5666598
臺北市災害應變中心地下停車場B1F站,台北市信義區莊敬路391巷11弄2號(地下一樓機車停車場)(近臺北市松山地政事務所),台北市,信義區,25.0288455,121.5661533
上下工站,台北市信義區嘉興街181巷9弄54號(近通化街夜市),台北市,信義區,25.0269669,121.5577814
CITYLINK 松山店站,台北市南港區市民大道七段8號(近中坡北路/玉成街間),台北市,南港區,25.0492807,121.5805022
玉成公園地下停車場B1F站,台北市南港區成福路118號(地下一樓機車停車場)(近成福路/成福路107巷口),台北市,南港區,25.0423026,121.5859494
日月亭南港站地下及立體停車場B1F站,台北市南港區忠孝東路七段265巷1號(地下一樓機車停車場)(近忠孝東路七段/忠孝東路七段265巷路口),台北市,南港區,25.0518856,121.603579
玉成國小地下停車場B1F站,台北市南港區昆陽街23號(地下一樓機車停車場)(近昆陽街84巷口),台北市,南港區,25.0519623,121.5933174
全家研究院店站,台北市南港區研究院路二段70巷1號(近中央研究院),台北市,南港區,25.0458578,121.615006
台北捷運內湖機廠站,台北市南港區經貿一路265號(近捷運內湖機廠機車轉乘停車場),台北市,南港區,25.0612834,121.618215
世貿公園地下停車場B1F站,台北市南港區經貿二路88巷1號(地下一樓機車停車場)(近經貿二路88巷/三重路),台北市,南港區,25.0578487,121.61485
南港國小地下停車場B1F站,台北市南港區興東街59號(地下一樓機車停車場)(近興東街12號),台北市,南港區,25.0562949,121.6114033
HiLife 北市港南店站,台北市南港區舊莊街一段212巷2號(近南港分局舊莊派出所),台北市,南港區,25.038168,121.6224783
Gogoro 萬華中華店站,台北市萬華區中華路二段100號(近中華路二段/莒光路口),台北市,萬華區,25.0313947,121.503965
艋舺公園地下停車場B1F站,台北市萬華區西園路一段145號(地下一樓機車停車場)(近艋舺公園),台北市,萬華區,25.0356876,121.4999424
萬華國中地下停車場B1F站,台北市萬華區西藏路201號(地下一樓機車停車場)(近萬華國中),台北市,萬華區,25.0285877,121.4989765
峨眉立體停車場B1F站,台北市萬華區峨眉街83號(地下一樓機車停車場)(近臺北市立聯合醫院昆明院區),台北市,萬華區,25.0443194,121.5047331
家樂福桂林店站,台北市萬華區桂林路1號(近永福街/柳州街口),台北市,萬華區,25.0378901,121.5058635
康定路機車停車場站,台北市萬華區康定路30巷旁(近康定路/峨眉街口),台北市,萬華區,25.0440258,121.5026349
山隆萬大加油站,台北市萬華區萬大路207號(近萬大路/西藏路口),台北市,萬華區,25.0272531,121.5006323
山隆華中加油站,台北市萬華區萬大路388號(近東園國小),台北市,萬華區,25.0219392,121.4986648
洛陽綜合立體停車場B1F站,台北市萬華區環河南路1段1號(地下一樓機車停車場)(近萬華分局武昌街派出所),台北市,萬華區,25.0479004,121.5069692
臺北市公有環南市場站,台北市萬華區環河南路2段245號(近環南中繼市場西一門),台北市,萬華區,25.0292628,121.4906279
士林運動中心站,臺北市士林區士商路1號(近承德公園),台北市,士林區,25.0894208,121.5214896
台灣聯通士林官邸場站,臺北市士林區福林路100巷11弄交叉口(近福林路/福林路100巷口),台北市,士林區,25.0958808,121.5324602
大同運動中心站,臺北市大同區大龍街51號(近大龍街/昌吉街口),台北市,大同區,25.0648806,121.5161576
鐵娘子騎士部品1號店站,臺北市大安區辛亥路三段157巷8號(近臥龍公園),台北市,大安區,25.0176764,121.5493896
國立臺北大學臺北校區站,臺北市中山區民生東路三段67號(近龍江公園),台北市,中山區,25.0584331,121.5420931
內湖運動中心站,臺北市內湖區洲子街12號(近洲子街/港墘路口),台北市,內湖區,25.0781572,121.5747702
膜換生騎士部品&機車快速貼膜店站,臺北市信義區松信路23號(近松信路/市民大道六段路口),台北市,信義區,25.0484653,121.5723569
7-ELEVEN 義和店站,台中市大甲區中山路一段492號(近中山路一段/義和二街口),台中市,大甲區,24.3388224,120.6183491
福懋大甲加油站,台中市大甲區中山路一段916號(近順天路口),台中市,大甲區,24.350605,120.627577
7-ELEVEN 永在店站,台中市大甲區日南里黎明路3之21號(近中山路二段/黎明路口),台中市,大甲區,24.3917879,120.6544335
HiLife 中縣中寶店站,台中市大甲區幼獅路1號(近幼獅工業區),台中市,大甲區,24.4093927,120.6437262
7-ELEVEN 金甲后店站,台中市大甲區甲后路五段360號(近甲后路/開元路口),台中市,大甲區,24.3449987,120.6345043
7-ELEVEN 鈺英店站,台中市大甲區育英路283號(近經國路/育英路口),台中市,大甲區,24.354169,120.618939
中油大甲加油站,台中市大甲區頂店里中山路一段1120號(近中山路一段/大發路口),台中市,大甲區,24.3549962,120.6318901
全聯台中大甲店站,台中市大甲區復興路59號(近復興路/五褔街口),台中市,大甲區,24.3788233,120.6487508
HiLife 中縣大甲店站,台中市大甲區經國路407號(近大甲體育場),台中市,大甲區,24.3491659,120.6169107
7-ELEVEN 金大安店站,台中市大安區中山南路241號(近興安路/中山南路口),台中市,大安區,24.3441793,120.5882322
中油大安加油站,台中市大安區東安里8鄰中山南路193號(近大安消防分隊),台中市,大安區,24.3432598,120.5889721
HiLife 中縣中秋店站,台中市大肚區自由路212-9號(近平和東街),台中市,大肚區,24.1482894,120.5496591
中油追分加油站,台中市大肚區沙田路一段167號(近追分車站),台中市,大肚區,24.1196671,120.5733993
山隆大肚加油站,台中市大肚區沙田路三段247號(近沙田路三段/萬興路口),台中市,大肚區,24.1596939,120.543392
全聯台中遊園店站,台中市大肚區遊園路二段216號(近遊園路二段/遊園路二段214巷交叉口),台中市,大肚區,24.1741592,120.5812232
全家大里永勝店站,台中市大里區大明路469號(近大明路/永隆路口),台中市,大里區,24.1147374,120.6760263
順發3C大里店站,台中市大里區中興路一段343號(近中興路一段/仁化路口),台中市,大里區,24.0918698,120.6909628
全家大里永興店站,台中市大里區中興路二段156號(近中興路二段/現岱路口),台中市,大里區,24.1003529,120.6880175
全家大里金大發店站,台中市大里區仁化路343-1號(近仁化路/仁城路交叉口),台中市,大里區,24.09517,120.7067495
全聯大里仁化店站,台中市大里區仁化路500號(近仁化路/仁祥街交叉口),台中市,大里區,24.0963104,120.7028617
全家大里河堤店站,台中市大里區立中街9號(近立元路/立中街口),台中市,大里區,24.1007903,120.6970423
全家大里成功店站,台中市大里區成功路547號(近光明路/成功二路口),台中市,大里區,24.0920354,120.7032664
全家大里東芳店站,台中市大里區東南路142之6號1樓(近東南路/東南路148巷口),台中市,大里區,24.0795986,120.6946374
Gogoro 台中大里店站,台中市大里區東榮路一段132號(近中興路/東榮路口),台中市,大里區,24.1100655,120.6906092
全家大里大金店站,台中市大里區長春路78巷50號(近仁化路/長春路78巷口),台中市,大里區,24.0901573,120.6907708
全聯大里益民店站,台中市大里區益民路一段175號(近益民路/新南路口),台中市,大里區,24.1071462,120.6928716
耕讀園台中國光店站,台中市大里區國光路二段223號(近國光路二段/德芳路二段口),台中市,大里區,24.1051594,120.6807432
全聯大里國光店站,台中市大里區國光路二段70號(近國光花市),台中市,大里區,24.1020645,120.6822143
全家大里善化店站,台中市大里區善化路146號(近善化路/成功二路口),台中市,大里區,24.0983647,120.7026566
全家大里金城店站,台中市大里區塗城路537號(近塗城路/塗城路541巷路口),台中市,大里區,24.0876548,120.7052149
全家大里新光店站,台中市大里區新光路93號(近新光路/東榮路口),台中市,大里區,24.1094295,120.6920159
台糖鳳凰加油站,台中市大里區鳳凰路50號(近光正國中),台中市,大里區,24.0952396,120.7170427
Gogoro 大里德芳服務中心站,台中市大里區德芳南路459號(近國光路/德芳南路口),台中市,大里區,24.1042637,120.6825625
北基中清交流道加油站,台中市大雅區中清路三段801號( 近中清路三段/中清路三段819巷口 ),台中市,大雅區,24.2136276,120.6494543
全聯大雅民生店站,台中市大雅區民生路四段72號(近上楓國小斜對面),台中市,大雅區,24.2364267,120.6685274
全家大雅文雅店站,台中市大雅區永和路127-8號(近永和路/中和路口),台中市,大雅區,24.2191882,120.6412032
臺中市大雅區公所站,台中市大雅區雅環路二段299號(近大雅區戶政市務所),台中市,大雅區,24.2291973,120.6484839
全聯台中雅環店站,台中市大雅區雅環路二段87號(近雅環路二段/雅環路二段85巷路口),台中市,大雅區,24.2263205,120.6527333
臺中市停二停車場站,台中市大雅區學府路(大雅國中旁)(近學府路/大雅路路口),台中市,大雅區,24.2225395,120.6498144
全聯大雅學府店站,台中市大雅區學府路109之11號(近學府路/學府路101巷口),台中市,大雅區,24.2178938,120.650744
Gogoro 大雅學府門市站,台中市大雅區學府路143號(近學府路/學府路152巷口),台中市,大雅區,24.2202239,120.6501326
全家台中萬代福店站,台中市中區公園路42號(近公園路/大誠街口),台中市,中區,24.1464625,120.6798949
挪威森林行旅3號館站,台中市中區建國路187號(近建國路/八德街口),台中市,中區,24.138923,120.6858985
HiLife 台中交轉店站,台中市中區雙十路一段29號(近雙十路/光復路交叉口),台中市,中區,24.1411446,120.6856982
全家太平新豐年店站,台中市太平區大源十八街1號1樓(近大源十八街/大源路口),台中市,太平區,24.1418448,120.7245959
全家太平新興店站,台中市太平區大興11街207號(近大興11街/長安11街口),台中市,太平區,24.1529782,120.7287196
全家太平普拉斯店站,台中市太平區大興路127號(近大興路/大興十一街口),台中市,太平區,24.1544911,120.7334052
台糖德隆加油站,台中市太平區工業路112號(近工業路/工業十四路口),台中市,太平區,24.1018025,120.7171446
7-ELEVEN 精中店站,台中市太平區太平一街220號(近太平一街/長億六街口),台中市,太平區,24.1155199,120.719657
全家太平新興中店站,台中市太平區永平南路1號(近永平南路/中興東路口),台中市,太平區,24.1303962,120.7210506
HiLife 太平永成店站,台中市太平區永豐路258號(近永成路),台中市,太平區,24.1174427,120.7062196
7-ELEVEN 丰太店站,台中市太平區永豐路351號(近新仁路一段/永豐路口),台中市,太平區,24.1117709,120.7037457
全家太平永豐店站,台中市太平區永豐路81號﹑83號1樓(近永豐路/永豐路85巷口),台中市,太平區,24.1233638,120.7118985
全家太平光德店站,台中市太平區光德路101號1樓(近德明路/光德路口),台中市,太平區,24.1015324,120.7213579
HiLife 太平光德店站,台中市太平區光德路379號(近慈明高中),台中市,太平區,24.1082328,120.72492
HiLife 太平宜昌店站,台中市太平區宜昌路302號(近宜文街),台中市,太平區,24.1429554,120.7129861
全家太平建興店站,台中市太平區建興路268號(近建興路/正誠街口),台中市,太平區,24.1272662,120.7269516
7-ELEVEN 功興店站,台中市太平區建興路47號(近建興路/成功東路口),台中市,太平區,24.130954,120.7241922
全聯台中太平店站,台中市太平區樹德路117號(近樹德路/廣三街),台中市,太平區,24.154127,120.7120475
全家太平金城店站,台中市太平區樹德路275號(近樹德路/育賢路口),台中市,太平區,24.1592546,120.7128457
Gogoro 太平樹德門市站,台中市太平區樹德路315號(近樹德路/新安街口),台中市,太平區,24.1598302,120.7130002
楓康超市太平店站,台中市太平區樹德路67-1號(近樹德路/樹德路69巷路口),台中市,太平區,24.1513419,120.710157
家樂福便利購太平環中店站,台中市太平區環中東路三段567號(近新平立體停車場),台中市,太平區,24.1562597,120.7175039
迪卡儂台中北屯店站,台中市北屯區中清路二段1075號(近見晴臺機槍堡),台中市,北屯區,24.1912325,120.660632
Gogoro 北屯中清門市站,台中市北屯區中清路二段592號(近中清路二段/經貿一路口),台中市,北屯區,24.1827887,120.6658895
臺中市太和停車場站,台中市北屯區太和路2段、近太和2街(近太和二街/三和街口),台中市,北屯區,24.1640957,120.7252256
全家台中金原店站,台中市北屯區太原路三段231號(近太原路/青島路口),台中市,北屯區,24.1650636,120.6925278
全家台中睿景店站,台中市北屯區太原路三段849號(近太原路三段/景賢六路口),台中市,北屯區,24.1649474,120.7115742
全家台中太順店站,台中市北屯區太順路103號(近太順路/太和路一段口),台中市,北屯區,24.158439,120.7250316
福懋文心路加油站,台中市北屯區文心路4段613號(近崇德路二段交叉口),台中市,北屯區,24.1724046,120.6859281
Gogoro 北屯文心服務中心站,台中市北屯區文心路四段949、951號(近四維國小對面),台中市,北屯區,24.1712935,120.6949076
全聯台中北屯店站,台中市北屯區北屯路289-10號(近北屯路/北屯路212巷口),台中市,北屯區,24.1679048,120.6958961
全聯台中北屯二店站,台中市北屯區北屯路417號(近僑孝國小),台中市,北屯區,24.1754979,120.698903
中油北屯加油站,台中市北屯區北屯路436號(近舊社公園),台中市,北屯區,24.179543,120.701232
全聯台中四平店站,台中市北屯區四平路523號(近四平路/后庄路口),台中市,北屯區,24.1931825,120.681622
全家台中仁美店站,台中市北屯區昌平東二路179號(近昌平東二路/崇德十路口),台中市,北屯區,24.188366,120.6873825
中油昌平路加油站,台中市北屯區昌平路一段95號(近東光市場),台中市,北屯區,24.1710201,120.6909358
全聯台中東山店站,台中市北屯區東山路一段173之1號(近東山路一段/東山路一段156-1路口),台中市,北屯區,24.170298,120.7079849
全聯台中大坑店站,台中市北屯區東山路一段346號(近東山路/祥和路一段),台中市,北屯區,24.1762259,120.7261761
中油東山路加油站,台中市北屯區東山路一段377之5號(近東山路一段/和祥街口),台中市,北屯區,24.1767781,120.7276995
臺中市東山停車場站,台中市北屯區東山路一段384巷、經補路(近東山路/經補路口),台中市,北屯區,24.1803558,120.7326429
全家台中培鶯店站,台中市北屯區東山路二段51-11號(近東山路二段/中興巷口),台中市,北屯區,24.1801156,120.7409949
全聯台中松五店站,台中市北屯區松竹五路二段180號(近松竹五路二段/松竹五路二段192巷口),台中市,北屯區,24.1771377,120.713492
全聯台中軍太店站,台中市北屯區軍功路１段183號(近軍功路一段/太原路三段口),台中市,北屯區,24.1609084,120.713404
HiLife 台中中軍店站,台中市北屯區軍功路二段130號(近軍福十八街),台中市,北屯區,24.1784192,120.7196752
全聯台中軍功店站,台中市北屯區軍功路二段39號(近軍功路二段/東山路一段口),台中市,北屯區,24.1767128,120.7191306
尼克早午餐站,台中市北屯區軍福九路306號(近和祥公園),台中市,北屯區,24.1694453,120.726454
車麗屋台中崇德店站,台中市北屯區崇德二路二段225號(近崇德二路二段/河北西路口),台中市,北屯區,24.1776761,120.6826865
楓康超市崇德店站,台中市北屯區崇德路三段477號(近崇德路/崇仁街路口),台中市,北屯區,24.1916519,120.6862017
全家台中金頂店站,台中市北屯區部子路351﹑353號(近廍子路/軍福十三路口),台中市,北屯區,24.1704314,120.7330807
臺中市麗園停車場站,台中市北屯區環太東路口(近環太東路/廊子路路口),台中市,北屯區,24.159912,120.7329705
Gogoro 台中三民店站,台中市北區三民路三段146號(近中友百貨),台中市,北區,24.1513516,120.6849381
宏佳騰台中三民店站,台中市北區三民路三段168巷1號(近三民路三段/育才北路口),台中市,北區,24.1521983,120.6853509
楓康超市三民店站,台中市北區三民路三段345號(近三民路三段/益華街口),台中市,北區,24.1581811,120.6898753
中油台中公園路加油站,台中市北區三民路三段50號(近臺中公園),台中市,北區,24.1470102,120.6831046
eReady 台中中清店站,台中市北區中清路一段176~178號(近中清路一段/英才路口),台中市,北區,24.1558756,120.6771249
Gogoro 北區中清服務中心站,台中市北區中清路一段328號(近中清路一段/梅亭街口),台中市,北區,24.1606783,120.675534
全家台中金太平店站,台中市北區太平路66號(近太平國小),台中市,北區,24.1487129,120.6826104
全家台中太陽店站,台中市北區太原路一段450-1號(近太原路一段/忠明五街路口),台中市,北區,24.1647303,120.6676634
HiLife 台中永太店站,台中市北區太原路二段240號一樓全部(近第二分局),台中市,北區,24.1649904,120.6824796
全聯台中永興店站,台中市北區永興街242號(近北區區公所),台中市,北區,24.1653052,120.682418
大潤發台中忠明店站,台中市北區忠明路499號(近國軍台中總醫院),台中市,北區,24.1633337,120.6719347
臺中市中華停車場站,台中市北區柳川東路四段(中華夜市旁)(近柳川西路/公園路口),台中市,北區,24.1509506,120.680013
Gogoro 台中柳川服務中心站,台中市北區柳川東路四段112號113號(近中國醫藥大學),台中市,北區,24.1550519,120.6813213
全聯台中新民店站,台中市北區健行路37號(近健行路/益華街16路口),台中市,北區,24.1589003,120.6896211
全聯台中健行店站,台中市北區健行路447號(近健行路/五常街路口),台中市,北區,24.1589679,120.6798473
臺中市廣停停車場站,台中市北區博館二街、博館東街9巷(近博館二街/博館東街路口),台中市,北區,24.155026,120.6660868
家樂福便利購漢口店站,台中市北區漢口路四段295號(近綏遠路口),台中市,北區,24.1672783,120.6803611
7-ELEVEN 新石岡店站,台中市石岡區明德路118號(近明德路/大智街口),台中市,石岡區,24.2744423,120.7770108
台糖七星加油站,台中市后里區三豐路三段640號(近后里馬場),台中市,后里區,24.297762,120.7238156
全聯后里文明店站,台中市后里區三豐路三段855號(近大甲分局義里派出所),台中市,后里區,24.3054331,120.7215682
台糖月眉加油站,台中市后里區甲后路2段277號(近台糖月眉觀光糖廠),台中市,后里區,24.3129636,120.6963909
全聯台中后里店站,台中市后里區甲后路587號(近甲后路/甲后路583巷),台中市,后里區,24.3226359,120.6630744
全家后里新中興店站,台中市后里區甲后路一段362號(近甲后路一段/新興街口),台中市,后里區,24.3092444,120.7263572
全家台中上安店站,台中市西屯區上安路136號一樓(近上安路/上安路101巷路口),台中市,西屯區,24.1714046,120.6399581
全聯台中大鵬店站,台中市西屯區大鵬路107號(近大鵬路/順平路口),台中市,西屯區,24.1779417,120.6633121
全家台中福和店站,台中市西屯區工業三十八路3號(近協和公園),台中市,西屯區,24.1756718,120.5890165
7-ELEVEN 鑫工和店站,台中市西屯區工業區38路30號(近工業區38路與順和二街路口),台中市,西屯區,24.1762168,120.589785
全家台中金工店站,台中市西屯區工業區一路98-130號(近工業區一路/福安十一街口),台中市,西屯區,24.1717079,120.6127532
台竣實業站,台中市西屯區工業區三十三路1號(近工業區三十三路/工業區二十八路),台中市,西屯區,24.1703705,120.5951009
7-ELEVEN 大貿店站,台中市西屯區中平路279號(近大鵬國小),台中市,西屯區,24.1778667,120.6644628
HiLife 台中愛萊店站,台中市西屯區中清路二段1356號(近中清路與中康街口),台中市,西屯區,24.1951736,120.6586473
UNIQLO 台中中清路店站,台中市西屯區中清路二段1389號(近中清路二段/黎明路三段口),台中市,西屯區,24.196468,120.657362
HiLife 台中中屯店站,台中市西屯區文心路三段91號(近文心路三段與西屯路二段交叉口),台中市,西屯區,24.1664974,120.6521345
台灣聯通台灣大道場站,台中市西屯區台灣大道三段367號(近台灣大道/河南路路口),台中市,西屯區,24.166097,120.6421132
台中 JMall 商場站,台中市西屯區台灣大道四段1038號(近台灣大道四段/福康路口),台中市,西屯區,24.1833768,120.6154956
Gogoro 台中中港門市站,台中市西屯區台灣大道四段771號(近台灣大道四段/中工三路口),台中市,西屯區,24.1807543,120.6194339
臺中市惠順停車場站,台中市西屯區市政北六路、河南路三段(近市政北六路/河南路三段口),台中市,西屯區,24.1649861,120.6390837
耕讀園台中市政店站,台中市西屯區市政路109號(近惠文五街/市政路口),台中市,西屯區,24.1578294,120.6402722
Gogoro 西屯甘肅服務中心站,台中市西屯區甘肅路二段48號(近甘肅路二段/甘肅路二段55巷口),台中市,西屯區,24.171458,120.6559465
HiLife 台中中宏店站,台中市西屯區西屯路三段158-50號(近宏安巷),台中市,西屯區,24.1880472,120.6184431
HiLife 台中中都店站,台中市西屯區西屯路三段173-25號(近台中都會公園),台中市,西屯區,24.1907145,120.5947901
7-ELEVEN 福上店站,台中市西屯區河南路2段71號1樓(近中醫大水湳校區),台中市,西屯區,24.1755582,120.6593509
7-ELEVEN 航發店站,台中市西屯區河南路二段242號(近河南路二段與逢大路路口),台中市,西屯區,24.1758337,120.6501944
家樂福青海店站,台中市西屯區青海路2段207-18號(近青海路二段/源通巷口),台中市,西屯區,24.1704558,120.6448136
楓康超市青海店站,台中市西屯區青海路二段520號(近青海路/福科二路口),台中市,西屯區,24.1762858,120.6363038
全聯台中文心店站,台中市西屯區重慶路136號(近重慶路/天水西六街口),台中市,西屯區,24.1663313,120.6565937
臺中市廣停130停車場站,台中市西屯區馬龍潭路、龍富路5段(近龍富路5段/馬龍潭路口),台中市,西屯區,24.1605283,120.6299499
臺中市潮洋臨時停車場站,台中市西屯區逢甲路、福星路(近逢甲路75巷/福星路口),台中市,西屯區,24.1788168,120.645096
7-ELEVEN 逢喜店站,台中市西屯區逢甲路247號(近至善國中/逢甲公園),台中市,西屯區,24.1760833,120.6408176
台灣聯通台中惠來場站,台中市西屯區惠來路二段82號(近惠來路三段/市政北一路口),台中市,西屯區,24.1611157,120.6405956
大鳥摩哆站,台中市西屯區朝馬路203-6號(近虹陽橋),台中市,西屯區,24.1735948,120.6230153
台中朝馬運動中心站,台中市西屯區朝貴路199號(近朝貴路與朝馬三街交叉口),台中市,西屯區,24.167763,120.633834
僑光科技大學站,台中市西屯區僑光路100號(近福興北路/僑大路口),台中市,西屯區,24.1892158,120.6446721
臺中市文修停車場站,台中市西屯區漢翔路、烈美街(近漢翔路/烈美街口),台中市,西屯區,24.1851468,120.6424629
Gogoro 西屯福星北服務中心站,台中市西屯區福星北路35號(近福星北路/福星北二街口),台中市,西屯區,24.183861,120.644496
全聯台中福星店站,台中市西屯區福星北路60號(近福星北路/福星北三街路口),台中市,西屯區,24.1845343,120.6447838
北基世貿加油站,台中市西屯區福康路199號(近福康路/西屯路三段路口),台中市,西屯區,24.1874284,120.6183802
臺中市藍興停車場站,台中市西區大全街、大新街(近大全街/大新街路口),台中市,西區,24.1338901,120.6688763
台灣聯通台中大忠場站,台中市西區大忠街97號(近精誠十七街/大忠街口),台中市,西區,24.1500883,120.656668
國立臺中教育大學站,台中市西區五權路49號(近民生路/五權路口),台中市,西區,24.1449234,120.6702966
Gogoro 台中公益門市站,台中市西區公益路201號(近公益路/中美街口),台中市,西區,24.150638,120.6606941
臺中州廳站,台中市西區民權路99號(近民權路/市府路口),台中市,西區,24.1385851,120.6785571
7-ELEVEN 上誠店站,"台中市西區向上路一段381號,383號,385號(近向上路一段/精誠路交叉口)",台中市,西區,24.146523,120.655457
臺中市土庫停車場站,台中市西區忠明南路、存中街、華美街口(近存中街/忠明南路口),台中市,西區,24.1415739,120.6588138
歐非行旅站,台中市西區忠明南路333號(近忠明南路/民生路口),台中市,西區,24.1445189,120.6574675
全聯台中忠明店站,台中市西區忠明南路445號(近忠明南路/五權西六街路口),台中市,西區,24.1378555,120.6575119
7-ELEVEN 三中店站,台中市西區忠明路54之1號(近忠明國小),台中市,西區,24.1588007,120.6609988
臺中草悟廣場站,台中市西區英才路534號(近草悟道),台中市,西區,24.14943,120.6650645
全聯台中沙鹿店站,台中市沙鹿區大同街119之1號(近大同街/大同街105巷交叉口),台中市,沙鹿區,24.2394071,120.5591676
Gogoro 沙鹿中山門市站,台中市沙鹿區中山路370號(近中山路/文昌街151巷口),台中市,沙鹿區,24.2413161,120.5610146
HiLife 中縣中航店站,台中市沙鹿區中航路一段310號(近臺中國際機場),台中市,沙鹿區,24.2584894,120.60148
7-ELEVEN 祐瑄店站,台中市沙鹿區光華路502、506號(近光華路與賢忠街交叉口),台中市,沙鹿區,24.2438313,120.5701249
7-ELEVEN 新忠貞店站,台中市沙鹿區東大路二段1587號(近東大路二段/忠貞路口),台中市,沙鹿區,24.2421111,120.6146578
7-ELEVEN 靜大店站,台中市沙鹿區晉江里台灣大道七段142號(近靜宜大學),台中市,沙鹿區,24.223989,120.5783353
宏佳騰沙鹿福德店站,台中市沙鹿區福德路193號(近福德路/星河路口),台中市,沙鹿區,24.2516288,120.5673943
靜宜大學站,台中市沙鹿區臺灣大道7段200號(近臺灣大道7段/英才路口),台中市,沙鹿區,24.2258027,120.5771913
全聯沙鹿屏西店站,台中市沙鹿區鎮南路2段46號(近鎮南路2段/南斗路口),台中市,沙鹿區,24.2175158,120.5707182
全家和平農會店站,台中市和平區東關路三段235-2號(近東關路三段/崑崙巷口),台中市,和平區,24.1735929,120.8792081
中油台中和平加油站,台中市和平區南勢里東關路三段5號(近原住民技藝研習中心),台中市,和平區,24.1736967,120.889297
中油智弘加油站,台中市東區大智路210號(近大智路/建成路口),台中市,東區,24.1318663,120.6900453
臺中市東峰停車場站,台中市東區台中路、七中路、喬城路(近喬城路/中興路二段路口),台中市,東區,24.121982,120.6849426
7-ELEVEN 光園店站,台中市東區東光園路142號(近東光園路/東門路口),台中市,東區,24.1274657,120.6948315
7-ELEVEN 東泓店站,台中市東區東門路140號(近東昇橋),台中市,東區,24.1271189,120.6998566
台亞精武加油站,台中市東區精武東路42號(近精武東路與東英路交叉口),台中市,東區,24.1482138,120.7060601
eReady 台中精武店站,台中市東區精武路138號(近精武路/進德北路口),台中市,東區,24.147961,120.6921109
中油振興路加油站,台中市東區樂業里建成路556號(近新建國市場),台中市,東區,24.1334593,120.6938569
7-ELEVEN 東泰店站,台中市東勢區東蘭路41-5號(近中豐公路/東蘭路口),台中市,東勢區,24.2646794,120.8261618
中油東勢加油站,台中市東勢區粵寧里豐勢路678號(近東勢大橋),台中市,東勢區,24.2617254,120.8241389
Gogoro 東勢豐勢門市站,台中市東勢區豐勢路263號(近豐勢路/豐勢路308巷口),台中市,東勢區,24.2528333,120.8297321
全家台中金美店站,台中市南屯區14鄰南屯路二段872號(近南屯路二段/南屯路二段870巷口),台中市,南屯區,24.1412399,120.6363766
Gogoro 南屯大墩十四服務中心站,台中市南屯區大墩十四街352、354號(近大墩十四街/大正街口),台中市,南屯區,24.1524804,120.6454133
全聯台中大昌店站,台中市南屯區大墩五街98號(近大墩五街/大昌街口),台中市,南屯區,24.1419134,120.6519784
迪卡儂台中南屯店站,台中市南屯區大墩南路379號(近文心南六路/大墩南路口),台中市,南屯區,24.1313963,120.6496192
宏佳騰南屯大墩店站,台中市南屯區大墩路653-3號(近大墩路/大墩13街口),台中市,南屯區,24.151786,120.6496213
7-ELEVEN 上楓樹店站,台中市南屯區中和里黎明路一段263號(近黎明路一段/黎明路一段267巷口),台中市,南屯區,24.118133,120.6274582
全家台中龍富二店站,台中市南屯區五權西路二段1172號(近五權西路二段/龍富路二段口),台中市,南屯區,24.1486896,120.626318
Gogoro 南屯五權西門市站,台中市南屯區五權西路二段361號(近五權西路二段/文心路一段路口),台中市,南屯區,24.1398654,120.6461586
中油五權西路加油站,台中市南屯區五權西路二段566號(近五權西路二段/惠中路三段路口),台中市,南屯區,24.1414504,120.6414157
全聯台中豐樂店站,台中市南屯區文心南三路690、692號(近文心南三路/向心南路口),台中市,南屯區,24.133714,120.6428642
家樂福文心店站,台中市南屯區文心路一段521號(近文心路一段/大業路交叉口),台中市,南屯區,24.1539166,120.6464058
車太炫自助洗車台中南屯站,台中市南屯區永春東路1242號(近南屯國小),台中市,南屯區,24.1367033,120.633992
宜家家居南屯店站,台中市南屯區向上路二段168號(近向上路二段/大觀路口),台中市,南屯區,24.147041,120.6429056
台糖忠勇加油站,台中市南屯區忠勇路16之5號(近春社派出所),台中市,南屯區,23.9676061,120.5541561
台糖成功嶺加油站,台中市南屯區忠勇路1號(近高仕高爾夫球場),台中市,南屯區,24.1272101,120.6074439
家樂福便利購台中南屯店站,台中市南屯區南屯路二段270之1號(近南屯路二段/田心北二巷),台中市,南屯區,24.1372013,120.6487082
台中南屯運動中心站,台中市南屯區黎明路一段998號(近黎明路一段/文昌街口),台中市,南屯區,24.137572,120.6376964
全家台中龍富店站,台中市南屯區龍富路四段2號(近龍富路四段/永春路口),台中市,南屯區,24.1408019,120.626047
7-ELEVEN 精科店站,台中市南屯區嶺東路368號(近嶺東路/文山三街),台中市,南屯區,24.1451466,120.6109414
全家台中新文山店站,台中市南屯區嶺東路730號(近嶺東路/文山六街口),台中市,南屯區,24.1485281,120.6119179
HiLife 台中中慶店站,台中市南區大慶街二段27號(近復興北路),台中市,南區,24.1179342,120.6491171
HiLife 台中衛斯理店站,台中市南區五權南一路52號(近五權南路),台中市,南區,24.1125404,120.6698211
7-ELEVEN 福田店站,台中市南區文心南路885號(近樹義國小),台中市,南區,24.1111269,120.6591943
Gogoro 南區建成門市站,台中市南區建成路1637號(近建成路/學府路口),台中市,南區,24.1262576,120.6748245
全聯台中建國南店站,台中市南區建國南路一段255號(近建國南路一段/復興路二段71巷口),台中市,南區,24.124659,120.6579736
楓康超市大慶店站,台中市南區復興路一段170號(近復興路1段/德富路口),台中市,南區,24.1132242,120.6534488
全家台中樹仔腳店站,台中市南區復興路一段33號(近復興路一段/環中路六段口),台中市,南區,24.1105149,120.6461346
愛買復興店站,台中市南區復興路一段359號(近復興路一段/文心南路口),台中市,南區,24.1148807,120.6542177
中油台中復興路加油站,台中市南區復興路三段73號(近臺中高等法院),台中市,南區,24.1292042,120.6693964
中油台中三民路加油站,台中市南區福平里三民路一段１號(近五權車站),台中市,南區,24.1281961,120.6669596
HiLife 台中中大店站,台中市南區興大路300號(近中興大學),台中市,南區,24.1189133,120.6716351
中油烏日加油站,台中市烏日區九德里中山路一段539號(近中山路一段/信義街路口),台中市,烏日區,24.1059996,120.634111
臺中市廣停二停車場站,台中市烏日區三榮二路、三榮路一段(近三榮二路/三榮一路路口),台中市,烏日區,24.1056629,120.6107351
​台亞成二加油站,台中市烏日區中山路三段422號(近成功嶺),台中市,烏日區,24.1102567,120.6028532
HiLife 烏日成中店站,台中市烏日區中山路三段548號(近成功車站),台中市,烏日區,24.1139347,120.5903901
HiLife 中縣中分店站,台中市烏日區五光路708號(近溪南路),台中市,烏日區,24.0964354,120.638497
HiLife 中縣中連店站,台中市烏日區太明北路2號(近溪南路二段),台中市,烏日區,24.0592426,120.6447291
全聯烏日長春店站,台中市烏日區長春街429號(近長春街/明德街路口),台中市,烏日區,24.108028,120.6351289
中油烏日高鐵加油站,台中市烏日區建國路265號(近烏日高鐵站),台中市,烏日區,24.1092655,120.6242606
台灣高鐵台中站,台中市烏日區站區二路8號(近烏日高鐵站),台中市,烏日區,24.1121394,120.6160843
7-ELEVEN 烏日店站,台中市烏日區新興路247號(近烏日消防局),台中市,烏日區,24.1041126,120.6242673
HiLife 神岡庄前店站,台中市神岡區三民南路2號(近神林路),台中市,神岡區,24.2512294,120.6569061
福懋三民加油站,台中市神岡區三民路510號(近國四神岡交流道),台中市,神岡區,24.2711084,120.6606803
HiLife 中縣中神店站,台中市神岡區中山路1590號(近三民路),台中市,神岡區,24.2589119,120.6556249
全聯豐原三豐店站,台中市神岡區五權路1號(近五權路/東洲路口),台中市,神岡區,24.2586249,120.7130984
HiLife 中縣神岡店站,台中市神岡區和睦路一段285號(近和睦路一段212巷),台中市,神岡區,24.2767589,120.6588733
中油梧棲加油站,台中市梧棲區八德路2號(近大智路二段/八德路口),台中市,梧棲區,24.2608504,120.5319477
全聯梧棲中華店站,台中市梧棲區中華路二段610號(近中華路二段/長春路口),台中市,梧棲區,24.2567,120.558416
7-ELEVEN 港區店站,台中市梧棲區文化路二段55號(近梧棲國小),台中市,梧棲區,24.2533687,120.5295909
全聯梧棲文昌店站,台中市梧棲區文昌路501號(近文昌路/中央路一段),台中市,梧棲區,24.2452523,120.5375914
中油清水加油站,台中市清水區中山路507-18號(近中山路/中山路507巷口),台中市,清水區,24.2778526,120.5783655
全聯清水中興店站,台中市清水區中興街57號(近中興街/西寧路口),台中市,清水區,24.2719913,120.5745901
HiLife 中縣甲南店站,台中市清水區菁埔里中山路563號(近中山路/中華北路口),台中市,清水區,24.3011087,120.5957738
全聯清水鰲峰店站,台中市清水區鰲新路5號(近鰲新路/鰲峰路交叉口),台中市,清水區,24.2661524,120.5565813
全聯台中新社店站,台中市新社區中和街5段13號(近新社郵局),台中市,新社區,24.2483482,120.8089135
7-ELEVEN 社和店站,台中市新社區中和街五段115號(近中和街五段/東新路三段路口),台中市,新社區,24.2523596,120.8082482
HiLife 潭子曇晨店站,台中市潭子區勝利路209號(近潭興路三段),台中市,潭子區,24.2114172,120.7004179
北基雅潭加油站,台中市潭子區雅潭路二段107號(近雅潭路二段/雅潭路132巷口),台中市,潭子區,24.2156667,120.6944402
7-ELEVEN 圓通南店站,台中市潭子區圓通南路239號(近圓通南路/興華一路口),台中市,潭子區,24.2070699,120.7033233
7-ELEVEN 潭厝店站,台中市潭子區環中東路一段5號(近中山路二段與環中路一段路口),台中市,潭子區,24.2014226,120.7039411
山隆竹坑加油站,台中市龍井區竹坑里中華路1段38號(近中華路1段/茄投路1段口),台中市,龍井區,24.1733025,120.5426573
全聯龍井沙田店站,台中市龍井區沙田路五段382、386號(近沙田路五段/沙田路五段399巷),台中市,龍井區,24.2032943,120.5484047
HiLife 豐原三和店站,台中市豐原區三和路349巷2號(近豐栗路),台中市,豐原區,24.2317669,120.7044794
中油大億加油站,台中市豐原區大豐路五段136號(近大豐路五段/大豐路70巷口),台中市,豐原區,24.2414518,120.6968844
Gogoro 豐原中正門市店站,台中市豐原區中正路38號(近中正路/中正路29巷),台中市,豐原區,24.2532085,120.7218305
全家豐原新水源店站,台中市豐原區水源路17號(近水源路/水源路7巷口),台中市,豐原區,24.2552798,120.7450468
愛買豐原店站,台中市豐原區水源路420號(近豐村國小),台中市,豐原區,24.2567943,120.7345013
全聯豐原田心店站,台中市豐原區田心路二段182號(近田心路二段/永康路路口),台中市,豐原區,24.2394901,120.7208521
全聯豐原成功店站,台中市豐原區成功路198號(近成功路/西勢路口),台中市,豐原區,24.2459381,120.7088179
家樂福豐原店站,台中市豐原區成功路500號(近成功路/建成路),台中市,豐原區,24.2522311,120.7064332
臺中市陽明大樓第二平面停車場站,台中市豐原區自強南街、陽明街(近自強南街/陽明街口),台中市,豐原區,24.2460579,120.7225624
臺中市社會住宅預定地臨時停車場站,台中市豐原區社會住宅預定地(東仁街與豐勢路一段147巷)(近東仁街/豐勢路一段147巷口),台中市,豐原區,24.2548595,120.7241132
PGO 台中豐原店站,台中市豐原區圓環東路178號(近圓環東路/田心路二段路口),台中市,豐原區,24.2431926,120.7194054
Gogoro 豐原中山服務中心站,台中市豐原區豐西街6號(近豐原郵局),台中市,豐原區,24.2519035,120.7151413
全聯豐原豐東店站,台中市豐原區豐東路171號(近豐東路/豐東路163巷口),台中市,豐原區,24.250351,120.731671
家樂褔便利購豐南店站,台中市豐原區豐南街118號(近豐南街與豐南街92巷交叉口),台中市,豐原區,24.239139,120.7148569
宏佳騰台中豐原店站,台中市豐原區豐原大道七段408號(近豐原大道七段 /豐工路口),台中市,豐原區,24.2622024,120.7122175
中油翁子加油站,台中市豐原區豐勢路一段588號(近豐原翁子郵局),台中市,豐原區,24.2598175,120.7346781
全家霧峰中投店站,台中市霧峰區中投西路二段430號(近中投西路二段/五福西路口),台中市,霧峰區,24.0718269,120.6621813
全家霧峰九德店站,台中市霧峰區四德路204號(近四德路/國中路口),台中市,霧峰區,24.0661726,120.691405
全家霧峰新六順店站,台中市霧峰區民生路201號(近民生路/錦州路口),台中市,霧峰區,24.0707805,120.7030161
全家霧峰朝科大店站,台中市霧峰區吉峰東路62號(近吉峰東路/民生路290巷口),台中市,霧峰區,24.0744229,120.7148093
台糖吉峰加油站,台中市霧峰區吉峰路225號(近吉峰路/民生路口),台中市,霧峰區,24.0766983,120.7156399
7-ELEVEN 吉峰店站,台中市霧峰區德泰街11號(近國泰人壽),台中市,霧峰區,24.0686613,120.6995874
全家霧峰新錦峰店站,台中市霧峰區錦州路331號(近錦州路/吉峰路口),台中市,霧峰區,24.0758607,120.7069686
太平區農會站,臺中市太平區太平路483號(近國光路/大學路口),台中市,太平區,24.1244764,120.714851
臺中市東欣停車場站,臺中市北區太平路(近東興市場旁),台中市,北區,24.1489168,120.6816674
臺中市永興停車場站,臺中市北區太原路、永興街(近太原路/永興街路口),台中市,北區,24.1631276,120.6823645
臺中市建成停車場站,臺中市北區東光五街、東光路(近肉品市場邊),台中市,北區,24.1547612,120.6989714
臺中市大墩停車場站,臺中市西屯區大容東街與大容東一街口(近大容東街/大容東一街口),台中市,西屯區,24.1566934,120.6478048
臺中市惠安停車場站,臺中市西屯區惠來路、市政北七路(近惠來路二段/市政北七路口),台中市,西屯區,24.164224,120.6425357
全聯台中龍門店站,臺中市西屯區黎明路二段866號(近黎明路/龍門路路口),台中市,西屯區,24.1624801,120.6339801
衛生福利部臺中醫院站,臺中市西區三民路一段199號(近三民路一段/三民路一段192巷口),台中市,西區,24.1406262,120.6762712
臺中市廣民停車場站,臺中市西區四維街、大明街(近四維街/大明街路口),台中市,西區,24.1391621,120.6737075
臺中市林森停車場站,臺中市西區府後街、貴和街(近府後街/貴和街路口),台中市,西區,24.1342318,120.6730638
臺中市精武廣場停車場站,臺中市東區雙十路、精武路(近雙十路/精武路口),台中市,東區,24.1462276,120.6861609
臺中市惠文停車場站,臺中市南屯區向上路二段(近向上路二段/惠文路口),台中市,南屯區,24.1468695,120.6416864
臺中市春安停車場站,臺中市南屯區建功路、春安三街(近建功路/春安二街口),台中市,南屯區,24.1356765,120.6103346
國立中興大學站,臺中市南區興大路145號(近國光路/大學路口),台中市,南區,24.1184452,120.6762426
寶熊漁樂碼頭站,臺中市潭子區中山路三段11號(近中山路三段/中山路三段十三巷口),台中市,潭子區,24.220294,120.7059846
中油八德路加油站,基隆市七堵區八德路2-15號(近八德櫻花公園),基隆市,七堵區,25.1038217,121.7233009
台亞七堵明德加油站,基隆市七堵區明德一路238號(近基隆七堵郵局),基隆市,七堵區,25.0960537,121.7102865
全家基隆中山店站,基隆市中山區中山二路53號、53-1號(近基隆市立港西國民小學),基隆市,中山區,25.1380188,121.7404266
全家基隆富港店站,基隆市中正區北寧路250-8號(近碧砂漁港),基隆市,中正區,25.14594,121.7835347
龍都新城社區站,基隆市中正區新豐街345號(近新豐街/祥豐街30巷口),基隆市,中正區,25.1356148,121.7871389
Zocha71站,基隆市中正區義一路71號(近義一路/信五路口),基隆市,中正區,25.134251,121.7463879
Gogoro 基隆義一門市站,基隆市中正區義一路87號(近長榮桂冠酒店),基隆市,中正區,25.1347604,121.7467095
基隆東岸地下停車場B1F站,基隆市仁愛區仁二路236號(地下一樓機車停車場)(近基隆廟口),基隆市,仁愛區,25.129963,121.743219
中油泉益大武崙加油站,基隆市安樂區武訓街72號(近瑞芳工業區服務中心),基隆市,安樂區,25.1484709,121.699591
中油安樂加油站,基隆市安樂區麥金路441號(近基隆市婦幼福利中心),基隆市,安樂區,25.1262869,121.7190073
宏佳騰基隆信一店站,基隆市信義區信一路15號(近基隆捐血站),基隆市,信義區,25.1286038,121.7567702
WorldGym 信義店 Sport 站,基隆市信義區信一路92號(近基隆市信義區公所),基隆市,信義區,25.1286801,121.751116
過港里里民活動中心站,基隆市暖暖區過港路54號(近過港路/寧靜街口),基隆市,暖暖區,25.1047248,121.7383628
中油國賓加油站,72256台南市佳里區同安寮1之9號(近NISSAN汽車),台南市,佳里區,23.1652951,120.1880197
台糖國聖加油站,台南市七股區義合里12鄰義合108號(台17/南38),台南市,七股區,23.108009,120.149726
中油大內加油站,台南市大內區石城里石子瀨122之12號(近大內區公所),台南市,大內區,23.1193034,120.3560883
中油山上加油站,台南市山上區明和里232號(近178縣道/南140鄉道口),台南市,山上區,23.1147826,120.3406679
家樂福安平店站,台南市中西區中華西路2段16號(近永華路一段/中華西路二段路口),台南市,中西區,22.9884277,120.1871334
7-ELEVEN 千福店站,台南市中西區中華西路二段36號(近中華西路二段/府前路二段路口),台南市,中西區,22.992824,120.187048
宏佳騰台南中西店站,台南市中西區中華西路二段596-2號(中華西路二段/西湖街),台南市,中西區,23.0032847,120.1871855
車麗屋台南中華店站,台南市中西區中華西路二段76號(近中華西路二段/府前路二段路口),台南市,中西區,22.9942687,120.1870328
五妃街南側停車場站,台南市中西區五妃街69號旁(近五妃街/府連路口),台南市,中西區,22.9823933,120.2094035
Gogoro 台南公園店站,台南市中西區公園路36號(近公園路/民權路二段路口),台南市,中西區,22.9944177,120.2057794
中油文賢路加油站,台南市中西區文賢路229號(近文和街/文賢路口),台南市,中西區,23.0045515,120.1934381
中油民生路加油站,台南市中西區民生路二段303號(近民生路二段/西寧街口),台南市,中西區,22.9966747,120.1913377
宜舍臨安民生站,台南市中西區民生路二段374號(近臨安路一段/民生路二段路口),台南市,中西區,22.9977347,120.1888756
全聯台南民權店站,台南市中西區民權路四段350、352號(近民權路/西賢一街口),台南市,中西區,22.9992205,120.1776176
中油安平古堡加油站,台南市中西區民權路四段730號(近北安路40巷/民權路四段路口),台南市,中西區,23.0020979,120.167446
7-ELEVEN 湖華店站,台南市中西區西湖街3號(近西湖街/西濱公路口),台南市,中西區,23.0032932,120.1865276
府前永福停車場站,台南市中西區府前路一段309號旁(永福路一段/永福路一段275巷),台南市,中西區,22.9897848,120.2002016
府前停18停車場站,台南市中西區府前路一段生活美學館旁(近府前路一段 / 府前一街口),台南市,中西區,22.992637,120.187721
中油府前路加油站,台南市中西區府前路二段256號 (近府前路二段 / 府前路二段258巷口 ),台南市,中西區,22.992118,120.1907938
7-ELEVEN 南門城店站,台南市中西區南門路229號(近中山國中),台南市,中西區,22.9837541,120.2044185
湖美街公有停車場站,台南市中西區湖美街60巷(近湖美街60巷 / 湖美一街口),台南市,中西區,23.00129,120.1805683
臺南萬昌街停車場站,台南市中西區萬昌街81號對面(中西區萬昌街/青年路226巷6弄),台南市,中西區,22.9911701,120.2103421
臺南環河街停車場站,台南市中西區環河街62號旁(近南市區漁會),台南市,中西區,22.9932555,120.1922342
HiLife 仁德二仁店站,台南市仁德區二仁路一段99號(近嘉南藥理科技大學),台南市,仁德區,22.9188881,120.225495
奇美實業站,台南市仁德區三甲里59-1號(近奇美實業機車停車場出入口),台南市,仁德區,22.9326731,120.2368486
台糖虎山加油站,台南市仁德區大同路三段888號(近新仁家樂福),台南市,仁德區,22.9468465,120.2188757
家樂福仁德店站,台南市仁德區中山路711號(近大魯閣打擊練習場),台南市,仁德區,22.9723723,120.2467654
仁德郵局站,台南市仁德區中正路二段1118號(近仁德區農會),台南市,仁德區,22.9697074,120.2523353
全聯仁德中清店站,台南市仁德區中清路167號(近中清路/正義二街路口),台南市,仁德區,22.973745,120.2560395
台糖仁德加油站,台南市仁德區仁愛里大同路三段525號(近台南航空站),台南市,仁德區,22.9507546,120.2187643
城光重劃停車場站,台南市仁德區文宏路與文宏一街口(近城光重劃區公園),台南市,仁德區,22.9760618,120.2433087
中油民安加油站,台南市仁德區民安路一段325號(近文華路三段/民安路一段),台南市,仁德區,22.9593551,120.2402294
7-ELEVEN 仁伯店站,台南市仁德區德安路188號(近德安路/德善路口),台南市,仁德區,22.948913,120.2553314
全聯台南六甲店站,台南市六甲區中山路93號(近中山路/信義街路口),台南市,六甲區,23.2309824,120.3498026
中油北門加油站,台南市北門區仁里里二重港108號(近台17縣道/174縣道口 ),台南市,北門區,23.242766,120.139048
全家台南大興店站,台南市北區大興街398號(近大興街/賢北街口),台南市,北區,23.0093568,120.1828531
Gogoro 北區小東服務中心站,台南市北區小東路261號(近小東公園),台南市,北區,22.9998307,120.2286676
Gogoro 台南文賢服務中心站,台南市北區文賢路470號 (文賢路/文賢路480巷口),台南市,北區,23.0058836,120.1936953
PGO 台南文賢店站,台南市北區文賢路811號(近文賢路/文賢路799巷口),台南市,北區,23.0164491,120.1932761
大興公園停車場站,台南市北區文賢路與大興街口(近大興街 / 大興街76巷口),台南市,北區,23.0120914,120.1938547
7-ELEVEN 鄭子寮店站,台南市北區北成路442號(近北成路/育德二路口),台南市,北區,23.0191141,120.2014419
北成路停車場站,台南市北區北成路與北安路一段262巷口(近北成路 / 福安宮廟口),台南市,北區,23.0202712,120.2063267
大道停6停車場站,台南市北區北門路二段505號旁(近和緯路一段/北門路二段口),台南市,北區,23.0097825,120.2158416
北園路停車場站,台南市北區北園街114巷(近北園街114巷 / 北園公園口),台南市,北區,23.0131779,120.223648
中油成功路加油站,台南市北區成功路16號(近臺南郵局),台南市,北區,22.9980788,120.2093835
臺南福利站,台南市北區成功路22巷3號(成功路22巷/成功路22巷18弄),台南市,北區,22.9987604,120.2089369
7-ELEVEN 德緯店站,台南市北區育德二路20鄰308號(育德二路/西門路四段7巷口),台南市,北區,23.007795,120.2023559
全聯台南和緯店站,台南市北區和緯路二段172號(近小北成功夜市),台南市,北區,23.0121615,120.2075959
7-ELEVEN 和緯店站,台南市北區和緯路二段252號(近和緯路二段/育德路口),台南市,北區,23.0123797,120.2062321
全家台南和緯店站,台南市北區和緯路三段333號1樓(近和緯路三段/文賢一路口),台南市,北區,23.0097133,120.1958686
全家台南長順店站,台南市北區長北街112號(近長北街/公園南路口),台南市,北區,23.0023035,120.2047052
大光郵局站,台南市北區長榮路五段266號(近大光國小),台南市,北區,23.0129956,120.2180833
中油前鋒路加油站,台南市北區前鋒路283號(近前鋒路/東豐路口),台南市,北區,23.004607,120.214996
成德停四停車場站,台南市北區海安路三段338巷91號前(海安路3段338巷/育德二路55巷),台南市,北區,23.0091069,120.202339
全聯台南開元店站,台南市北區開元路153號(開元路/開元路148巷),台南市,北區,23.0072939,120.2188707
中油千越開元加油站,台南市北區開元路467號(開元路/北園街),台南市,北區,23.0100207,120.223933
賢北街公有路外停車場站,台南市北區賢北街與大興街口(近大興街 / 大興街376巷口),台南市,北區,23.0092148,120.1828041
大潤發台南店B2F站,台南市北區臨安路2段310號(近B2機車停車場),台南市,北區,23.0044879,120.2035687
中油左鎮加油站,台南市左鎮區睦光里睦光5之2號(近台南市消防局左鎮分隊),台南市,左鎮區,23.0607597,120.4161718
全聯永康大橋店站,台南市永康區大橋二街218號(近大橋二街 / 大橋一街247巷口),台南市,永康區,23.0210115,120.2309149
全家永康大展店站,台南市永康區大灣東路38號(近大灣東路 / 南興路口),台南市,永康區,22.998374,120.260947
中油美吉加油站,台南市永康區中山南路428號(中山南路/中山南路436巷),台南市,永康區,23.0171974,120.2388203
Gogoro 永康服務中心站,台南市永康區中山南路613號(近南大附中),台南市,永康區,23.0248201,120.2542307
家樂福便利購永康二王店站,台南市永康區中山南路696號(近寶雅生活百貨),台南市,永康區,23.0201105,120.244637
中油永康加油站,台南市永康區中正北路348號(近蔦松二街/中正北路口),台南市,永康區,23.0418589,120.2549171
家樂福中正店站,台南市永康區中正南路358號(近平面機車停車場旁),台南市,永康區,23.0327968,120.2286119
中油加泓加油站,台南市永康區中正路353號(中正路/中正二街),台南市,永康區,23.0353985,120.2432337
全家永康兵仔市店站,台南市永康區中華一路61號(近中華路/中華一路口),台南市,永康區,23.0042513,120.2371793
家樂福中華店站,台南市永康區中華二路350號(近三商巧福斜對面),台南市,永康區,23.0085002,120.2308234
Gogoro 永康中華店站,台南市永康區中華路140號(近永康兵仔市菜市場),台南市,永康區,23.0029528,120.2354502
全聯永康中華店站,台南市永康區中華路575號(近中華路/中山南路口),台南市,永康區,23.0127089,120.2306207
PGO 永康中華店站,台南市永康區中華路670號(中華路/中華路661巷),台南市,永康區,23.0152281,120.229868
宏佳騰台南中華店站,台南市永康區中華路696號(近中華路/中華路661巷口),台南市,永康區,23.0160466,120.2293541
全家永康文化店站,台南市永康區文化路118號 (近文化路 / 永華路口),台南市,永康區,23.0160421,120.2579061
全家永康車行店站,台南市永康區王行路563號(近王行路/王行路1018巷口),台南市,永康區,23.0509265,120.2760485
7-ELEVEN 安興店站,台南市永康區北灣里20鄰北興路51號(近北興路/大同街口),台南市,永康區,23.0145014,120.2655976
7-ELEVEN 奇蹟店站,台南市永康區永大路3段299號 (近永大路三段/龍埔街口 ),台南市,永康區,23.0343997,120.2592976
Gogoro 永康永大服務中心站,台南市永康區永大路二段169號(永大路二段/國光六街),台南市,永康區,23.006369,120.26137
全聯永康北灣店站,台南市永康區永大路二段936號(近永大路二段/大同街425巷口),台南市,永康區,23.016234,120.2634086
全聯永康永大店站,台南市永康區永大路三段35號(近永大路三段/埔聖街口),台南市,永康區,23.0283066,120.2601413
台糖永安加油站,台南市永康區永安路350號(近永安橋),台南市,永康區,23.0496897,120.241261
全家永康永明店站,台南市永康區永明街262號(近國民路/永明街179巷口),台南市,永康區,23.0244967,120.2627365
HiLife 永康巧遇店站,台南市永康區永勝街1號(近永勝街/文化路口),台南市,永康區,23.0151872,120.2550185
全家永康龍橋店站,台南市永康區自強路830號(近自強路/龍橋街口),台南市,永康區,23.0377665,120.2646144
全家永康廣興店站,台南市永康區西勢路205號(近西勢路/西勢路196巷口),台南市,永康區,23.0205893,120.2764367
全家永康忠孝店站,台南市永康區忠孝路78﹑80號(近忠孝路/忠孝路76巷口),台南市,永康區,23.0039365,120.2400491
台南市圖書館總館旁機車停車場站,台南市永康區東橋七路320號後方(東橋七路/東橋十街),台南市,永康區,23.0238212,120.2363234
東橋八街停車場站,台南市永康區東橋八街38號旁(東橋八街/東橋三路),台南市,永康區,23.0205455,120.2332726
中油大灣加油站,台南市永康區建國里復興路65號,台南市,永康區,22.9983726,120.2490304
全聯永康富強店站,台南市永康區富強路一段108號(近富強路一段98巷口),台南市,永康區,23.0156787,120.2733358
7-ELEVEN 瓏埔店站,台南市永康區龍埔街108號(近龍埔街/龍中街口),台南市,永康區,23.0342313,120.2636306
全家永康鹽洲店站,台南市永康區鹽忠街127號(近鹽行路/鹽洲街口),台南市,永康區,23.0421931,120.2320793
全家玉井民生店站,台南市玉井區民族路89號(近民族路/民生路口),台南市,玉井區,23.1239417,120.4647278
中油玉井加油站,台南市玉井區玉田里中山路91號(近中山路/中華路口),台南市,玉井區,23.1209061,120.465247
7-ELEVEN 仙草埔店站,台南市白河區仙草里仙草6之30號(近仙草派出所),台南市,白河區,23.3468455,120.4847242
全聯白河國泰店站,台南市白河區國泰路127號(近國泰路/民安路路口),台南市,白河區,23.3479701,120.4128319
全聯台南白河店站,台南市白河區富民路142號(近新起街/富民路口),台南市,白河區,23.3451413,120.414184
Gogoro 安平中華門市站,台南市安平區中華西路二段57號(近家樂福安平店),台南市,安平區,22.9878261,120.1865844
7-ELEVEN 期建店站,台南市安平區文平里建平路277號(近建平路 / 建平七街口),台南市,安平區,22.9884516,120.1821191
中油光州加油站,台南市安平區永華路二段1255號(近永華路二段/光州路口),台南市,安平區,22.9913578,120.1602383
中油永華路東加油站,台南市安平區永華路二段216號(近永華路二段/永華三街口),台南市,安平區,22.9901504,120.1809385
台南永華市政中心站,台南市安平區永華路二段6號(近市政中心左側，機車停車場),台南市,安平區,22.9922212,120.1853137
中油育平加油站,台南市安平區育平路80號(近府平路/育平路口),台南市,安平區,22.986961,120.166656
7-ELEVEN 康平店站,台南市安平區健康三街81號(近健康三街/府平路口),台南市,安平區,22.9872395,120.1681697
全家台南建平店站,台南市安平區健康路三段10號一樓(近健康路/建平路口),台南市,安平區,22.9829441,120.1811335
中油健康路加油站,台南市安平區健康路三段238號(近健康路三段/華平路),台南市,安平區,22.9839568,120.1743947
台南安平港風景區停車場站,台南市安平區運河路43號-1(近安平遊憩碼頭旁),台南市,安平區,22.9984067,120.1608081
中油慶平路加油站,台南市安平區慶平路485號(近永華八街/慶平路口),台南市,安平區,22.996814,120.1733856
全家安定善高店站,台南市安定區蘇厝293-68號(近178縣道/南122鄉道口),台南市,安定區,23.1253629,120.2516801
璨揚企業站,台南市安南區工業一路18號(近機車停車場入口),台南市,安南區,23.0416524,120.1549558
全聯安南北安店站,台南市安南區北安路三段92.96號(近北安路三段145巷),台南市,安南區,23.0468457,120.2088833
本原街三段停1停車場站,台南市安南區本原街三段85號旁(近本原路三段/智安三街口),台南市,安南區,23.0529404,120.1772097
中油安順加油站,台南市安南區安中路一段650號(近安中路一段/安中路一段698巷口),台南市,安南區,23.0431913,120.1956526
7-ELEVEN 安立店站,台南市安南區安中路四段150號(近安中路四段/安中路四段164巷口),台南市,安南區,23.0497888,120.1700933
中油安中路加油站,台南市安南區安中路四段446號(近安中路四段500巷41弄/安中路五段路口),台南市,安南區,23.0539801,120.1605992
Gogoro 安南安和門市站,台南市安南區安和路一段158號,台南市,安南區,23.0290549,120.2142286
全聯台南培安店站,台南市安南區安和路一段463號(近安和路一段/培安路口),台南市,安南區,23.0362975,120.2132637
麗車坊安南店站,台南市安南區安和路三段116號(近安和路三段/安和路三段115巷口),台南市,安南區,23.0463439,120.2180693
中油和順加油站,台南市安南區安和路四段335號(近安和路四段/州南六街口),台南市,安南區,23.0577554,120.2184952
7-ELEVEN 安安店站,台南市安南區安明路四段260-70號(近安明路四段/安中路六段),台南市,安南區,23.0611396,120.1342674
安富街廣停6停車場站,台南市安南區安富街166號前(安富街/安富街133巷),台南市,安南區,23.0279076,120.1981042
全聯台南育安店站,台南市安南區育安街116、120號(近育安街/育安四街87巷口),台南市,安南區,23.0475153,120.2156757
7-ELEVEN 新同安店站,台南市安南區海佃路二段432號(近海佃路二段/同安路口),台南市,安南區,23.0387994,120.1882405
7-ELEVEN 淵安店站,台南市安南區海佃路三段163號 (近海佃路三段 /仁安四街口),台南市,安南區,23.0503152,120.1809714
7-ELEVEN 九份子店站,台南市安南區國安里九份子大道6號1樓(近國安街/宜居路口),台南市,安南區,23.0217736,120.1851457
7-ELEVEN 科工店站,台南市安南區塩田路2號(近塩田路/工業五路口),台南市,安南區,23.0352222,120.1484185
安南區自辦重劃廣停1停車場站,台南市安南區慈安路181號對面(慈安路/安通二街),台南市,安南區,23.0323913,120.2058919
中油西港加油站,台南市西港區西港里中山路52號(近忠孝街/中山路口),台南市,西港區,23.1160752,120.2043576
7-ELEVEN 喬興店站,台南市西港區新興街8-77、8-78號(新興街/121中山路),台南市,西港區,23.1181709,120.2020688
7-ELEVEN 子龍店站,台南市佳里區子龍里1鄰子良廟3-1號(近子龍派出所),台南市,佳里區,23.1751736,120.2057634
全聯佳里中山店站,台南市佳里區中山路452.456號(近地政事務所),台南市,佳里區,23.1603448,120.1768776
全聯佳里仁愛店站,台南市佳里區仁愛路388號(近仁愛路/自由街123巷路口),台南市,佳里區,23.1547338,120.1766889
佳里國小廣停二停車場站,台南市佳里區文化路359號(近文化路/公園路口),台南市,佳里區,23.1628865,120.1722602
全聯佳里安西店站,台南市佳里區安西路205號(近佳里國民小學),台南市,佳里區,23.1645509,120.1709231
Gogoro 佳里義民門市站,台南市佳里區義民街240號(義民街/中和街口),台南市,佳里區,23.1614727,120.1754152
中油官田工業區加油站,台南市官田區二鎮里工業路23-1號(近建業路/工業路口),台南市,官田區,23.2100647,120.3230737
全聯官田中山店站,台南市官田區中山路一段135號(近台南市警察局麻豆分局官田分駐所),台南市,官田區,23.1926353,120.3128213
中油隆田加油站,台南市官田區中華路二段23號(近台電隆田服務所),台南市,官田區,23.1994697,120.3161288
中油烏山頭交流道加油站,台南市官田區嘉南里78-15號(近國3交流道往官田六甲方向 ),台南市,官田區,23.2064519,120.3637277
台亞大同路加油站,台南市東區大同路一段243號(近大同路一段/五妃街口),台南市,東區,22.9829105,120.211467
HiLife 台南東環店站,台南市東區大同路一段59號(近東門圓環),台南市,東區,22.9874673,120.2114928
中油生產路加油站,台南市東區大同路二段869號(大同路二段/生產路),台南市,東區,22.9642534,120.2167906
PGO 台南南紡店站,台南市東區中華東路一段161號(近台南南紡夢時代),台南市,東區,22.9911678,120.2340312
台南東區環保局停車場站,台南市東區中華東路二段133巷72號(近環保局與自強里活動中心之間),台南市,東區,22.9844559,120.2351356
宏佳騰台南東區店站,台南市東區中華東路二段236號(近中華東路二段 / 富強二街口),台南市,東區,22.9825347,120.2300597
中油中華路西加油站,台南市東區中華東路三段170號(近中華東路三段/崇善路口),台南市,東區,22.9777368,120.2260324
中油中華路東加油站,台南市東區中華東路三段171號(近中華東路三段/崇德四街7巷口),台南市,東區,22.9769204,120.2260525
台南德安百貨站,台南市東區中華東路三段360號(近台南文化中心),台南市,東區,22.9740163,120.2208899
大學路社E2 停車場站,台南市東區育樂街58號(近育樂街機車停車場入口),台南市,東區,22.9956288,120.2166263
龍山里停車場站,台南市東區東門路2段158巷與光華街口(近光華街/東門路二段158巷口),台南市,東區,22.9857457,120.2215209
全家台南東文店站,台南市東區東門路三段168號(近東門路三段/文化路口),台南市,東區,22.9781762,120.233017
7-ELEVEN 立東店站,台南市東區東門路三段220號(東門路三段/富農街一段路口),台南市,東區,22.9771185,120.2344646
大東夜市機車停車場站,台南市東區林森路一段224號旁(大東夜市旁近郵局ATM),台南市,東區,22.9823759,120.2172505
長榮崇明停車場站,台南市東區長榮路一段與長榮路一段15巷口(近長榮路一段/長榮路一段15巷口),台南市,東區,22.9825494,120.2161384
台灣聯通台南崇明場站,台南市東區崇明五街31號(近崇明五街/崇明四街26巷口),台南市,東區,22.9798627,120.2164352
全聯台南崇明店站,台南市東區崇明路385號1、2樓(近中華東路三段/崇明路口),台南市,東區,22.9746636,120.2231093
崇明路E6停車場站,台南市東區崇明路700號(崇興路/崇明路),台南市,東區,22.9698259,120.2254664
中油崇善加油站,台南市東區崇善路557號(近崇善六街/崇善路口),台南市,東區,22.9730442,120.2297254
Gogoro 東區崇德門市站,台南市東區崇德路592號(近崇德路/崇明十五街口),台南市,東區,22.9714191,120.227319
台糖崇德加油站,台南市東區崇德路790號(近崇德路/生產路口),台南市,東區,22.9646509,120.2271813
關聖里停車場站,台南市東區裕平路39號旁(近裕強街/裕和二街口),台南市,東區,22.9853086,120.240046
Gogoro 台南裕農服務中心站,台南市東區裕農路1016號(近仁德區太子路),台南市,東區,22.990192,120.2461905
全聯台南裕農店站,台南市東區裕農路400號(裕農路/裕農路389巷),台南市,東區,22.9875925,120.2311928
有情門裕農店站,台南市東區裕農路962號(近裕農路/裕信路口),台南市,東區,22.989951,120.244804
榮譽街停車場站,台南市東區榮譽街127巷口(近崇明路266巷/崇明街308巷口),台南市,東區,22.9757687,120.2189958
中油大同路加油站,台南市南區大同路二段380號(近大同路二段/立德二路口),台南市,南區,22.9750911,120.2138808
7-ELEVEN 埞富店站,台南市南區大成路二段86號(近大成路二段/夏林路口),台南市,南區,22.9750856,120.1949877
全聯台南中華西店站,台南市南區中華西路一段306號(近中華西路一段/永南二街口),台南市,南區,22.9823722,120.1862476
台塑中華太子加油站,台南市南區中華西路一段91號(新孝路/中華西路一段路口),台南市,南區,22.9782439,120.1844823
中油灣裡加油站,台南市南區明興路1081號(近明興路1087巷/明興路口),台南市,南區,22.9294525,120.1855508
全聯台南明興店站,台南市南區明興路48號(近明興路/南和路88巷口),台南市,南區,22.9598402,120.1877986
7-ELEVEN 正旺店站,台南市南區明興路917號(近明興路/萬年路口),台南市,南區,22.933528,120.1823659
7-ELEVEN 鯤鯓店站,台南市南區南都里鯤鯓路20號 (近鯤鯓路 / 西部濱海公路口),台南市,南區,22.9591652,120.1841523
PGO 台南健康店站,台南市南區健康路2段126-128號(近健康路二段 / 三宮路口),台南市,南區,22.9817792,120.1941968
金華郵局站,台南市南區健康路二段182號(近健康路二段/福吉路口),台南市,南區,22.9817842,120.192687
全家台南三喜店站,台南市南區喜樹路220號(近喜樹路/ 喜明街口),台南市,南區,22.9410549,120.1783127
中油喜樹加油站,台南市南區喜樹路63號(近喜樹路/喜樹路61巷口),台南市,南區,22.9460833,120.180125
全家台南新夏店站,台南市南區新興路151號(近夏林路/新興路口),台南市,南區,22.9779109,120.1949796
HiLife 台南南都店站,台南市南區德興路1號(近新都路/德興路口),台南市,南區,22.9672088,120.1924224
中油後壁加油站,台南市後壁區後壁42號(近後壁火車站),台南市,後壁區,23.3596127,120.357581
全聯柳營中山店站,台南市柳營區中山西路一段165號(近中山西路一路/建國路口),台南市,柳營區,23.2789301,120.320835
7-ELEVEN 小腳腿店站,台南市柳營區義士路一段938號(近重溪國小),台南市,柳營區,23.2854636,120.3656495
7-ELEVEN 將軍店站,台南市將軍區長榮里長榮29之2號(近漚汪國民小學),台南市,將軍區,23.1900666,120.161817
7-ELEVEN 將富店站,台南市將軍區將富里49之8號(近將軍國小),台南市,將軍區,23.221351,120.134391
7-ELEVEN 麻學店站,台南市麻豆區大山里8鄰大山腳1之80號 ( 近南49縣道 / 市道171號口),台南市,麻豆區,23.1911909,120.222017
全聯麻豆中正店站,台南市麻豆區中正路348號(近中正路/台19線口),台南市,麻豆區,23.1891891,120.2529401
麻豆區農會站,台南市麻豆區新生北路56號(近麻豆區農會超市),台南市,麻豆區,23.1862804,120.2414313
Gogoro 善化大成門市站,台南市善化區大成路291號( 近大成路/和平路口 ),台南市,善化區,23.1296495,120.298505
7-ELEVEN 善和店站,台南市善化區大成路319號(近善化高中),台南市,善化區,23.1296002,120.2981062
7-ELEVEN 善營店站,台南市善化區小新里成功路173之1號 (近成功路 / 成功路186巷口),台南市,善化區,23.1282663,120.3135384
善化區農會站,台南市善化區中山路242號(近中華電信善化服務中心),台南市,善化區,23.1323838,120.2976566
中油善化加油站,台南市善化區中山路368號(近保安街/中山路口),台南市,善化區,23.1324291,120.2926403
臺南市善化國小站,台南市善化區進學路63號(近文康育樂中心),台南市,善化區,23.1359019,120.2875068
中油茄拔加油站,台南市善化區嘉北里茄拔2-30號(近善化區農會),台南市,善化區,23.1448165,120.328087
全聯台南新化店站,台南市新化區中正路540之1號(中正路/中正路542巷),台南市,新化區,23.0400859,120.3070584
新化聯合活動中心站,台南市新化區民生路269號(近農田水利會),台南市,新化區,23.0419224,120.3067718
永新社區停車場站,台南市新化區永新路11號後方(近永華一街/金華街一段),台南市,新化區,23.0592616,120.2960803
全聯新化忠孝店站,台南市新化區忠孝路198-7號(近新化圓環忠孝路路口),台南市,新化區,23.0371554,120.3009456
中油西拉雅加油站,台南市新市區三舍里三舍239號(近西拉雅大道/復興路口),台南市,新市區,23.0903105,120.295154
7-ELEVEN 大營店站,台南市新市區大營里136-1號(近台一線/南177鄉道口),台南市,新市區,23.0994096,120.3118375
新和社內停一停車場站,台南市新市區民生路112號(民生路/富中街路口),台南市,新市區,23.0798393,120.2881023
7-ELEVEN 新凱店站,台南市新市區社內12之5號(近民權路/富安一街路口),台南市,新市區,23.07716,120.2852975
新市法庭停車場站,台南市新市區信義街15-2號對面(近信義街/綠園一街口),台南市,新市區,23.0733816,120.2898242
中油南科加油站,台南市新市區南科二路3號(近環東路一段/南科二路口),台南市,新市區,23.096365,120.28698
南科創新一館停車場B1F站,台南市新市區南科三路5-7號(近創業路機車停車場),台南市,新市區,23.0988269,120.284218
新市區農會站,台南市新市區復興路1-1號(近新市國小),台南市,新市區,23.0793002,120.29533
中油新市加油站,台南市新市區港墘里中山路156號(近光華街/中山路口),台南市,新市區,23.0736067,120.299786
7-ELEVEN 新墘店站,台南市新市區港墘里民族路118號(近民族路/三民街口),台南市,新市區,23.0823557,120.2994106
全聯新營民生店站,台南市新營區民生路172號(近車麗屋汽車百貨),台南市,新營區,23.3113467,120.3073159
Gogoro 台南新營門市站,台南市新營區民治路62之3號(近台南市政府民治市政中心),台南市,新營區,23.3107458,120.3128091
東興路公有停車場站,台南市新營區東興路187號(近東興路/東興八街口),台南市,新營區,23.316317,120.3228524
家樂福新營店站,台南市新營區健康路251號(近新營體育場),台南市,新營區,23.3192624,120.3116573
全聯新營金華店站,台南市新營區隋唐街197號(近營新醫院),台南市,新營區,23.3074403,120.3000134
台糖新進加油站,台南市新營區新進路199號(近新營糖廠),台南市,新營區,23.3014721,120.3181515
中油學甲中正路加油站,台南市學甲區中正路645號(近大順路/中正路口),台南市,學甲區,23.2443399,120.1894075
中油學甲加油站,台南市學甲區華宗路311號(近建國路/華宗路口),台南市,學甲區,23.2296222,120.1825202
全聯學甲華宗店站,台南市學甲區華宗路501號(近華宗路/新生路路口),台南市,學甲區,23.2361595,120.1823726
中油龍崎加油站,台南市龍崎區崎頂里新市子102之1號(近台南市龍崎區公所),台南市,龍崎區,22.966918,120.359124
7-ELEVEN 仁興店站,台南市歸仁區大德路307號(近大德路/民權北路口),台南市,歸仁區,22.9734495,120.2878686
福懋歸仁加油站,台南市歸仁區中山路一段117號(近中山路一段/成功路一段口),台南市,歸仁區,22.9639434,120.3082486
中油歸仁加油站,台南市歸仁區中山路三段201號(近中山路三段/中山九街口),台南市,歸仁區,22.9678362,120.2826514
Gogoro 歸仁中山門市站,台南市歸仁區中山路三段307號(近中山路三段/民權南路口),台南市,歸仁區,22.9680455,120.2803349
台糖六甲加油站,台南市歸仁區六甲里中正南路1段2200號(中正南路1段/台39),台南市,歸仁區,23.0300717,120.2252808
中油歸仁高鐵加油站,台南市歸仁區武東里中正南路二段11號(近沙崙國中),台南市,歸仁區,22.928974,120.2777123
關廟區公所站,台南市關廟區中正路998號(近關廟區衛生所),台南市,關廟區,22.9630538,120.3277401
7-ELEVEN 鼎利店站,台南市關廟區南雄路二段210號(近南雄路二段/成功路交叉口),台南市,關廟區,22.9646379,120.328961
全聯關廟南雄店站,台南市關廟區南雄路二段417號(近北安二街/南雄路二段路口),台南市,關廟區,22.9657108,120.3281117
全聯台南鹽水店站,台南市鹽水區後厝70號(近文武街),台南市,鹽水區,23.3209744,120.2705439
7-ELEVEN 歡雅店站,台南市鹽水區歡雅26號(近鹽水區農會),台南市,鹽水區,23.2923519,120.2417643
全聯台南歸仁店站,臺南市歸仁區復興路87號(近復興路/和平南街口),台南市,歸仁區,22.9653328,120.295801
北基九如路加油站,高雄市三民區九如一路878號(近國立科學工藝博物館),高雄市,三民區,22.6402409,120.3183959
Gogoro 三民九如二門市站,高雄市三民區九如二路318號(近九如二路 / 松江街),高雄市,三民區,22.6413836,120.3038629
千葉火鍋大昌店站,高雄市三民區大昌二路197號(近大昌二路/大豐二路口),高雄市,三民區,22.6458347,120.331792
台灣聯通大順場站,高雄市三民區大順二路41號(近大順二路55巷/大順二路口),高雄市,三民區,22.640299,120.3273962
家樂福鼎山店站,高雄市三民區大順二路849號(近鼎山街機車停車場),高雄市,三民區,22.6532304,120.3189752
中油山東街加油站,高雄市三民區山東街70號(近山東街/承德街口),高雄市,三民區,22.6426089,120.3115897
宏佳騰高雄民族店站,高雄市三民區民族一路619號(近民族路 / 天祥一路),高雄市,三民區,22.6687628,120.3168535
全聯高雄明誠店站,高雄市三民區明誠一路358號(近明誠一路/金山路133巷口),高雄市,三民區,22.6601637,120.3240462
PGO 高雄明誠店站,高雄市三民區明誠二路48號(近明誠二路/明仁路),高雄市,三民區,22.659928,120.314313
家樂福愛河店站,高雄市三民區河東路356號(近愛河景觀親水公園),高雄市,三民區,22.63403,120.285927
三民區公所站,高雄市三民區哈爾濱街215號(近安邦休閒公園),高雄市,三民區,22.6476696,120.2998174
Gogoro 三民建工門市站,高雄市三民區建工路422號(近建工路/昌裕街口),高雄市,三民區,22.6519607,120.3281436
中油建工路加油站,高雄市三民區建工路566號(近中華電信對面),高雄市,三民區,22.6504393,120.324565
中油建國二路加油站,高雄市三民區建國二路66號(近FamilyMart左側),高雄市,三民區,22.6378396,120.3107337
九號倉會館站,高雄市三民區美都路9號(近願景橋),高雄市,三民區,22.6490528,120.2888528
全家高雄凱歌店站,高雄市三民區凱歌路87號(近憲政路與凱歌路交叉口),高雄市,三民區,22.6364756,120.3178044
愛國超市建工店站,高雄市三民區新民路68號(近新民路/立忠路),高雄市,三民區,22.651953,120.3241235
俥亭停車場義華站,高雄市三民區義華路與義忠街交叉口停車場(近義華路與義忠街交叉口),高雄市,三民區,22.6424608,120.3426912
全聯三民金獅湖店站,高雄市三民區鼎力路15號(近鼎力路/金山路口),高雄市,三民區,22.6700004,120.3258047
北基金獅加油站,高雄市三民區鼎力路36號(近鼎力路/鼎新路90巷),高雄市,三民區,22.6629585,120.3219964
中油鼎山路加油站,高雄市三民區鼎山街373號(近高雄大昌郵局),高雄市,三民區,22.657348,120.3218454
HiLife 三民鼎金店站,高雄市三民區鼎中路139號(近鼎中路/金山路口),高雄市,三民區,22.6621107,120.318998
Gogoro 三民鼎強服務中心站,高雄市三民區鼎強街95-1號(近鼎中里活動廣場),高雄市,三民區,22.6654932,120.3207054
家樂福澄清店站,高雄市三民區澄清路635號(近澄清路/澄和路口),高雄市,三民區,22.6439202,120.3460411
中油覺民路加油站,高雄市三民區覺民路362號(近快保中心左側),高雄市,三民區,22.6407097,120.3343956
814生鮮超市高雄大社店站,高雄市大社區中山路42-1號(近中山路/中山路36巷),高雄市,大社區,22.731906,120.3438659
中油靖海加油站,高雄市大社區中山路665-20號,高雄市,大社區,22.7307891,120.359833
台糖大社加油站,高雄市大社區中正路600號,高雄市,大社區,22.751073,120.35242
大社區公所站,高雄市大社區自強街1號(近高雄市大社區戶政事務所),高雄市,大社區,22.7301943,120.3465459
全聯大社金龍店站,高雄市大社區金龍路338號(近金龍路/大新路路口),高雄市,大社區,22.7245009,120.353297
台糖大發加油站,高雄市大寮區大寮路1303號,高雄市,大寮區,22.5925275,120.4291465
山隆大發加油站,高雄市大寮區大寮路201號(近大寮路/慈隆街),高雄市,大寮區,22.5946911,120.4055806
HiLife 高縣光明店站,高雄市大寮區大寮路830號(近光明路二段與大寮路交叉口),高雄市,大寮區,22.5914029,120.4201663
仁德116停車場站,高雄市大寮區仁勇路79號(大寮地政對面),高雄市,大寮區,22.5927731,120.3968472
和春技術學院大寮校區站,高雄市大寮區信義路40號,高雄市,大寮區,22.6338014,120.3916021
HiLife 大寮潮龍店站,高雄市大寮區華中南路153號(近華中南路 / 潮信路口),高雄市,大寮區,22.5657269,120.4288795
7-ELEVEN 潮欣店站,高雄市大寮區華中南路275號(近華中南路/潮寮路),高雄市,大寮區,22.5627751,120.4288989
HiLife 大寮新林店站,高雄市大寮區新厝路1號(近昭明國小),高雄市,大寮區,22.5609584,120.411253
Gogoro 大寮鳳林三門市站,高雄市大寮區鳳林三路420號(近鳳林三路/鳳林三路439巷),高雄市,大寮區,22.6039211,120.3962611
大寮區公所站,高雄市大寮區鳳林三路492號(近高雄銀行大發分行),高雄市,大寮區,22.6055196,120.3956199
中油大寮加油站,高雄市大寮區鳳林三路616號(近永芳國小),高雄市,大寮區,22.609008,120.394694
全聯高雄大寮二店站,高雄市大寮區鳳林四路254號(近鳳林四路/果協路口),高雄市,大寮區,22.6187293,120.3839749
中油九曲堂加油站,高雄市大寮區鳳屏二路297號(近高屏大橋),高雄市,大寮區,22.6424062,120.4177009
中油全通加油站,高雄市大樹區大坑路109號(近大樹農會姑山倉庫),高雄市,大樹區,22.7152624,120.4425674
味香山海產店站,高雄市大樹區統嶺路72之36號(近斜張橋),高雄市,大樹區,22.7670798,120.4481974
全聯高雄大樹店站,高雄市大樹區新鎮路850號(近新鎮路、建村街135巷口),高雄市,大樹區,22.6574354,120.4176644
中油小港加油站,高雄市小港區大業北路45號(近高雄公園),高雄市,小港區,22.5678166,120.3438575
全家高雄旭日店站,高雄市小港區中安路926號(近中安路與高鳳路交叉口),高雄市,小港區,22.5846474,120.367792
全聯小港店北店站,高雄市小港區店北路159號(近店北路/店鳳街口),高雄市,小港區,22.5624222,120.351422
中油臨海工業區加油站,高雄市小港區沿海二路2號(近臨海工業區),高雄市,小港區,22.5431692,120.370838
山隆高雄加油站,高雄市小港區沿海三路26-3號(近沿海三路/山邊路),高雄市,小港區,22.5292852,120.3701284
全家高雄大坪頂店站,高雄市小港區高坪二十二路471號(近高坪二十二路/高坪七路),高雄市,小港區,22.5561695,120.3816412
中油新厝高鳳加油站,高雄市小港區高鳳路272號,高雄市,小港區,22.5775302,120.3717046
7-ELEVEN 孔鳳店站,高雄市小港區高鳳路332號(近高鳳路/孔鳳路),高雄市,小港區,22.5789742,120.3717768
全家高雄崇明店站,高雄市小港區崇明街160號(近崇明街/平和路),高雄市,小港區,22.5695779,120.3303032
台糖博學加油站,高雄市小港區博學路481號(近高雄餐旅大學),高雄市,小港區,22.5631502,120.3704602
全家高雄中安店站,高雄市小港區廈莊一街168號(近廈莊一街與中安路交叉口),高雄市,小港區,22.5845872,120.3612733
Gogoro 小港漢民門市站,高雄市小港區漢民路369號(近中山國中),高雄市,小港區,22.5669947,120.3563972
全家高雄宏光店站,高雄市小港區漢民路786號(近高雄市立小港醫院),高雄市,小港區,22.5682318,120.363748
中油大林加油站,高雄市小港區鳳華路1號(近鳳鳴路/中林路口),高雄市,小港區,22.524707,120.3497661
全聯仁武八德店站,高雄市仁武區八德中路52號(近仁武區農會),高雄市,仁武區,22.6858272,120.3386499
HiLife 仁武澄湖店站,高雄市仁武區八德東路585號(近八德東路 / 名湖街口),高雄市,仁武區,22.6876474,120.3495642
仁武區公所站,高雄市仁武區中正路80號(近仁武市立圖書館),高雄市,仁武區,22.701088,120.3477394
Gogoro 仁武仁雄門市站,高雄市仁武區仁雄路37號之3(近仁雄路/澄合街口),高雄市,仁武區,22.6804486,120.3506175
台糖仁新加油站,高雄市仁武區文武里水管路三段276號(近澄觀路二段/水管路三段路口,高雄市,仁武區,22.7035413,120.3587847
八卦里停車場站,高雄市仁武區永仁街(近永仁街/永新二街),高雄市,仁武區,22.6870703,120.334775
HiLife 仁武鳳成店站,高雄市仁武區考潭里鳳仁路4-6號(近鳳仁路 / 成功路口),高雄市,仁武區,22.6718079,120.3609868
台亞仁武加油站,高雄市仁武區後安里鳳仁路304-3號(近鳳仁路 / 後庄巷),高雄市,仁武區,22.7092872,120.340564
台糖高鐵加油站,高雄市仁武區高楠公路55號(近高鐵左營基地),高雄市,仁武區,22.6936556,120.3216782
台糖民族三加油站,高雄市仁武區高楠公路62號(近高楠公路/八德二路口),高雄市,仁武區,22.701532,120.3238925
台糖鳳仁加油站,高雄市仁武區鳳仁路102號(近獅龍溪),高雄市,仁武區,22.6904194,120.3511179
中油仁武加油站,高雄市仁武區鳳仁路282號(近仁武運動公園),高雄市,仁武區,22.7035318,120.3441587
福懋仁武加油站,高雄市仁武區鳳仁路76號(近鳳仁路/鳳仁路86巷口),高雄市,仁武區,22.6839979,120.3544277
全家內門羅漢門店站,高雄市內門區南屏路235號 (近南屏路/高120),高雄市,內門區,22.9233772,120.4540155
全家六龜農會店站,高雄市六龜區光復路109號 (近光復路/四維街),高雄市,六龜區,22.9952909,120.6353147
全家高雄蓮潭店站,高雄市左營區孔營路25號(近孔營路與左營下路交叉口),高雄市,左營區,22.6883423,120.2969459
中油高楠加油站,高雄市左營區民族一路697號(近民族一路/文守路168巷口),高雄市,左營區,22.6711921,120.3173052
八百屋旗艦自由店站,高雄市左營區自由三路101巷12號(近自由三路/自由三路101巷口),高雄市,左營區,22.6705587,120.3098932
Gogoro 左營自由四服務中心站,高雄市左營區自由四路433號(近自由四路467巷/自由四路),高雄市,左營區,22.6867396,120.3179505
全家高雄新勝店站,高雄市左營區南屏路313號(近南屏路與新勝街交叉口),高雄市,左營區,22.668251,120.2997193
家樂福便利購左營南屏店站,高雄市左營區南屏路369號(近南屏路與新勝街),高雄市,左營區,22.668164,120.299729
俥亭停車場高鐵路站,高雄市左營區重和路與文府路交叉路口(近高鐵新左營站),高雄市,左營區,22.6870874,120.3099756
全聯高雄重信店站,高雄市左營區重信路8號(近自由四路/重信路),高雄市,左營區,22.6836479,120.315493
全家高雄重愛店站,高雄市左營區重愛路208號(近重愛路與文自路交叉口),高雄市,左營區,22.6855071,120.3157594
台灣高鐵左營站,高雄市左營區高鐵路105號(近高鐵新左營站),高雄市,左營區,22.6873108,120.307356
Gogoro 左營博愛店站,高雄市左營區博愛二路664號(近高雄巨蛋),高雄市,左營區,22.6696,120.303737
大魯閣棒壘球打擊場博愛館站,高雄市左營區博愛三路180號(近高雄市警察局左營分局),高雄市,左營區,22.6747489,120.3057942
全聯左營高鐵店站,高雄市左營區華夏路1255號(近高鐵左營站),高雄市,左營區,22.6852683,120.3102007
普客高雄榮德榮光停車場站,高雄市左營區榮德街257號 (近榮德街 / 榮光街),高雄市,左營區,22.684997,120.3206804
18事紀館紅樓站,高雄市左營區榮總路522巷17號(近霞海路/榮總路522巷),高雄市,左營區,22.6877979,120.3228974
7-ELEVEN 重和店站,高雄市左營區福山里自由四路171號(近自由四路/重和路),高雄市,左營區,22.6830196,120.3144417
中油永安加油站,高雄市永安區保安路47號(近天文宮),高雄市,永安區,22.8154899,120.241723
全家杉林農會店站,高雄市杉林區清水路45號(近清水路與181縣道交叉口),高雄市,杉林區,22.9643983,120.5319895
全家岡山竹圍店站,高雄市岡山區中山北路158號(近中山北路與忠誠街交叉口),高雄市,岡山區,22.7975541,120.2979226
全聯岡山公園西店站,高雄市岡山區公園西路三段83號(近公園西路/大公路36巷路口),高雄市,岡山區,22.7944571,120.2847367
中油岡山加油站,高雄市岡山區岡山南路45號(近劉厝公園),高雄市,岡山區,22.7876615,120.2963716
Gogoro 高雄岡山店站,"高雄市岡山區岡山路164號1樓,164-1號(近岡山路/岡山路186巷口)",高雄市,岡山區,22.7897195,120.2965295
全聯岡山岡燕店站,高雄市岡山區岡燕路338號(近岡燕路/大德二路),高雄市,岡山區,22.7910256,120.3070514
全聯岡山壽華店站,高雄市岡山區壽華路131號(近壽華路/壽華路131巷口),高雄市,岡山區,22.8002205,120.2918843
7-ELEVEN 北岡山店站,高雄市岡山區灣裡里岡山北路150號(近岡山北路與育德街交叉口),高雄市,岡山區,22.8119573,120.2800093
中油永晉加油站,高雄市林園區中芸三路300號,高雄市,林園區,22.4955905,120.398895
中油林園加油站,高雄市林園區林園北路350號(近台電林園服務所),高雄市,林園區,22.5118563,120.3951921
全家林園鑫園店站,高雄市林園區林園北路439號(近台電林園服務所),高雄市,林園區,22.5120917,120.3947176
中油沿海路加油站,高雄市林園區沿海路四段1號(近台17/港嘴三路口),高雄市,林園區,22.5000673,120.3863731
全家林園鳳林店站,高雄市林園區鳳林路一段92號(近鳳林路一段與五福路交叉口),高雄市,林園區,22.5040288,120.3978497
全聯高雄鳳林店站,高雄市林園區鳳林路二段37號(近忠孝東路及鳳林路二段路口),高雄市,林園區,22.5079063,120.3959696
7-ELEVEN 展穫店站,高雄市阿蓮區中正路897號(近中正路/中正路1000巷),高雄市,阿蓮區,22.8799312,120.3203489
阿蓮區公所站,高雄市阿蓮區民生路94號(近高雄市阿蓮區衛生所),高雄市,阿蓮區,22.8830582,120.3276312
中油中正四路加油站,高雄市前金區中正四路251號(近勞工博物館),高雄市,前金區,22.6275697,120.2914229
中油運河南路加油站,高雄市前金區河南二路87號(近河南二路/瑞源路口),高雄市,前金區,22.6351447,120.2953186
中油民權路加油站,高雄市前鎮區一心一路291號(近一心一路與民權二路交叉口),高雄市,前鎮區,22.6095369,120.3136559
新光三越高雄三多店站,高雄市前鎮區三多三路213號(近三多三路與文橫二路交叉口),高雄市,前鎮區,22.6142552,120.3067014
家樂福成功店站,高雄市前鎮區中華五路1111號(近家樂福/IKEA中間),高雄市,前鎮區,22.6050794,120.3044487
台糖中華加油站,高雄市前鎮區中華五路825號(近時代大道/中華五路口),高雄市,前鎮區,22.5978435,120.3075409
家樂福光華店站,高雄市前鎮區光華二路157號(近中正高工對面),高雄市,前鎮區,22.6111174,120.3169734
台糖成功加油站,高雄市前鎮區成功二路2-2號(近成功二路與時代大道交叉口),高雄市,前鎮區,22.5969408,120.3047071
全聯前鎮和誠店站,高雄市前鎮區和誠街107號(近和誠街與和豐街口),高雄市,前鎮區,22.5787554,120.3216933
全家高雄明鳳店站,高雄市前鎮區明鳳三路65號(近明鳳三路與明鳳十二街交叉口),高雄市,前鎮區,22.5859702,120.3367567
八百屋保泰店站,高雄市前鎮區保泰路345號(近保泰路/保泰路333巷口),高雄市,前鎮區,22.6026931,120.3338135
中油千越凱旋加油站,高雄市前鎮區凱旋四路560號,高雄市,前鎮區,22.5970059,120.3180749
全家高雄心衙店站,高雄市前鎮區新衙路351號(近新衙路 / 新福路),高雄市,前鎮區,22.5816877,120.3158825
瑞福停車場站,高雄市前鎮區瑞安街(近瑞福路/瑞安街口),高雄市,前鎮區,22.6077576,120.336483
瑞豐停車場站,高雄市前鎮區瑞隆路168號(瑞豐國小對面),高雄市,前鎮區,22.6063373,120.335746
HiLife 高市瑞福店站,高雄市前鎮區瑞福路185號(近高雄崗山仔郵局),高雄市,前鎮區,22.6090778,120.3355028
中油瑞豐加油站,高雄市前鎮區瑞福路2號(近崗山仔公園),高雄市,前鎮區,22.6050265,120.336873
中油前鎮漁港油氣加油站,高雄市前鎮區漁港路2-1號,高雄市,前鎮區,22.5785699,120.3190007
管仲停車場站,高雄市前鎮區管仲南路348號(近管仲路/光華三路),高雄市,前鎮區,22.6045298,120.3142831
捷運前鎮高中站旁平面停車場站,高雄市前鎮區翠亨北路225號(近捷運前鎮高中站一號出入口),高雄市,前鎮區,22.5878463,120.3218301
全家高雄翠北店站,高雄市前鎮區翠亨北路562號(近翠亨北路與翠文街交叉口),高雄市,前鎮區,22.592293,120.3124818
全家高雄鄭和店站,高雄市前鎮區鄭和南路420之1號(近鄭和南路與民裕街交叉口),高雄市,前鎮區,22.6064615,120.31504
中油前鎮加油站,高雄市前鎮區擴建路1-1號(近擴建路/成功二路口),高雄市,前鎮區,22.5914187,120.3060819
美濃中興路站,高雄市美濃區中興路一段819號(近中興路一段/忠孝路一段),高雄市,美濃區,22.8863995,120.529569
中油美濃加油站,高雄市美濃區成功路133號(近成功路/合和路口),高雄市,美濃區,22.8940481,120.5468811
全聯高雄美濃店站,高雄市美濃區泰安路172號(近美濃區農會本部),高雄市,美濃區,22.9022777,120.5420017
7-ELEVEN 月光山店站,高雄市美濃區泰安路59號(近泰安路/美興街),高雄市,美濃區,22.902088,120.5392371
Gogoro 苓雅三多門市站,高雄市苓雅區三多一路227號(近三多派出所),高雄市,苓雅區,22.62233,120.3305113
中油三多二路加油站,高雄市苓雅區三多二路80號(近國際商工),高雄市,苓雅區,22.6215035,120.3268166
中油三多三路加油站,高雄市苓雅區三多三路264號(近捷運三多商圈站),高雄市,苓雅區,22.6144216,120.3051921
宏佳騰苓雅中華店站,高雄市苓雅區中華四路35、37號,高雄市,苓雅區,22.612755,120.3020465
中油四維三路加油站,高雄市苓雅區永定街93號(近永定街/四維三路口),高雄市,苓雅區,22.6191849,120.311432
高雄市區監理所苓雅監理站,高雄市苓雅區安康路22號(近高雄市立凱旋國小),高雄市,苓雅區,22.6374458,120.3205946
中油建國一路加油站,高雄市苓雅區建國一路142號(近快保中心右側),高雄市,苓雅區,22.6328348,120.3300825
中油高鳳加油站,高雄市苓雅區建國一路3號(近高雄市農會對面),高雄市,苓雅區,22.6278901,120.3433387
HiLife 高市英祥店站,高雄市苓雅區英祥街17號(近英祥街與英義街交叉口),高雄市,苓雅區,22.6167786,120.3256099
山隆苓雅加油站,高雄市苓雅區輜汽路69號(近輜汽路/武營路),高雄市,苓雅區,22.6166001,120.3362145
7-ELEVEN 復中店站,高雄市苓雅區興中一路138號(近興中一路/仁愛三街),高雄市,苓雅區,22.6175315,120.3105275
7-ELEVEN 興達港店站,高雄市茄萣區民治路188號(近興達國小),高雄市,茄萣區,22.8745153,120.1927227
中油茄萣加油站,高雄市茄萣區白雲里白砂路6號(近公園路/白砂路口),高雄市,茄萣區,22.9069329,120.1840748
中油梓官加油站,高雄市梓官區和平路317號(近梓官消防局),高雄市,梓官區,22.7601739,120.2624991
中油蚵仔寮加油站,高雄市梓官區通港路通港巷1號,高雄市,梓官區,22.724575,120.2537293
7-ELEVEN 正港店站,高雄市梓官區智蚵里中正路186號(近中正路/港九街),高雄市,梓官區,22.7289733,120.2565782
HiLife 高市神農店站,高雄市鳥松區仁美里神農路720-1號(近神農路與仁愛路交叉口),高雄市,鳥松區,22.6494294,120.3918659
7-ELEVEN 翔盛店站,高雄市鳥松區水土埔里神農路479號(近神農路/大同路口),高雄市,鳥松區,22.6588575,120.3814927
全家鳥松仁美店站,高雄市鳥松區學堂路91-1號(近學堂路與天津路交叉口),高雄市,鳥松區,22.6582833,120.3920978
台糖大湖加油站,高雄市湖內區大湖里中山路1段200號(近中山路一段與環球北路交叉口),高雄市,湖內區,22.8725902,120.2546442
中油千越路竹加油站,高雄市湖內區中山路一段152號(中山路一段/東方路),高雄市,湖內區,22.8804953,120.2507827
7-ELEVEN 新東專店站,高雄市湖內區中山路一段229號(近大湖火車站),高雄市,湖內區,22.8807177,120.2494812
中油大湖加油站,高雄市湖內區中山路一段72號(近中山路一段/天祐路口),高雄市,湖內區,22.8784814,120.2523466
全聯湖內保生店站,高雄市湖內區保生路169號(近保生路/保生路165巷口),高雄市,湖內區,22.907038,120.2194482
Gogoro 高雄中山店站,高雄市新興區中山一路2號(近捷運中央公園站2號出口),高雄市,新興區,22.6240016,120.3013685
中油中正二路加油站,高雄市新興區中正二路166號(近捷運文化中心站),高雄市,新興區,22.6306098,120.31703
Gogoro 高雄中正服務中心站,高雄市新興區中正三路20號(近捷運信義國小站五號出入口),高雄市,新興區,22.630447,120.3119614
中油中正三路加油站,高雄市新興區中正三路9號(近中正三路與錦田路交叉口),高雄市,新興區,22.6304811,120.310425
第一銀行新興分行站,高雄市新興區中正四路17號(近捷運美麗島站2號出入口),高雄市,新興區,22.6307853,120.301092
康橋商旅六合夜市七賢館站,高雄市新興區同愛街30號(近同愛街/同愛街27巷),高雄市,新興區,22.6356058,120.3006792
中油林森二路加油站,高雄市新興區新田路82號(近林森一路/新田路口),高雄市,新興區,22.6231558,120.3057327
家樂福新楠店站,高雄市楠梓區土庫一路60號(近土庫一路與清豐一路交叉口),高雄市,楠梓區,22.7362786,120.3305809
全聯楠梓土庫店站,高雄市楠梓區土庫三路55、57號(近土庫三路/土庫路93巷口),高雄市,楠梓區,22.7375778,120.3294856
日月光半導體站,高雄市楠梓區內環北路109號(近日月光K7廠區),高雄市,楠梓區,22.7239517,120.2999527
台糖加昌加油站,高雄市楠梓區加昌路637號(近外環西路/加昌路口),高雄市,楠梓區,22.715269,120.299111
7-ELEVEN 新宏昌店站,高雄市楠梓區右昌街468號(近右昌街/裕昌街),高雄市,楠梓區,22.7167564,120.2876839
高雄創新卓越站,高雄市楠梓區芎蕉路216號(近芎蕉路/芎林一街路口),高雄市,楠梓區,22.7509307,120.3289746
中油後勁加油站,高雄市楠梓區後昌路200號(近後勁夜市),高雄市,楠梓區,22.7165829,120.309496
中油軍校路加油站,高雄市楠梓區軍校路737號(近海軍官校),高雄市,楠梓區,22.7085374,120.2927915
Gogoro 楠梓益群門市站,高雄市楠梓區益群路65號(近益群路/豐壽路口),高雄市,楠梓區,22.7247484,120.2968469
中油楠梓加油站,高雄市楠梓區高楠公路1376號(近楠梓陸橋北上入口),高雄市,楠梓區,22.7194955,120.3253249
台糖民族二加油站,高雄市楠梓區高楠公路945號(近高楠公路/高楠公路924巷口),高雄市,楠梓區,22.7118708,120.3250279
清豐停車場站,高雄市楠梓區清豐三路(近土庫二路/清豐三路口),高雄市,楠梓區,22.7395375,120.3302905
全家高雄德昌店站,高雄市楠梓區惠民路220號(近惠民路與壽豐路交叉口),高雄市,楠梓區,22.723716,120.2939031
HiLife 高市三山店站,高雄市楠梓區德民路1260號(近德民路/三山街),高雄市,楠梓區,22.7171111,120.2826698
高雄市區監理所站,高雄市楠梓區德民路71號(近都會公園),高雄市,楠梓區,22.7317522,120.318082
宏佳騰楠梓德惠店站,高雄市楠梓區德惠路21、23號(近德惠路/德民路口),高雄市,楠梓區,22.7258526,120.3026772
千葉火鍋楠梓店站,高雄市楠梓區興楠路353號(近興楠路/興楠路355巷口),高雄市,楠梓區,22.7288515,120.331755
家樂福楠梓店站,高雄市楠梓區藍田路288號(近中山高中),高雄市,楠梓區,22.7280087,120.2907512
HiLife 高市藍田店站,高雄市楠梓區藍田路948號(近藍田路/大學二十五路),高雄市,楠梓區,22.7274874,120.2805349
全家高雄藍天店站,高雄市楠梓區藍昌路358號(近藍昌路與惠民路交叉口),高雄市,楠梓區,22.7229346,120.2913886
路竹天后宮開基廟站,高雄市路竹區中山路1015號(近延平路/中山路口),高雄市,路竹區,22.8588518,120.2603796
全家路竹竹東店站,高雄市路竹區中山路711號(近中山路/自由街190巷),高雄市,路竹區,22.8648842,120.2571552
路竹區公所站,高雄市路竹區國昌路76號(近消防局路竹分隊),高雄市,路竹區,22.8547435,120.2592442
7-ELEVEN 美珍店站,高雄市鼓山區明誠四路23號(近明誠四路/美術東六街口),高雄市,鼓山區,22.6609641,120.2913825
Gogoro 鼓山青海門市站,高雄市鼓山區青海路111號(近青海路/美術東二路),高雄市,鼓山區,22.6510769,120.2890237
全家高雄美明店站,高雄市鼓山區美明路102號(近美明路與美術東二路交叉口),高雄市,鼓山區,22.6657053,120.2888538
中油南鼓山加油站,高雄市鼓山區捷興二街46號(近捷運西子灣站),高雄市,鼓山區,22.6217047,120.2750244
全家高雄鼓山店站,高雄市鼓山區鼓山二路43號(近鼓山二路/鼓山二路41巷),高雄市,鼓山區,22.6327457,120.2823473
中油鼓山三路加油站,高雄市鼓山區鼓山三路5-1號(近鼓山三路5巷),高雄市,鼓山區,22.6480076,120.2769332
全聯高雄鼓山店站,高雄市鼓山區銘傳路61號,高雄市,鼓山區,22.6651608,120.2843098
全聯旗山中華店站,高雄市旗山區中華路31號(近衛生福利部旗山醫院),高雄市,旗山區,22.880055,120.4838532
7-ELEVEN 永久店站,高雄市旗山區延平一路446號(近溪洲醫院),高雄市,旗山區,22.8916301,120.4831702
旗山區公所站,高雄市旗山區延平一路499號(近高雄市旗山區戶政事務所),高雄市,旗山區,22.888642,120.48349
7-ELEVEN 新旗美店站,高雄市旗山區東平里延平二路136號(近延平二路/樹人橫路),高雄市,旗山區,22.8830532,120.4965363
全聯旗津中洲店站,高雄市旗津區中洲二路179-11號(近大汕頭朝龍宮),高雄市,旗津區,22.5864738,120.2890727
中油旗津加油站,高雄市旗津區中洲二路259號(近市立旗津醫院),高雄市,旗津區,22.5912085,120.2848115
全家旗津天后店站,高雄市旗津區廟前路28號(近旗下巷/文正巷),高雄市,旗津區,22.6120524,120.2680401
eReady 高雄鳳山店站,高雄市鳳山區中山西路191號(近七賢二路/市中一路口),高雄市,鳳山區,22.6275702,120.3495928
家樂福鳳山店站,高雄市鳳山區中山西路236號(近家樂福機車服務中心),高雄市,鳳山區,22.6285561,120.3483475
Gogoro 鳳山中山西服務中心站,高雄市鳳山區中山西路260號(近澄清路/中山西路),高雄市,鳳山區,22.6282396,120.3453228
中油鳳山加油站,高雄市鳳山區中山東路10號(近成功派出所),高雄市,鳳山區,22.6201645,120.3634291
全家鳳山埤頂店站,高雄市鳳山區中山東路545號一樓(中山東路/埤頂街),高雄市,鳳山區,22.6289954,120.381358
Gogoro 鳳山五甲門市站,高雄市鳳山區五甲一路112號(近五甲一路/五甲一路104巷),高雄市,鳳山區,22.6207923,120.356752
中油五甲加油站,高雄市鳳山區五甲一路232號(近五甲一路/國光路口),高雄市,鳳山區,22.6181261,120.353723
車麗屋高雄鳳山店站,高雄市鳳山區五甲一路261號(近五甲一路與國光路交叉口),高雄市,鳳山區,22.6171769,120.354419
Gogoro 五甲服務中心站,高雄市鳳山區五甲三路66號(近福誠高中),高雄市,鳳山區,22.5925621,120.3268922
大潤發鳳山店站,高雄市鳳山區文化路59號(近鳳山商工),高雄市,鳳山區,22.6331658,120.3549006
7-ELEVEN 亮宏店站,高雄市鳳山區文德里文衡路558號1樓(近文衡路/文安街口),高雄市,鳳山區,22.6416867,120.347694
7-ELEVEN 青文店站,高雄市鳳山區文衡里文衡路343號(近文德國小),高雄市,鳳山區,22.6402648,120.3522986
HiLife 鳳山文東店站,高雄市鳳山區文龍東路240號(近鎮北國小),高雄市,鳳山區,22.6409072,120.3684525
北昌路停車場站,高雄市鳳山區北昌二街(近北昌二街/北昌路口),高雄市,鳳山區,22.6458127,120.3724657
鳳山捷運站機車停車場站,高雄市鳳山區光遠路335號(捷運鳳山站旁),高雄市,鳳山區,22.6258424,120.356308
家樂福五甲店站,高雄市鳳山區林森路291號(近文豐街13巷入口旁),高雄市,鳳山區,22.5963813,120.3367717
PGO 鳳山青年店站,高雄市鳳山區青年路二段150號(近青年路二段/文雅街),高雄市,鳳山區,22.6358917,120.3505262
Gogoro 鳳山青年店站,高雄市鳳山區青年路二段287號(近文山特區),高雄市,鳳山區,22.6396165,120.3507146
宏佳騰鳳山青年店站,高雄市鳳山區青年路二段397號(近青年路二段/文龍東路),高雄市,鳳山區,22.6428263,120.351275
全聯鳳山鳳甲店站,高雄市鳳山區南和一路47號(近南和一路/鳳甲路路口),高雄市,鳳山區,22.59105,120.3379203
7-ELEVEN 森和店站,高雄市鳳山區南和里16鄰林森路203號,高雄市,鳳山區,22.5947174,120.3345404
HiLife 鳳山鳳頂店站,高雄市鳳山區高鳳一路70號(近高鳳一路/頂庄路口),高雄市,鳳山區,22.5884631,120.3661107
台糖國泰加油站,高雄市鳳山區國泰路1段281號(近國泰路一段與五甲一路交叉口),高雄市,鳳山區,22.6165517,120.3522461
全聯鳳山國泰店站,高雄市鳳山區國泰路一段2號(近中山公園),高雄市,鳳山區,22.6151796,120.3623431
美廉社鳳山頂庄店站,高雄市鳳山區頂庄路183號(近頂庄路與過昌街交叉口),高雄市,鳳山區,22.5882524,120.361041
全聯鳳山頂豐店站,高雄市鳳山區頂豐街21﹑23號(近頂豐街/頂賢街),高雄市,鳳山區,22.5858393,120.3561433
鳳山區公所站,高雄市鳳山區經武路30號(近高雄市政府警察局鳳山分局),高雄市,鳳山區,22.6270689,120.3625673
全聯鳳山經武店站,高雄市鳳山區經武路375號(近經武路、文龍東路口),高雄市,鳳山區,22.6401133,120.3641105
全家鳳山誠義店站,高雄市鳳山區誠義路119號(近誠義路與誠勇路交叉口),高雄市,鳳山區,22.6089164,120.360372
全家鳳山頂庄店站,高雄市鳳山區過勇路111號(近過勇路與頂庄路交叉口),高雄市,鳳山區,22.5881203,120.3626019
中油鳳松加油站,高雄市鳳山區鳳松路178-5號(近鳳松路180巷),高雄市,鳳山區,22.6321681,120.3608121
全家鳳山老爺店站,高雄市鳳山區鳳南路19號(近鳳南路與林森路交叉口),高雄市,鳳山區,22.5969165,120.3385847
台糖建軍加油站,高雄市鳳山區鳳頂路602號(近鳳頂路與田中央路交叉口),高雄市,鳳山區,22.6021945,120.3621556
中油橋頭加油站,高雄市橋頭區成功北路15號(近橋頭火車站),高雄市,橋頭區,22.7624816,120.3077151
全家橋頭建樹店站,高雄市橋頭區成功北路65號(近成功北路與樹德路交叉口),高雄市,橋頭區,22.7633962,120.3075011
橋頭區公所站,高雄市橋頭區隆豐路1號(近橋頭戶政事務所),高雄市,橋頭區,22.7583121,120.3051921
燕巢區公所站,高雄市燕巢區中安路1號(近中油燕巢站),高雄市,燕巢區,22.7880383,120.3620614
中油燕巢加油站,高雄市燕巢區中興路199號(近燕巢國中),高雄市,燕巢區,22.7884174,120.3627032
彌陀區公所站,高雄市彌陀區中華路4號(近梓官戶政事務所彌陀辦公處),高雄市,彌陀區,22.7815148,120.2506869
中油南寮漁港加油站,高雄市彌陀區漁港路73號(近漁港路/漯底路口),高雄市,彌陀區,22.7643117,120.2372559
山隆永發加油站,高雄市彌陀區鹽埕村鹽埕大路160號(近鹽埕大路/山霸畑路),高雄市,彌陀區,22.7929034,120.2447984
中油大義街加油站,高雄市鹽埕區大義街56-1號(近駁二藝術特區大義停車場),高雄市,鹽埕區,22.6205677,120.2859795
中油八里加油站,新北市八里區中山路一段1號(近中山路一段/中華路一段口),新北市,八里區,25.1583322,121.4235033
八里公兒四站,新北市八里區文昌路與文昌一街交叉口(近十三行博物館),新北市,八里區,25.1566387,121.4107219
中油龍形加油站,新北市八里區龍米路二段150號(近龍米河濱公園),新北市,八里區,25.1567762,121.4361223
HiLife 八里聖心店站,"新北市八里區龍米路二段57,59號(近龍米路二段65巷口)",新北市,八里區,25.1403297,121.4481135
三芝中正停車場站,新北市三芝區中山路二段48之1號(近中山路二段/中正路二段口),新北市,三芝區,25.254658,121.503153
新北市淺水灣海濱公園站,新北市三芝區北勢子45-32號旁(近淺水灣停車場),新北市,三芝區,25.2503518,121.4672841
中油三芝加油站,新北市三芝區埔頭里31鄰埔頭15號(近濱海公路/淡金路一段口),新北市,三芝區,25.1747398,121.4505362
中油大嘉好加油站,新北市三芝區錫板里海尾14之32號(近福海路/錫板里海尾口),新北市,三芝區,25.247404,121.490923
全聯三重力行店站,新北市三重區力行路一段54號(近三重力行菜市場),新北市,三重區,25.0687418,121.4850098
HiLife 新北三民店站,新北市三重區三民街100號(近新北市三重聯邦公園),新北市,三重區,25.0632058,121.4852385
全家三重三安店站,新北市三重區三和路三段40號(近三和路三段/六張街路口),新北市,三重區,25.0706062,121.4961137
7-ELEVEN 虹諭店站,新北市三重區中正北路193巷21弄43號(近中正北路193巷/後竹圍街路口),新北市,三重區,25.0709854,121.4790458
愛買三重店站,新北市三重區中正北路193巷45號(近中正北路193巷/中正北路193巷43弄),新北市,三重區,25.0713682,121.4760132
7-ELEVEN 正大店站,新北市三重區中正北路235號(近三重分局大有派出所),新北市,三重區,25.0706417,121.4758723
HiLife 三重重賓店站,新北市三重區中正北路415號(近全聯三重中正店),新北市,三重區,25.0724469,121.4705066
eReady 新北三重店站,新北市三重區中正南路163號(近中正南路/同安街口),新北市,三重區,25.056027,121.4936375
新北市中正南路橋下停車場站,新北市三重區中正南路橋下(近重新路三段與中正南路口),新北市,三重區,25.0567859,121.4939507
新北市聯邦公園地下停車場B1F站,新北市三重區中華路125號(地下一樓機車停車場)(近近中華路123巷/三民街口),新北市,三重區,25.0639327,121.4837771
HiLife 三重初戀店站,新北市三重區中興北街153號(中興北街/頭前路口),新北市,三重區,25.0522868,121.4691051
Gogoro 三重光復服務中心站,新北市三重區中興里光復路二段4號(近三重二重埔郵局),新北市,三重區,25.0535069,121.4717779
新北市碧華國民小學地下停車場B1F站,新北市三重區五華街160號(地下一樓機車停車場)(近溪尾街/碧華街294巷口),新北市,三重區,25.0844282,121.4906712
家樂福蘆洲店B1F站,新北市三重區五華街282號(地下一樓機車停車場)(近三重集賢環保公園),新北市,三重區,25.0896237,121.4878005
台北捷運三重國小站,新北市三重區仁愛街15號(近三重分局長泰派出所門口),新北市,三重區,25.0708628,121.4972509
新北市仁信段平面停車場站,新北市三重區元信二街176巷旁(近元信二街及元信二街176巷口),新北市,三重區,25.0792903,121.4956291
台灣聯通元信場站,新北市三重區元信二街與環河北路交叉口(近重陽抽水站),新北市,三重區,25.0795897,121.4968591
Gogoro 三重正義店站,新北市三重區正義北路24號(近捷運台北橋站),新北市,三重區,25.0631019,121.4974784
新北市光興國小地下停車場B1F站,新北市三重區正義南路62號(地下一樓機車停車場)(近正義南路/光興街口),新北市,三重區,25.0594354,121.4991701
新北市養工處三重民生街站,新北市三重區民生街92號對面(近明志國中),新北市,三重區,25.0636227,121.4897839
HiLife 新北重武店站,新北市三重區安慶街203之1號(近安慶街/民生東街口),新北市,三重區,25.068326,121.4929117
PGO 三重成功店站,新北市三重區成功路147號(近重新橋),新北市,三重區,25.0523115,121.4868507
三重溪美立體停車場站,新北市三重區自強路四段55號(近新北市三重戶政事務所溪美辦事處),新北市,三重區,25.078643,121.490633
三重龍濱公園站,新北市三重區秀江街28號(近龍濱市民活動中心),新北市,三重區,25.0728648,121.5023237
中油重陽路加油站,新北市三重區忠孝路一段1號(近三重交流道),新北市,三重區,25.0718855,121.4926449
三重後竹圍親子館站,新北市三重區忠孝路一段37號(近後竹圍親子館閱覽室),新北市,三重區,25.072123,121.491286
新北市二重國中停車場站,新北市三重區忠孝路三段89號(近忠孝路三段/忠孝路三段93巷口),新北市,三重區,25.0657241,121.479664
新北市環河快速高架橋停車場站,新北市三重區河邊北街100巷與開元公園間(近河邊北街124巷/環河北路一口),新北市,三重區,25.0705848,121.503828
宏佳騰三重重陽店站,新北市三重區重陽路四段160號(近國道一號三重交流道),新北市,三重區,25.0722578,121.4931339
新北市重新橋下機車停車場站,新北市三重區重新路4段244巷口(近重新橋),新北市,三重區,25.053605,121.4871962
新北市台北橋下機車停車場站,新北市三重區重新路一段3號對面(近重新路一段環河北路口),新北市,三重區,25.0644162,121.5036127
山隆興隆加油站,新北市三重區重新路五段628號(近家樂福重新店),新北市,三重區,25.0446345,121.4687247
中油二重加油站,新北市三重區重新路五段652號(近家樂福重新店),新北市,三重區,25.0439782,121.4680859
新北市停七機車停車場站,新北市三重區捷運三重站後方(近捷運路22巷/疏洪東路一段路口),新北市,三重區,25.0560414,121.4850264
車太炫自助洗車三重重新店站,新北市三重區疏洪東路一段58號(近重新橋下),新北市,三重區,25.0499107,121.4859081
Gogoro 三重集成服務中心站,新北市三重區集成路39號(近三重區農會),新北市,三重區,25.052379,121.489388
HiLife 新北重高店站,"新北市三重區集美街 211,213號(近新北市立三重高中)",新北市,三重區,25.0543016,121.4885167
Gogoro 三重集賢門市站,新北市三重區集賢路186號(近集賢路/集英路口)​,新北市,三重區,25.0882893,121.4840857
新北市中山立體停車場B1F站,新北市三重區新北大道1段7號(地下一樓機車停車場)(近新北大道1段5號/過圳街31巷口),新北市,三重區,25.0610054,121.4896042
新北市三重區公所站,新北市三重區新北大道一段11號(近三重區公所),新北市,三重區,25.061008,121.488284
新北市三重過圳街20號旁站,新北市三重區過圳街20號旁(近過圳街/三寧街口),新北市,三重區,25.0588663,121.4883618
新北市正義公園地下停車場B1F站,新北市三重區雙園街1號(地下一樓機車停車場)(近雙園街1巷/文化北路口),新北市,三重區,25.0683416,121.497586
新北市三峽國小地下停車場站,新北市三峽區中山路16號(近三峽國小停車場入口處),新北市,三峽區,24.9345806,121.3700769
新北市三峽區公所站,新北市三峽區中山路17號(近三峽區公所),新北市,三峽區,24.934109,121.3689036
中油大埔加油站,新北市三峽區中正路二段165號(近中正路二段/中正路二段167巷口),新北市,三峽區,24.914863,121.366292
HiLife 北縣三埔店站,新北市三峽區中正路二段331之1號(近中正路二段/大埔路交叉口),新北市,三峽區,24.9097427,121.3658897
新北市三角湧平面停車場站,新北市三峽區中華路與中華路3巷交叉口(近中華路/愛國路交叉口),新北市,三峽區,24.9327862,121.3746179
HiLife 新北三峽店站,新北市三峽區永安街110號(近光明路/永安街口),新北市,三峽區,24.9295287,121.3751487
新北市光明平面停車場站,新北市三峽區光明路39號之1(近光明路/愛國路交叉口),新北市,三峽區,24.9307927,121.3737448
新北市龍埔公園平面停車場站,新北市三峽區國光街60號(近國光街/國光街81巷口),新北市,三峽區,24.9385908,121.3740816
Gogoro 三峽復興門市站,新北市三峽區復興路58號(近復興路/復興路80巷口),新北市,三峽區,24.9372789,121.3735526
7-ELEVEN 橫溪店站,新北市三峽區溪北街109號(近橫溪路/溪北街口),新北市,三峽區,24.9355105,121.3984793
7-ELEVEN 岩昇店站,新北市三峽區溪東路300號(近溪東路/溪東路308巷口),新北市,三峽區,24.9305921,121.4098966
中油土城加油站,新北市土城區中央路二段280號(近中央路二段/中央路二段278巷口),新北市,土城區,24.9741904,121.440665
PGO 土城中央店站,新北市土城區中央路二段42號(近員和公園),新北市,土城區,24.9798146,121.4425462
台北捷運永寧站,新北市土城區中央路三段捷運站1號出口(近中央路三段98巷),新北市,土城區,24.9655289,121.4324514
全家土城頂埔店站,新北市土城區中央路四段262號(近新北市土城區頂埔國民小學),新北市,土城區,24.9569388,121.4147973
台亞土城工業區加油站,新北市土城區中央路四段8號(近中央路四段/中興路口),新北市,土城區,24.9628027,121.4243798
台灣聯通土城中一場站,新北市土城區中華路一段50號(近土城區中華路一段/裕民路口),新北市,土城區,24.9889533,121.4459801
全家土城新亞店站,新北市土城區亞洲路57號(近大安路/亞洲路口),新北市,土城區,24.97116,121.4333609
台亞土城城林橋加油站,新北市土城區亞洲路9號 (近亞洲路/員安路口),新北市,土城區,24.972205,121.434537
文藻美語土城站,新北市土城區延和路42-1號(近安和國小),新北市,土城區,24.9887023,121.4653685
7-ELEVEN 城運店站,新北市土城區承天路10號(近承天路/承天路8巷口),新北市,土城區,24.9646093,121.4375939
Gogoro 土城明德服務中心站,新北市土城區明德路二段129號(近新北市立新北高工),新北市,土城區,24.9821919,121.4496772
宏佳騰土城明德店站,新北市土城區明德路二段62號(近明德路二/海山路口),新北市,土城區,24.9831786,121.4484579
宜舍土城金城站,新北市土城區金城路二段與明德路一段交叉口(近清水路/明德路一段),新北市,土城區,24.9860261,121.464647
中油連城加油站,新北市土城區金城路三段283號(近金城路三段/延吉街口),新北市,土城區,24.9907974,121.4734543
新北市青山平面停車場站,新北市土城區青雲路351-1號旁(近青雲路/青仁路口),新北市,土城區,24.9781655,121.4590551
Gogoro 土城裕民店站,新北市土城區裕民路178號(近裕民路/學府路口),新北市,土城區,24.9851668,121.45271
新北市學成公園地下停車場B1F站,新北市土城區學成路81號(地下一樓機車停車場)(近學成社區公園),新北市,土城區,24.9879679,121.4511998
車太炫自助洗車金城學府店站,新北市土城區學府路二段與金城路一段交叉口(近學府路二段/金城路一段交叉口),新北市,土城區,24.9746994,121.4458401
華夏科技大學站,新北市中和區工專路111號(近華新街/工專路),新北市,中和區,24.9790066,121.5086225
7-ELEVEN 漳和店站,新北市中和區中山路2段131-6號(近中山路2段/中山路2段131巷口),新北市,中和區,25.0031312,121.5023999
宏佳騰中和中山店站,新北市中和區中山路二段33號(近瓦磘里兒童遊樂區廣場),新北市,中和區,25.0051576,121.5048655
中油積穗加油站,新北市中和區中山路二段550號(近中山路二段/中正路口),新北市,中和區,25.0053728,121.4838369
新北中和環球購物中心B3F站,新北市中和區中山路三段122號(地下三樓機車停車場)(近台北區監理所板橋監理站),新北市,中和區,25.0059803,121.476155
北基中和加油站,新北市中和區中山路三段53號(近環球中和店),新北市,中和區,25.0055327,121.476724
中油龍門加油加氣站,新北市中和區中正路808號(近中正路/建六路口),新北市,中和區,25.0025318,121.4851259
中和枋寮公有零售市場站,新北市中和區中和路74號(近中和國民小學),新北市,中和區,25.000504,121.501019
HiLife 北縣飛和店站,新北市中和區中板路27號(近中板路/中板路25巷口),新北市,中和區,25.0118568,121.4835927
Gogoro 中和中原服務中心站,新北市中和區中原街6號(近中原街/環河西路三段路口),新北市,中和區,25.008036,121.4915863
新北市民德立體停車場B1F站,新北市中和區民德路188號(地下一樓機車停車場)(近民德路/華順街口),新北市,中和區,24.9991675,121.4683045
新北市民樂停車場站,新北市中和區民樂路65號(近中和郵局),新北市,中和區,25.001353,121.4837297
俥亭中和景安站,新北市中和區安和路143號對面(近景安路/安和路口),新北市,中和區,24.9967032,121.5061935
新北市民享公園停車場站,新北市中和區自治街67號(近民享藝文特區),新北市,中和區,25.0035473,121.4756205
全聯中和南山店站,新北市中和區南山路146巷1號(近金山板南公園),新北市,中和區,24.9921306,121.5041694
Gogoro 中和員山門市站,新北市中和區員山路316號(近員山路/員山路314巷口),新北市,中和區,25.0029875,121.4813478
中油莒光路加油站,新北市中和區莒光路258號(近莒光路/壽德街口),新北市,中和區,24.994233,121.467818
中油華中橋加油站,新北市中和區連城路96號 (近連城路/景平路口),新北市,中和區,25.0001025,121.4964754
大潤發中和景平店B3F站,新北市中和區景平路182號(地下三樓機車停車場)(近景平路/景平路240巷口),新北市,中和區,24.9923577,121.5164681
PGO 中和景平店站,新北市中和區景平路634-12號(近景平路/泰和街46巷口),新北市,中和區,24.9998824,121.4984237
全家中和景秀店站,新北市中和區景平路71-2號(近秀峰街/景德街口),新北市,中和區,24.9913149,121.5193012
新北市景新立體停車場B1F站,新北市中和區景新街399巷12號(地下一樓機車停車場)(近景新國小),新北市,中和區,24.9896913,121.5132247
全聯中和新生店站,新北市中和區新生街255、257號(近新生街/新生街220巷口),新北市,中和區,24.9982692,121.4840997
中和錦和運動公園站,新北市中和區錦和路350-1號(近新北市立錦和高中),新北市,中和區,24.9922276,121.4881055
HiLife 北縣五春店站,新北市五股區五工五路18號(近五工五路/五權三路口),新北市,五股區,25.0641196,121.4530988
7-ELEVEN 新台店站,新北市五股區五工六路14號(近新北市勞工活動中心),新北市,五股區,25.0621818,121.4506434
HiLife 五股福鑫店站,新北市五股區五福路8號(近五股區農會),新北市,五股區,25.0874318,121.4343016
五股洲子洋公園站,新北市五股區成泰路三段與洲子路交叉口(近成泰路三段/洲子路交叉口),新北市,五股區,25.0948245,121.4478557
新北市成州停車場站,新北市五股區凌雲路一段149巷61號(近凌雲路一段149巷61號後方空地),新北市,五股區,25.1009518,121.4481473
中油信誠加油站,新北市五股區新五路二段258號(近新北市立圖書館五股分館),新北市,五股區,25.08146,121.4407523
車太炫自助洗車五股新五店站,新北市五股區新五路二段275號(近新五路/芳洲一路口),新北市,五股區,25.0857565,121.4425097
南山社區站,新北市平溪區靜安路三段250號(近十分風景區),新北市,平溪區,25.0400867,121.7760231
Gogoro 永和中正店站,新北市永和區中正路236號(近八二三紀念公園),新北市,永和區,24.9980489,121.5164085
永和仁愛公園站,新北市永和區仁愛路244-1號(近仁愛路/永貞路口),新北市,永和區,25.0100883,121.5062099
新北市頂溪國小地下停車場B1F站,新北市永和區文化路133號(地下一樓機車停車場)(近頂溪國小),新北市,永和區,25.0152952,121.5114852
新北市養工處永和民權路站,新北市永和區民權路40號對面(近秀朗樂活停車場),新北市,永和區,24.9986572,121.5200673
JOS CAFE & WORK 站,新北市永和區永利路108號(近福和國中),新北市,永和區,25.0033402,121.5212278
Gogoro 永和成功服務中心站,新北市永和區成功路二段144號(近成功路二段/秀朗路三段口),新北市,永和區,24.9970822,121.5264466
新北市永和區公所站,新北市永和區竹林路200號(近永和分局),新北市,永和區,25.0092058,121.5203644
新北市永和國父紀念館站,新北市永和區竹林路202號(近新北市立圖書館永和分館),新北市,永和區,25.0087038,121.52025
Diamond+專業汽車美容中心站,新北市永和區保安路23號(近保安路/文化路口),新北市,永和區,25.0167159,121.510368
新北市保生路平面停車場站,新北市永和區保安路292號旁(近永和仁愛公園),新北市,永和區,25.0120246,121.5053192
全家永和國和店站,新北市永和區國中路86巷2號(近永和國中),新北市,永和區,25.0059336,121.5248394
PGO 永和福和店站,新北市永和區福和路336號(近福和路/自由路口),新北市,永和區,25.0074284,121.5153668
中油石門加油站,新北市石門區中央路1之15號(近石門國中),新北市,石門區,25.291398,121.5648289
新北市白沙灣遊客中心站,新北市石門區德茂里下員坑33-6號(近白沙灣停車場),新北市,石門區,25.27841,121.521283
雅香茶莊站,新北市石碇區北宜路六段13股巷1號(近十三股),新北市,石碇區,24.9474529,121.6493261
新北市石碇區公所站,新北市石碇區碇坪路一段37號(近石碇區公所),新北市,石碇區,24.9915255,121.6579206
台亞汐止好市多加油站,新北市汐止區大同路一段154號(近好市多COSTCO汐止店),新北市,汐止區,25.055856,121.6321369
中油汐止加油站,新北市汐止區大同路一段353號(近大同路一段 /樟樹二路口),新北市,汐止區,25.0602955,121.6399189
Gogoro 汐止大同服務中心站,新北市汐止區大同路二段290號(近汐止國小),新北市,汐止區,25.0663185,121.6550966
台亞汐止大同加油站,新北市汐止區大同路二段37號(近汐科火車站),新北市,汐止區,25.0630685,121.6478639
汐止公園站,新北市汐止區大同路二段451號(近新北市消防局汐止分隊),新北市,汐止區,25.0677763,121.6591327
車太炫自助洗車新北汐止店站,新北市汐止區汐萬路一段39-5號(近汐止國小),新北市,汐止區,25.0692392,121.6548506
PGO 汐止康寧店站,新北市汐止區康寧街377號(近康寧街/中興路口),新北市,汐止區,25.0678177,121.6289387
eReady 汐止康寧店站,新北市汐止區康寧街470號(近康寧街/康寧街474巷口),新北市,汐止區,25.0682998,121.6320345
中油明湖加油站,新北市汐止區康寧街536號(近康寧街/康寧街534巷交叉口),新北市,汐止區,25.068863,121.634138
遠東世界中心B3F站,新北市汐止區新台五路一段75~81號(地下三樓機車停車場)(近遠東世界中心大樓),新北市,汐止區,25.0613156,121.6462516
新北汐止福安站,新北市汐止區福安街17號(近秀峰高中）,新北市,汐止區,25.0652192,121.6625763
全家坪林順益店站,新北市坪林區水枊腳路133號(近坪林旅遊服務中心),新北市,坪林區,24.9350844,121.7107613
新北市水柳腳立體停車場站,新北市坪林區水柳腳34之1號(近坪林國民小學),新北市,坪林區,24.935442,121.7104609
東木河茶莊站,新北市坪林區北宜路八段206號(近坪林旅遊服務中心),新北市,坪林區,24.9347305,121.7085395
全家板橋正隆店站,新北市板橋區三民路二段正隆巷34號(近新北地方法院板橋第二院區),新北市,板橋區,25.013613,121.4771998
車麗屋新北板橋店站,新北市板橋區中山路一段277號(近中山路一段/漢生東路口),新北市,板橋區,25.0139254,121.4691726
板橋體育館站,新北市板橋區中正路8號(近新北市板橋區戶政事務所),新北市,板橋區,25.013213,121.4567738
新北市玫瑰中正路停車場站,新北市板橋區中正路與中正路372巷口(近玫瑰公園),新北市,板橋區,25.0243871,121.4543796
宏佳騰板橋文化店站,新北市板橋區文化路一段100號(近文化路一段/漢生東路口),新北市,板橋區,25.0179902,121.4646372
新北市環翠段停車場站,新北市板橋區文新路與仁化街口(近華江橋),新北市,板橋區,25.0346884,121.4791055
新北市四維公園地下停車場站,新北市板橋區四維路177巷3弄11號對面(近四維公園),新北市,板橋區,25.0258695,121.4641297
Gogoro 板橋民生門市站,新北市板橋區民生路三段68-1號(近捷運新埔民生站出口),新北市,板橋區,25.0257675,121.4669546
新北市合安一路機車停車場站,新北市板橋區合安一路與合宜路交叉口(近浮洲合宜住宅),新北市,板橋區,24.9986939,121.4483738
亞旭車業站,新北市板橋區長江路二段282號(近板橋江翠國小),新北市,板橋區,25.0329604,121.4704635
台亞板橋信義路加油站,新北市板橋區信義路267號(近廣權交車中心口),新北市,板橋區,24.9903416,121.4606738
Gogoro 板橋南雅西服務中心站,新北市板橋區南雅西路二段247號(近南雅西路二段/大仁街口),新北市,板橋區,25.0145567,121.4516058
台北捷運亞東醫院站,新北市板橋區南雅南路二段捷運站1號出口(近元智紀念館),新北市,板橋區,24.9988421,121.4526873
新北市新埔立體停車場站,新北市板橋區英士路199號(近新北市聯合醫院),新北市,板橋區,25.023087,121.4588689
新北市國慶停車場站,新北市板橋區重慶路265號對面停車場(近重慶公園),新北市,板橋區,24.999861,121.4637284
愛買板橋南雅店站,新北市板橋區貴興路101號(近新北市立圖書館總館),新北市,板橋區,25.0017697,121.4569554
北基新海加油站,新北市板橋區新海路137號(近新埔國中),新北市,板橋區,25.0232696,121.4603252
新北市長江停車場站,新北市板橋區溪頭街與民生路交叉口(近大漢橋下機車停車場),新北市,板橋區,25.0315619,121.4639353
Gogoro 板橋萬板服務中心站,新北市板橋區萬板路9號(近萬板路/民生路二段口),新北市,板橋區,25.0209858,121.4703909
特專三臨時平面停車場站,新北市板橋區漢生東路64號(近漢生東路油庫口麵線對面),新北市,板橋區,25.0162974,121.4662393
Gogoro 板橋廣權交車中心站,新北市板橋區廣權路6號(近信義派出所),新北市,板橋區,24.9910578,121.4609055
台北捷運府中站,新北市板橋區縣民大道一段捷運站2號出口(近捷運站機車轉乘停車場),新北市,板橋區,25.008388,121.4590138
板橋市民廣場地下停車場B1F站,新北市板橋區縣民大道二段22號(地下一樓機車停車場)(近新北市政府),新北市,板橋區,25.013662,121.464705
Gogoro 板橋館前店站,新北市板橋區館前東路26號(近誠品生活板橋店),新北市,板橋區,25.0071058,121.4604046
HiLife 新北板龍店站,"新北市板橋區龍興街73巷2,4號(近台鐵浮洲站)",新北市,板橋區,25.0022441,121.4439105
台北捷運江子翠站,新北市板橋區雙十路二段捷運站3號出口(近捷運站機車轉乘停車場),新北市,板橋區,25.0241172,121.470364
林口八德路站,新北市林口區八德路與文化二路一段交叉口(近八德路/文化二路一段交叉口),新北市,林口區,25.0657613,121.3641814
新北市停三平面停車場站,新北市林口區中山路99號(近中山路/中山路97巷口),新北市,林口區,25.0787529,121.3892843
7-ELEVEN 至富店站,新北市林口區中湖里14鄰中湖40號之9(近中湖路/中華路交叉口),新北市,林口區,25.0906734,121.3829817
新北市林口區公所站,新北市林口區仁愛路1段378號(近仁愛路一段/中興街交叉口),新北市,林口區,25.0763143,121.3928657
HiLife 林口麗園店站,新北市林口區文化一路一段52號(近林口區農會),新北市,林口區,25.0695834,121.3714901
全聯林口麗都店站,新北市林口區文化二路一段106號(近林口三井outlet),新北市,林口區,25.0702421,121.3674321
山隆林口加油站,新北市林口區文化二路二段553號(近中華路/文化二路口),新北市,林口區,25.0904176,121.3835367
林口四維公園站,新北市林口區四維路與佳林路交叉口(近四維路/佳林路交叉口),新北市,林口區,25.0753831,121.381213
車太炫自助洗車林口民權店站,新北市林口區民權路189號(近民權路/文化三路二段211巷口),新北市,林口區,25.0853185,121.3748247
全聯林口竹林店站,新北市林口區竹林路12號(近竹林路/中正路口),新北市,林口區,25.0772758,121.3870372
新北市林口停二平面停車場站,新北市林口區竹林路與竹林路281巷交叉口(近竹林山觀音寺),新北市,林口區,25.0814143,121.3899079
7-ELEVEN 忠柯店站,新北市林口區忠孝路642號(近忠孝路/忠孝路646巷口),新北市,林口區,25.0683371,121.3788016
全家林口文義店站,新北市林口區信義路289號(近信義路/文化三路二段口),新北市,林口區,25.0819734,121.3754147
林口南勢公園站,新北市林口區南勢二街154號(近林口區南勢市民活動中心),新北市,林口區,25.0738408,121.3589981
台亞林口中山加油站,新北市林口區南勢里文化三路二段300號(近文化三路二段/中山路口),新北市,林口區,25.083612,121.3772569
7-ELEVEN 貝比店站,新北市林口區湖南村8鄰頭湖70-9號(近文化北路二段/寶林路交叉口),新北市,林口區,25.085012,121.377891
中油金山加油站,新北市金山區中山路385號(近中山路/中華路口),新北市,金山區,25.2247789,121.6338099
新北市中角灣站,新北市金山區台2線39公里處(近中角灣國際衝浪基地),新北市,金山區,25.2383024,121.6305387
新北市水尾停車場站,新北市金山區民生路196號斜對面(近水尾停車場),新北市,金山區,25.2221463,121.6459792
全聯泰山全興店站,新北市泰山區全興路101號(近新北市立圖書館泰山分館),新北市,泰山區,25.0572106,121.4336262
新北市義學立體停車場站,新北市泰山區明志路二段188號(近明志路二段/明志路二段192巷口),新北市,泰山區,25.0500966,121.4274722
Gogoro 泰山明志門市站,新北市泰山區明志路三段81號(近泰山貴子路郵局),新北市,泰山區,25.0417539,121.4250865
台塑中泰加油站,新北市泰山區泰林路二段32號(近中港西路/泰林路口),新北市,泰山區,25.0569777,121.4360928
中油泰山加油站,新北市泰山區泰林路二段424號(近泰林路二段/泰林路二段436巷口),新北市,泰山區,25.0644877,121.427016
中油永錡泰山加油站,新北市泰山區泰林路二段47號(近泰林路/仁德路口),新北市,泰山區,25.0575183,121.4354787
A5 泰山站,新北市泰山區新北大道四段431號(近A5 泰山站3號出口旁),新北市,泰山區,25.0530918,121.4396809
新北市烏來立體停車場站,新北市烏來區烏來街47號(近烏來老街),新北市,烏來區,24.8655138,121.5516424
新北市澳底公園地下停車場站,新北市貢寮區仁愛路43號(近澳底公園籃球場),新北市,貢寮區,25.0168762,121.9459786
新北市貢寮市民活動中心站,新北市貢寮區長泰路18-2號(近貢寮街/長泰街口),新北市,貢寮區,25.0206106,121.9074514
新北市福隆火車站,新北市貢寮區福隆街2號(近福隆火車站),新北市,貢寮區,25.0159512,121.9445868
新北市水碓立體停車場站,新北市淡水區中山北路一段189號(近中山北路一段/大義街口),新北市,淡水區,25.1783577,121.4438581
全聯淡水中山店站,新北市淡水區中山北路二段102號(近新市國小),新北市,淡水區,25.1845305,121.4445948
7-ELEVEN 協元店站,新北市淡水區中山路176之2號(近淡水國小),新北市,淡水區,25.1741974,121.4413946
新北市淡水稽徵所旁機車場站,新北市淡水區中正路272號對面(近淡水郵局),新北市,淡水區,25.1716737,121.4383355
台北捷運淡水站,新北市淡水區中正路捷運站2號出口(近鼻頭街),新北市,淡水區,25.1716184,121.4381038
新北市文化機車立體停車場站,新北市淡水區文化路57號(近文化路/文化路59巷口),新北市,淡水區,25.1726548,121.4387431
淡江大學五虎崗停車場站,新北市淡水區水源街二段124號對面(近五虎崗球場),新北市,淡水區,25.1745948,121.4530409
新北市民生立體停車場站,新北市淡水區民生路27-1號(近新北市立圖書館淡水竹圍分館),新北市,淡水區,25.1379997,121.4617915
PGO 淡水民權店站,新北市淡水區民權路183之2號(近台北捷運竹圍站),新北市,淡水區,25.1343929,121.4596587
台北捷運竹圍站,新北市淡水區民權路捷運站1號出口(近捷運站機車轉乘停車場),新北市,淡水區,25.1349865,121.4596684
全聯淡水沙崙店站,新北市淡水區沙崙路50號(近淡水漁人碼頭),新北市,淡水區,25.1817079,121.4221534
全家淡水新莊店站,新北市淡水區淡金路一段166號(近登輝大道/北新路一段口),新北市,淡水區,25.1801459,121.4539838
聖約翰科技大學站,新北市淡水區淡金路四段499號(近聖約翰科技大學機車停車場),新北市,淡水區,25.2265331,121.4515178
新北市養工處淡水濱海路站,新北市淡水區濱海路一段人行道路(近家樂福淡新店),新北市,淡水區,25.1891602,121.4424005
深坑帝品苑前停車場站,新北市深坑區北深路三段165號旁(近東南科技大學),新北市,深坑區,25.0034598,121.6019545
中油坤業深坑加油站,新北市深坑區北深路三段7號(近福容大飯店台北二館),新北市,深坑區,25.0007285,121.6105644
新北市大豐公園附設停車場站,新北市新店區二十張路143之1號(近二十張路/中正路418巷口),新北市,新店區,24.9789498,121.5357444
新北市新店高中地下停車場站,新北市新店區三民路161號(近三民路/百忍街43巷3弄交叉口),新北市,新店區,24.9742319,121.5341234
新店三民公園站,新北市新店區三民路22巷旁(近新店三民圖書閱覽室),新北市,新店區,24.9717303,121.5366031
宏佳騰新店中正店站,新北市新店區中正路493-6號 (近中正路/民權路口),新北市,新店區,24.9830414,121.5336025
台亞新店中興路加油站,新北市新店區中興路三段131號(近捷運大坪林站1號出口),新北市,新店區,24.9790934,121.5444041
新北市中興低碳停車場站,新北市新店區中興路三段6號(近家樂福新店店),新北市,新店區,24.9771524,121.547288
台北捷運新店站,新北市新店區北宜路一段2號(近新加州景觀旅館),新北市,新店區,24.9578506,121.5375994
新北市北新地下停車場站,新北市新店區北新路1段92號(近捷運新店區公所站),新北市,新店區,24.9636882,121.5167146
Gogoro 新店北新服務中心站,新北市新店區北新路三段211巷11號(近台北矽谷國際會議中心),新北市,新店區,24.9852868,121.5396541
新北市央北新村平面停車場站,新北市新店區央北一路及斯馨二路交叉口(近央北新村平面停車場),新北市,新店區,24.9787313,121.5283467
Gogoro 新店民權門市站,新北市新店區民權路188號(近中正路/民權路口),新北市,新店區,24.9829491,121.5342221
中油欣欣加油站,新北市新店區安和路三段35號(近陽光運動公園),新北市,新店區,24.9813938,121.5173408
中油華城加油站,新北市新店區安康路一段319號(近安康路/安華路口),新北市,新店區,24.963542,121.5220911
中油車子路加油站,新北市新店區安康路二段269號(近安康路/車子路口),新北市,新店區,24.9577049,121.5041703
全家新店城泰店站,新北市新店區安康路三段311號(近新北市雙城國小),新北市,新店區,24.9514679,121.4857076
全家新店德順店站,新北市新店區安德街120巷6號(近安德街119號對面),新北市,新店區,24.960752,121.508989
新北市建國公有停車場站,新北市新店區建國路356-1號(近建國路/復興路口),新北市,新店區,24.986593,121.5373068
新北市寶橋立體停車場站,新北市新店區寶橋路10號(近北新國小),新北市,新店區,24.974504,121.545719
全家新店福興店站,新北市新店區寶興路43號(近寶興路/寶興便道口),新北市,新店區,24.9737316,121.5491906
新莊鴻寶站,新北市新莊區中正路16號(近中正路/化成路口),新北市,新莊區,25.0422175,121.4652893
新北市新莊國中運動場地下停車場B1F站,新北市新莊區中正路251巷(地下一樓機車停車場)(近新莊國中運動場地下停車場),新北市,新莊區,25.0354319,121.452037
中油新樹加油站,新北市新莊區中正路501號(近中正路/新樹路口),新北市,新莊區,25.0335611,121.440672
Gogoro 新莊中正服務中心站,新北市新莊區中正路57號(近捷運頭前庄站3號出口),新北市,新莊區,25.039559,121.4620204
中油永錡中正加油站,新北市新莊區中正路692-8號(近中正路/明志路口),新北市,新莊區,25.028354,121.4197262
全家新莊龍鳳店站,新北市新莊區中正路729號 (近丹鳳站2號出口),新北市,新莊區,25.0287761,121.422867
全聯新莊龍安店站,新北市新莊區中正路893巷2之1號(近迴龍捷運站3號出口對面),新北市,新莊區,25.02089,121.413031
台北捷運丹鳳站,新北市新莊區中正路捷運站1號出口(近捷運站機車轉乘停車場/貴鳳街口),新北市,新莊區,25.0363039,121.4524761
台北捷運輔大站(4號出口),新北市新莊區中正路捷運站4號出口(近捷運站機車轉乘停車場),新北市,新莊區,25.031423,121.4307293
全家新莊福前店站,新北市新莊區中原東路56號(近福前街/中原東路交叉口),新北市,新莊區,25.0545852,121.4639314
台灣聯通中原場站,新北市新莊區中原路520號旁空地(近消防局中港分隊),新北市,新莊區,25.0546708,121.4462101
Gogoro 新莊中華服務中心站,新北市新莊區中華路二段201號(近中華路二段/昌中橋口),新北市,新莊區,25.0526517,121.452122
新北市台65高架橋下停車場站,新北市新莊區中環路三段與幸福路交叉口(近台65橋下橋墩P32柱),新北市,新莊區,25.0490425,121.4420944
A3 新北產業園區站,新北市新莊區五工路37號(近五工路/福慧路口),新北市,新莊區,25.0617119,121.4588938
中油五股工業區加油站,新北市新莊區五工路99-3號(近五工路/五工五路口),新北市,新莊區,25.06475,121.456031
Gogoro 新莊仁愛服務中心站,新北市新莊區仁愛街30​、32號(仁愛街/建中街口),新北市,新莊區,25.0364461,121.4443232
超傑科技站,新北市新莊區化成路349巷14號(近頭前國小),新北市,新莊區,25.0565804,121.4650923
全家新莊新市店站,新北市新莊區化成路431巷76號(近化成路431巷/福前街口),新北市,新莊區,25.0599021,121.4625903
全聯新莊幸福店站,新北市新莊區幸福路501號(近幸福路78巷口對面),新北市,新莊區,25.049322,121.4564834
Gogoro 新莊幸福店站,新北市新莊區幸福路728號(近新莊佳瑪百貨),新北市,新莊區,25.0492526,121.4490228
全聯新莊建中店站,新北市新莊區建中街62號(近新泰路/建中街口),新北市,新莊區,25.037335,121.448076
車太炫自助洗車新莊輔大店站,新北市新莊區建國一路133號(近好市多Costco新莊店),新北市,新莊區,25.0267912,121.435306
新北市後港公園地下停車場B1F站,新北市新莊區後港一路19號(地下一樓機車停車場)(近後港公園),新北市,新莊區,25.0260716,121.4240119
eReady 新莊思源店站,新北市新莊區思源路245號(近思源路/思源路241巷口),新北市,新莊區,25.0472054,121.4596612
新莊福營休閒廣場站,新北市新莊區富國路176巷(近鴻金寶麻吉影城),新北市,新莊區,25.0240932,121.4241226
新北市養工處新莊復興路一段站,新北市新莊區復興路一段37號對面(近新北市立新莊棒球場),新北市,新莊區,25.0421672,121.4466366
HiLife 北縣莊國店站,新北市新莊區復興路二段31號(近中港三角公園),新北市,新莊區,25.0441575,121.454367
台亞新莊化成路加油站,新北市新莊區新北大道二段167號(近新北大道二段/化成路口),新北市,新莊區,25.0610173,121.4649403
A4 新莊副都心站,新北市新莊區新北大道四段188號(近A4新莊副都心站1號出口),新北市,新莊區,25.0593624,121.4461393
宏佳騰新莊中正店站,新北市新莊區新莊路6號(近中正路 / 明中街口),新北市,新莊區,25.0378722,121.4592221
北基幸運加油站,新北市新莊區新樹路140-1號(近新樹路/建國一路口),新北市,新莊區,25.02315,121.4352377
台北捷運輔大站(3號出口),新北市新莊區福營路捷運站3號出口(近捷運站機車轉乘停車場),新北市,新莊區,25.022835,121.412849
新莊頭前運動公園站,新北市新莊區頭前路與福前街交叉口(頭前路與福前街交叉口),新北市,新莊區,25.0525376,121.4637466
新北市瑞芳區立體停車場站,新北市瑞芳區民權街3之1號(近瑞芳區立體停車場),新北市,瑞芳區,25.1080608,121.8082216
全家瑞芳龍川店站,新北市瑞芳區明燈路三段101之1號(近瑞芳火車站),新北市,瑞芳區,25.1085028,121.8040986
中油海濱加油站,新北市瑞芳區海濱路157之2號(近海濱路/濱二路口),新北市,瑞芳區,25.1218613,121.8294613
HiLife 瑞芳瑞濱店站,新北市瑞芳區瑞濱路67號(近台塑豫章濱加油站),新北市,瑞芳區,25.120687,121.822299
新北市水湳洞遊客中心站,新北市瑞芳區濂洞里洞頂路155-8號(近濂洞國小),新北市,瑞芳區,25.1218902,121.8616809
新北市臺電公司北部展示館站,新北市萬里區野柳里八斗60號(近台電第二核能發電廠口),新北市,萬里區,25.2031995,121.68515
新北市野柳地質公園站,新北市萬里區野柳里港東路155號對面(近野柳地質公園停車場),新北市,萬里區,25.2038901,121.6882861
北基基金加油站,新北市萬里區萬里加投19之5號(近大鵬國小),新北市,萬里區,25.214719,121.644585
中油萬里加油站,新北市萬里區龜吼里美崙31-1號(近中油電力公司萬里服務所),新北市,萬里區,25.19549148,121.6888154
中油永錡彭厝加油站,新北市樹林區八德街395號(近環河路/八德街交接口),新北市,樹林區,24.9716207,121.4155721
新北市養工處樹林三多路站,新北市樹林區三多路與羌竂街交叉口(近新北市樹林區三多國民中學),新北市,樹林區,25.0063985,121.4149689
HiLife 北縣樹俊店站,新北市樹林區三俊街254號(近三俊街/三俊街252巷口),新北市,樹林區,25.0145853,121.4214065
Gogoro 樹林三俊門市站,新北市樹林區三俊街288號(近三俊街/成功街口),新北市,樹林區,25.014167,121.42254
中油大慶加油站,新北市樹林區三興路50號(近三興路/大慶街口),新北市,樹林區,25.014554,121.3949831
家樂福樹林店站,新北市樹林區大安路118號(近大安路/保安街一段口),新北市,樹林區,24.9973154,121.4214216
新北市養工處樹林大安路站,新北市樹林區大安路118號(近家樂福樹林店),新北市,樹林區,24.9973154,121.4214216
中油永錡保安加油站,新北市樹林區大安路179號(近家樂福樹林店),新北市,樹林區,24.9961322,121.4212601
家樂福北大店B2F站,新北市樹林區大雅路288號(地下二樓機車停車場)(近大雅路/學勤路口),新北市,樹林區,24.9475018,121.3801628
新北市臺北大學特定區停一停車場站,新北市樹林區大義路與學城路口(近臺北大學特定區停一停車場),新北市,樹林區,24.9460633,121.3778046
臺鐵臺北貨運所南樹林車站,新北市樹林區中山路二段230號(近中山路二段/東興街口),新北市,樹林區,24.9804327,121.4089702
中油三多加油站,新北市樹林區中正路433號(近中正路/三多路口),新北市,樹林區,25.0085566,121.4155419
全家樹林三德店站,新北市樹林區中正路482號(近中正路/三德街交叉口),新北市,樹林區,25.01293,121.4126502
中油金樹林加油站,新北市樹林區中華路365號(近中山地下道),新北市,樹林區,24.980203,121.414181
樹林柑園市民活動中心站,新北市樹林區佳園路三段128號(近柑園市民活動中心),新北市,樹林區,24.9508465,121.3861024
樹林彭厝市民活動中心站,新北市樹林區國凱街65號(近彭厝派出所),新北市,樹林區,24.9799977,121.4220804
新北市第七立體停車場站,新北市樹林區復興路202號(近第七立體停車場),新北市,樹林區,24.9906252,121.4196978
新北市第八平面停車場站,新北市樹林區復興路390巷20號(近大安路/復興路390巷口),新北市,樹林區,24.9860435,121.4144847
樹林三多市民活動中心站,新北市樹林區福興街17號(近三多市民活動中心),新北市,樹林區,25.0164961,121.4043828
全聯三峽北大店站,新北市樹林區學勤路209.211號(近學勤路/大義路口),新北市,樹林區,24.9477687,121.3789401
臺鐵臺北貨運所樹林車站,新北市樹林區樹北里鎮前街112號(前鎮街122號旁),新北市,樹林區,24.9914074,121.4246008
新北市樹林區公所站,新北市樹林區鎮前街93號(近樹林區公所),新北市,樹林區,24.9899572,121.4246808
Gogoro 蘆洲三民服務中心站,新北市蘆洲區三民路140號(近國立空中大學),新北市,蘆洲區,25.0878182,121.4707082
PGO 蘆洲三民店站,新北市蘆洲區三民路237號(近三民路/中正路174巷口),新北市,蘆洲區,25.0886981,121.4690194
中油蘆洲加油站,新北市蘆洲區三民路99號(近新北市蘆洲區公所),新北市,蘆洲區,25.0853567,121.4731223
蘆洲三民機車平面停車場站,新北市蘆洲區三民路與復興路交叉口(近三民高中站),新北市,蘆洲區,25.088788,121.478149
北基蘆洲加油站,新北市蘆洲區中山一路310號(近中山一路/中山二路口),新北市,蘆洲區,25.0773612,121.4693565
新北市仁愛立體停車場站,新北市蘆洲區民權路139號旁(仁愛國小對面),新北市,蘆洲區,25.090488,121.4715603
新北市鷺江立體停車場站,新北市蘆洲區民權路26號(近民權路/民權路3巷口),新北市,蘆洲區,25.086046,121.4767357
蘆洲永平廣場站,新北市蘆洲區永平街1號(近新北市立圖書館蘆洲永平分館),新北市,蘆洲區,25.0903409,121.459313
新北市鴨母港平面停車場站,新北市蘆洲區永安南路二段與環堤大道交叉處(近鴨母港抽水站),新北市,蘆洲區,25.0827875,121.4559626
HiLife 蘆洲光榮店站,新北市蘆洲區光榮路68號(近忠義國小),新北市,蘆洲區,25.088584,121.4632132
蘆洲長安市場站,新北市蘆洲區長安街98巷(近新北市立圖書館蘆洲長安分館),新北市,蘆洲區,25.0813657,121.4623904
UNIQLO 蘆洲長榮路店站,新北市蘆洲區長榮路253號(近長榮路269巷/永康街口),新北市,蘆洲區,25.0861908,121.46009
全聯蘆洲重陽店站,新北市蘆洲區重陽街46號(近永安兒童公園),新北市,蘆洲區,25.0830787,121.4814157
車麗屋新北蘆洲店站,新北市蘆洲區集賢路407號(近徐匯廣場),新北市,蘆洲區,25.0811947,121.4800633
中油東林加油站,新北市鶯歌區中正一路461之5號(近中正一路/建德二巷口),新北市,鶯歌區,24.956671,121.3630364
HiLife 鶯歌東正店站,新北市鶯歌區中正三路37號﹑39號﹑41號(近中正三路/高職東街口),新北市,鶯歌區,24.9418856,121.3390454
新北市鶯歌區公所站,新北市鶯歌區仁愛路55號(近仁愛路/忠孝街交叉口),新北市,鶯歌區,24.9558749,121.354358
中油鶯歌加油站,新北市鶯歌區文化路152號,新北市,鶯歌區,24.950327,121.352077
山隆鶯歌加油站,新北市鶯歌區永和二街28號(近大湖路/永和街口),新北市,鶯歌區,24.9714295,121.3363221
新北市老街第二停車場站,新北市鶯歌區尖山埔路295號旁(近尖山埔路/永昌街交叉口),新北市,鶯歌區,24.9495595,121.3434969
中油三星加油站,宜蘭縣三星鄉三星路四段235號(近三星路四段/月眉一路口),宜蘭縣,三星鄉,24.6673673,121.6577458
中油大同加油站,宜蘭縣大同鄉崙埤村泰雅路一段92號(近泰雅大橋),宜蘭縣,大同鄉,24.6712396,121.6043421
中油羅東加油站,宜蘭縣五結鄉中正路二段94號(近中正路二段/向上路口),宜蘭縣,五結鄉,24.6975591,121.7692641
中油新水加油站,宜蘭縣五結鄉五濱路二段206號(近傳藝大橋),宜蘭縣,五結鄉,24.6804767,121.8270744
中油冬山加油站,宜蘭縣冬山鄉冬山路二段260號(近冬山路二段/寶德路口),宜蘭縣,冬山鄉,24.6413829,121.7871289
中油九份加油站,宜蘭縣冬山鄉冬山路五段165號(近冬山路五段/中正南路口),宜蘭縣,冬山鄉,24.666525,121.7719211
中油壯圍加油站,宜蘭縣壯圍鄉壯五路391號(近壯五路/東港路口),宜蘭縣,壯圍鄉,24.7474945,121.782728
中油大福加油站,宜蘭縣壯圍鄉壯濱路五段310號(近礁溪分局大福派出所),宜蘭縣,壯圍鄉,24.78985,121.814835
中油宜蘭龍潭加油站,宜蘭縣宜蘭市大坡路二段63號(近大坡路二段/雪峰一路口),宜蘭縣,宜蘭市,24.7754874,121.745304
中油廣進加油站,宜蘭縣宜蘭市中山路一段116號,宜蘭縣,宜蘭市,24.7239258,121.768956
Gogoro 宜蘭中山門市站,宜蘭縣宜蘭市中山路二段516號(近新月廣場),宜蘭縣,宜蘭市,24.7538537,121.7525081
中油宜蘭加油站,宜蘭縣宜蘭市中山路五段139號(近宜蘭分局新生派出所),宜蘭縣,宜蘭市,24.7706074,121.7566673
千葉火鍋宜蘭店站,宜蘭縣宜蘭市南門里泰山路32號(近泰山路/民權路二段),宜蘭縣,宜蘭市,24.755309,121.74858
全聯宜蘭健康店站,宜蘭縣宜蘭市健康路二段70-72-76-78號(近健康路二段/復興路一段口),宜蘭縣,宜蘭市,24.7479146,121.7514358
宏佳騰宜蘭復興店站,宜蘭縣宜蘭市復興路二段168號,宜蘭縣,宜蘭市,24.7498547,121.7453922
7-ELEVEN 金玉店站,宜蘭縣南澳鄉蘇花路二段165號(近蘇花改南澳大橋),宜蘭縣,南澳鄉,24.4638795,121.7978393
中油員山加油站,宜蘭縣員山鄉員山路一段31號(近員山路一段/嵐峰路三段路口),宜蘭縣,員山鄉,24.7474161,121.7312066
全聯頭城青雲店站,宜蘭縣頭城鎮青雲路三段298號(近阿宗芋冰城),宜蘭縣,頭城鎮,24.8595026,121.8267974
中油頭城加油站,宜蘭縣頭城鎮開蘭路300號(近開蘭路/青雲路三段路口),宜蘭縣,頭城鎮,24.8644093,121.8284043
中油大里加油站,宜蘭縣頭城鎮濱海路七段81號(近大里國民小學),宜蘭縣,頭城鎮,24.9718736,121.9282101
中油北關加油站,宜蘭縣頭城鎮濱海路三段326號(近龜山火車站),宜蘭縣,頭城鎮,24.9056349,121.8707912
中油金泉加油站,宜蘭縣礁溪鄉礁溪路七段105號(近礁溪路七段103巷口),宜蘭縣,礁溪鄉,24.8371748,121.7868697
宜蘭礁溪轉運站,宜蘭縣礁溪鄉礁溪路六段17號(近礁溪溫泉公園),宜蘭縣,礁溪鄉,24.8310552,121.77784
宜蘭福利站,宜蘭縣羅東鎮大同路31號(近羅東大同路郵局宜蘭29支局),宜蘭縣,羅東鎮,24.6792945,121.773074
Gogoro 羅東中正門市站,宜蘭縣羅東鎮中正​路160號(近中正路/公正路口),宜蘭縣,羅東鎮,24.676762,121.7717184
全聯羅東中正店站,宜蘭縣羅東鎮中正南路88號(近羅東聖母醫院),宜蘭縣,羅東鎮,24.669787,121.771683
全聯羅東光榮店站,宜蘭縣羅東鎮光榮路200號(光榮路與中山路二段口),宜蘭縣,羅東鎮,24.674102,121.7779094
7-ELEVEN 宣宏店站,宜蘭縣羅東鎮復興路二段257號(近羅東鎮竹林國小),宜蘭縣,羅東鎮,24.6906492,121.7642175
中油蘇澳加油站,宜蘭縣蘇澳鎮中山路一段196號(近中山路一段/中原路口),宜蘭縣,蘇澳鎮,24.5960554,121.8470108
HiLife 宜蘭隘城店站,宜蘭縣蘇澳鎮海山西路270號(近海山西路/信義路口),宜蘭縣,蘇澳鎮,24.6155717,121.8349895
車麗屋桃園八德店站,桃園市八德區介壽路一段666號(近介壽路一段/裕民街交叉口),桃園市,八德區,24.9661379,121.3007023
全家八德瑞德店站,桃園市八德區介壽路二段1382號(近介壽路二段/介壽路二段1378巷口),桃園市,八德區,24.9261341,121.2964105
Gogoro 桃園八德店站,桃園市八德區介壽路二段312號(近麥當勞桃園大湳店),桃園市,八德區,24.9494536,121.2977104
中油嘉昕加油站,桃園市八德區介壽路二段631號(近伍陽城市原創農場),桃園市,八德區,24.9409544,121.2978205
廣豐一停車場站,桃園市八德區公園路與桃德路100巷交叉口(近廣豐公園),桃園市,八德區,24.9675303,121.297986
中油八德加油站,桃園市八德區竹園里長興路556號(近長興路/竹園路交叉口),桃園市,八德區,24.9329496,121.2711953
和義一停車場站,桃園市八德區和平路(近和平路/和義一街口),桃園市,八德區,24.9579402,121.3098752
台亞八德交流道加油站,桃園市八德區和平路863號(近和平路/和強路口),桃園市,八德區,24.9595276,121.3193018
忠勇停車場站,桃園市八德區忠勇一街與忠勇六街交叉口(近君臨休閒廣場),桃園市,八德區,24.965619,121.3054468
7-ELEVEN 勇伯店站,桃園市八德區東勇北路380號(近東勇路/忠勇街424巷交叉口),桃園市,八德區,24.9695156,121.306608
中油東勇加油站,桃園市八德區東勇街246號(近桃55鄉道東勇街口),桃園市,八德區,24.9627376,121.3068979
全家八德櫻花店站,桃園市八德區長安街375號(近興豐路/長安街交叉口),桃園市,八德區,24.9491003,121.3193968
全家八德仁興店站,桃園市八德區建國路241號(近建國路/仁德一路交叉口),桃園市,八德區,24.9366876,121.2881516
米格國際站,桃園市八德區建國路626號(近米格國際股份有限公司門口),桃園市,八德區,24.9465726,121.2894289
HiLife 八德桃尊店站,桃園市八德區建國路871號(建國路/新興路交叉口),桃園市,八德區,24.9528106,121.2909672
大和段停車場站,桃園市八德區建國路與文昌街交叉口(近文昌休閒公園),桃園市,八德區,24.9559113,121.2941741
中油茄苳加油站,桃園市八德區茄苳里中華路575號(近中華路/永豐路交叉口),桃園市,八德區,24.9771755,121.2697071
廣豐二停車場站,桃園市八德區桃德路與廣豐二街交叉口(近廣豐新天地),桃園市,八德區,24.9657828,121.2945556
全聯八德大湳店站,桃園市八德區福國北街79號(近福國北街/中路街口),桃園市,八德區,24.9611423,121.2942638
全家八德德富店站,桃園市八德區廣福路805號(近廣福路/永豐路交叉口),桃園市,八德區,24.9604387,121.278842
全聯八德興豐店站,桃園市八德區興豐路392、396、398號(近興豐路/建興街42巷口),桃園市,八德區,24.9294307,121.2888197
全家大園都心店站,桃園市大園區中山北路31號。(近中山北路/大觀路交叉口),桃園市,大園區,25.0647575,121.1969418
7-ELEVEN 鐵鎮店站,桃園市大園區中正東路二段428號,桃園市,大園區,25.0274468,121.2302039
7-ELEVEN 江園店站,桃園市大園區中正東路三段620號(近中壢大江購物中心),桃園市,大園區,25.0044169,121.228549
7-ELEVEN 濱海店站,桃園市大園區竹圍里五鄰竹圍街45-3號(近竹圍街/竹圍街44巷路口),桃園市,大園區,25.1046496,121.2432291
全聯大園和平店站,桃園市大園區和平東路65號(近和平東路與和平二街路口),桃園市,大園區,25.0618435,121.1998459
全聯大園菓林店站,桃園市大園區菓林路69號(近菓林路/菓林路59巷口),桃園市,大園區,25.0753988,121.2583766
HiLife 桃縣桃正店站,桃園市大園區華興路323號(近華興路/和平西路交叉口),桃園市,大園區,25.0566378,121.1957985
全聯大園華興店站,桃園市大園區華興路36號(近華興路/大觀路交叉口),桃園市,大園區,25.0641802,121.1930465
中華電信大園服務中心站,桃園市大園區新興路42號(近新興路與文中街口),桃園市,大園區,25.064001,121.194278
全家大園田心店站,桃園市大園區新興路85號(近新興路/大興路交叉口),桃園市,大園區,25.0628147,121.1949249
HiLife 桃縣大介店站,桃園市大溪區介壽路568號(近介壽路/介壽路566巷交叉口),桃園市,大溪區,24.9103953,121.2878337
全聯大溪文化店站,桃園市大溪區文化路67號(近文化路/文化路75巷交岔口),桃園市,大溪區,24.8817333,121.2935659
全聯大溪員林店站,桃園市大溪區員林路一段5號(近介壽路/員林路口),桃園市,大溪區,24.8983802,121.2834914
7-ELEVEN 仁善店站,桃園市大溪區埔頂路二段183號(近埔頂路二段/仁善街交岔口),桃園市,大溪區,24.9106291,121.2795088
台亞石門水庫加油站,桃園市大溪區康莊路三段80號(近康莊路三段/內柵路一段口),桃園市,大溪區,24.8597353,121.2823736
中油慈湖加油站,桃園市大溪區復興路一段970號(近復興路一段/慈康路口),桃園市,大溪區,24.8464971,121.2849162
全聯大溪中正店站,桃園市大溪區慈湖路66號(近華南銀行大溪分行),桃園市,大溪區,24.8823343,121.2888071
中油大溪加油站,桃園市大溪區瑞安路一段268號(近大溪橋),桃園市,大溪區,24.8857535,121.2793898
僑愛平面停車場站,桃園市大溪區僑愛一街46巷口(近區僑愛一街46巷/介壽路交岔口),桃園市,大溪區,24.9215958,121.2940842
銀河廣場地下停車場B1F站,桃園市中壢區九和一街35號(地下一樓機車停車場入口處旁)(近遠東SOGO中壢店),桃園市,中壢區,24.9624547,121.2236192
中央大學站,桃園市中壢區中大路300號(近中央路/中央路232巷口),桃園市,中壢區,24.966431,121.1925146
大潤發中壢店站,桃園市中壢區中北路二段468號(近中北路/中山東路口),桃園市,中壢區,24.9547179,121.2345845
Nova 資訊廣場中壢店站,桃園市中壢區中正路389號(近中正路/明德南路口),桃園市,中壢區,24.9554735,121.2153259
福懋中壢加油站,桃園市中壢區中正路二段139號(近中正路二段/中正路二段206巷交岔口),桃園市,中壢區,24.9754308,121.1964136
7-ELEVEN 大崙店站,桃園市中壢區中正路四段35號(近中正路四段/福嶺路二段路口),桃園市,中壢區,24.9879329,121.1815735
台亞大崙加油站,桃園市中壢區中正路四段765號(近中正路四段/福山路一段口),桃園市,中壢區,24.992797,121.1695624
麗車坊中壢店站,桃園市中壢區中華路一段810號(麗車坊賣場停車場後方),桃園市,中壢區,24.9679625,121.2463121
中油中工加油站,桃園市中壢區中華路二段230號(近中華路二段/中園路交叉口),桃園市,中壢區,24.9653496,121.2385699
家樂福中原店B2F站,桃園市中壢區中華路二段501號(地下二樓機車停車場)(近桃園中壢區戶政事務本所),桃園市,中壢區,24.9721514,121.2053963
A21 環北站,桃園市中壢區中豐北路一段26號(近中豐北路/環北路口),桃園市,中壢區,24.9670832,121.2210854
五福停車場站,桃園市中壢區五光一街(近中正路/五光一街口),桃園市,中壢區,24.95883,121.2088628
7-ELEVEN 成豐店站,桃園市中壢區元化路197巷3號(近元化路/元化路197巷交岔口),桃園市,中壢區,24.9606101,121.2277277
PGO 中壢元化店站,桃園市中壢區元化路二段86號(近元化路二段/中豐路交叉口),桃園市,中壢區,24.9627377,121.2202966
復興停車場站,桃園市中壢區文化二路(近文化二路/元生二街口),桃園市,中壢區,24.9750023,121.2512775
台貿停車場站,桃園市中壢區台貿二街與正義路口(近桃園市立圖書館龍岡分館),桃園市,中壢區,24.936103,121.255889
正光二街停車場站,桃園市中壢區正光二街116號旁(近正光二街/正光三街70巷交岔口),桃園市,中壢區,24.9592638,121.205319
HiLife 中壢壢榮店站,桃園市中壢區永福路603號(近榮民路/永福路口),桃園市,中壢區,24.9589417,121.2600484
HiLife 中壢桃合店站,桃園市中壢區合圳北路二段47號(近合圳北路二段/內定八街交叉口),桃園市,中壢區,24.9991208,121.2456609
中油中壢工二加油站,桃園市中壢區吉林路37巷15號(近文化公園),桃園市,中壢區,24.9799765,121.2468637
eReady 中壢延平店站,桃園市中壢區延平路326號(近中壢監理站),桃園市,中壢區,24.9604564,121.2253987
延平停車場站,桃園市中壢區延平路535號(近延平路/中山路交岔口),桃園市,中壢區,24.9559945,121.2232344
7-ELEVEN 長業店站,桃園市中壢區長春路23號(近文化二路與長春路交岔口),桃園市,中壢區,24.9787912,121.2499679
站前東停車場站,桃園市中壢區青山路(近高鐵站前東路一段/青山路交岔口),桃園市,中壢區,25.0126189,121.2191537
青商停車場(停六)站,桃園市中壢區青埔路二段(近青埔路二段/領航南路三段交叉口),桃園市,中壢區,25.0069964,121.2164173
南園停車場站,桃園市中壢區南園二路277號旁(近南園二路/中福路交岔口),桃園市,中壢區,24.9714837,121.228638
全家中壢青埔店站,桃園市中壢區洽溪里7鄰領航北路二段66號(領航北路二段/民權路四段交叉口),桃園市,中壢區,25.0074704,121.202245
台灣高鐵桃園站,桃園市中壢區高鐵北路一段6號(近桃園高鐵站機車停車場出入口處),桃園市,中壢區,25.0135799,121.2148696
莊敬停車場站,桃園市中壢區莊敬路5號(近莊敬路/精忠街交岔口),桃園市,中壢區,24.9719968,121.2571262
復華停車場站,桃園市中壢區復華街(近復華街/復華街231巷口),桃園市,中壢區,24.9732166,121.248082
Gogoro 中壢復興店站,桃園市中壢區復興路71號(近中央東路/復興路口),桃園市,中壢區,24.9563308,121.224934
全聯中壢普忠店站,桃園市中壢區普忠路1168號(近普忠路/榮民南路交叉口),桃園市,中壢區,24.9493434,121.2564905
7-ELEVEN 速達店站,桃園市中壢區新生路二段378之2號(近新生路二段/新生路二段393巷口),桃園市,中壢區,24.9849267,121.2225937
車太炫自助洗車中壢新生店站,桃園市中壢區新生路二段9-3號(近新生路二段/永清街口),桃園市,中壢區,24.9762234,121.2229632
全聯中壢福州店站,桃園市中壢區福州一街126號(近福州一街/福壽六街交岔口),桃園市,中壢區,24.9654152,121.2325401
7-ELEVEN 新福街店站,桃園市中壢區福州二街392號(近福州二街/福星三街交叉口),桃園市,中壢區,24.9674868,121.2315513
全家中壢大福店站,桃園市中壢區福州二街457號(近福州二街/福安一街11巷口),桃園市,中壢區,24.9681708,121.2332344
全聯中壢領航店站,桃園市中壢區領航南路一段218號(近領航南路一段/文德路口),桃園市,中壢區,25.00043,121.2075183
日月亭廣明二站,桃園市中壢區廣明路134號(近廣明路/廣明路122巷口),桃園市,中壢區,24.9547537,121.2141742
中華電信內壢服務中心站,桃園市中壢區興仁路一段188號(近興仁路一段/遠東路口),桃園市,中壢區,24.968945,121.261634
Gogoro 中壢龍岡服務中心站,桃園市中壢區龍岡路一段125號(近龍岡路一段/龍明街口),桃園市,中壢區,24.9494238,121.2240258
全家中壢龍興店站,桃園市中壢區龍岡路二段317號﹑319號(近龍岡路二段/龍岡路二段321巷交叉口),桃園市,中壢區,24.9420954,121.2303118
龍岡停車場站,桃園市中壢區龍東路203號旁(近龍東路/龍文三街交岔口),桃園市,中壢區,24.9301132,121.2532235
山隆龍興加油站,桃園市中壢區龍興路693號(近家樂福中壢店),桃園市,中壢區,24.9451316,121.2452087
Gogoro 中壢環中東門市站,桃園市中壢區環中東路238號(近環中東路/永福路交叉口),桃園市,中壢區,24.9624757,121.2552537
中油內壢加油站,桃園市中壢區環中東路346號(近環中東路/永福路口),桃園市,中壢區,24.955175,121.254556
PGO 中壢環中店站,桃園市中壢區環中東路359號(近環中東路/永福路交叉口),桃園市,中壢區,24.9551758,121.2550507
中油環中加油站,桃園市中壢區環中東路675號(近環中東路/新中北路口),桃園市,中壢區,24.9552517,121.2460953
麗車坊環中店站,桃園市中壢區環中東路二段695號(近環中東路/龍岡路二段口),桃園市,中壢區,24.9438891,121.2289545
環北停車場站,桃園市中壢區環北路89號(近環北路/中豐北路一段口),桃園市,中壢區,24.9664177,121.2189887
全聯平鎮上海店站,桃園市平鎮區上海路250號(近上海路/南京路交岔口),桃園市,平鎮區,24.909582,121.2067
上海停車場站,桃園市平鎮區中庸路(近中庸路/大連街口),桃園市,平鎮區,24.9133722,121.2063769
Gogoro 平鎮中豐服務中心站,桃園市平鎮區中豐路309號(近中豐路/中豐路301巷口),桃園市,平鎮區,24.8783216,121.2114975
全聯平鎮中豐店站,桃園市平鎮區中豐路南勢二段326號(近平南國中),桃園市,平鎮區,24.910829,121.210266
全家平鎮富民店站,桃園市平鎮區文化街116號1樓(近文化街/文化街174巷口),桃園市,平鎮區,24.9531059,121.2030489
廣北平面停車場站,桃園市平鎮區民族路245號(近民族路/廣成街交岔口),桃園市,平鎮區,24.9565727,121.2087721
7-ELEVEN 雙榮店站,桃園市平鎮區民族路雙連三段8號(近中平國小旁),桃園市,平鎮區,24.958943,121.179187
全聯平鎮和平店站,桃園市平鎮區和平路185號(近和平路/德育路249巷交岔口),桃園市,平鎮區,24.946165,121.220063
台亞桃園延平加油站,桃園市平鎮區延平路三段266號 (近延平路三段260巷/延平路三段交岔口),桃園市,平鎮區,24.9375567,121.2013407
7-ELEVEN 金沅店站,桃園市平鎮區東勢里金陵路五段255號(近金陵路五段/福龍路一段交叉口),桃園市,平鎮區,24.9049012,121.2306121
中油金陵加油站,桃園市平鎮區金陵路二段123號(近環南路/金陵路口),桃園市,平鎮區,24.9401323,121.2232415
中油鎮江加油站,桃園市平鎮區南平路二段406號(近萊爾富平鎮平德店),桃園市,平鎮區,24.9217234,121.1942069
HiLife 平鎮平德店站,桃園市平鎮區南平路二段526號(近南平路二段/南平路二段516巷口),桃園市,平鎮區,24.9225427,121.1915839
北基東宏加油站,桃園市平鎮區南東路69號(近大潤發平鎮店),桃園市,平鎮區,24.920648,121.2143784
貿東停車場站,桃園市平鎮區貿五路18號對面(近貿五路/龍平路交岔口),桃園市,平鎮區,24.9278307,121.252879
中油新富加油站,桃園市平鎮區新富里中豐路一段298號(近中豐路一段/快速路三段交叉口),桃園市,平鎮區,24.9272752,121.2128436
新榮平面停車場站,桃園市平鎮區新德街186號旁空地(近新德街/安平街口),桃園市,平鎮區,24.9442559,121.2138333
中華電信平鎮服務中心站,桃園市平鎮區德育路二段175號(近環南路三段/德育路二段口),桃園市,平鎮區,24.9412364,121.2193054
7-ELEVEN 龍侑店站,桃園市平鎮區龍福路1號(近龍福路/龍德街交叉口),桃園市,平鎮區,24.9226008,121.2485418
全聯平鎮育達店站,桃園市平鎮區環南路237號(近育達路/環南路口),桃園市,平鎮區,24.9512564,121.2068339
廣南平面停車場站,桃園市平鎮區環南路二段5號(近環南路/延平路二段交岔口),桃園市,平鎮區,24.9449481,121.2087042
全聯平鎮環南店站,桃園市平鎮區環南路三段69號(近環南路三段/德育路二段交岔口),桃園市,平鎮區,24.9405034,121.2186711
北基朝陽加油站,桃園市桃園區三民路二段236號(近朝陽森林公園),桃園市,桃園區,25.0004985,121.3111561
宏佳騰桃園三民店站,桃園市桃園區三民路二段284號、284之1號(近三民路二段/永樂街口),桃園市,桃園區,24.9997729,121.309633
Gogoro 桃園三民服務中心站,桃園市桃園區三民路三段591號(近三民路三段/永美街交叉口),桃園市,桃園區,24.9834054,121.307672
全聯桃園大有店站,桃園市桃園區大有路581號(近晶悅國際飯店),桃園市,桃園區,25.0161131,121.3165364
7-ELEVEN 臻愛店站,桃園市桃園區大業路一段152號(近大業路一段/民光東路口),桃園市,桃園區,25.0072583,121.3161852
全家桃園元富店站,桃園市桃園區大業路一段46號﹑48號(近大業路一段/民富二街口),桃園市,桃園區,25.0043349,121.3180388
全聯桃園大業店站,桃園市桃園區大業路二段51﹑53號(近大業路二段/民富17街交叉口),桃園市,桃園區,25.0171089,121.3109487
Gogoro 桃園藝文店站,桃園市桃園區大興西路一段163號(近大興西路一段/同安街口),桃園市,桃園區,25.0143402,121.3051174
中油華碩加油站,桃園市桃園區大興西路三段783號(近大興西路三段/文中路口),桃園市,桃園區,24.9950442,121.2789665
中油武陵加油站,桃園市桃園區中山路1020號(近國立武陵高級中學),桃園市,桃園區,24.988331,121.28455
西歐桃園中山加油站,桃園市桃園區中山路1536號(近衛生福利部桃園醫院),桃園市,桃園區,24.9757805,121.2660879
愛買桃園店站,桃園市桃園區中山路939號(近桃園愛買賣場接駁車候車亭旁),桃園市,桃園區,24.9846124,121.2862401
Gogoro 桃園中正店站,桃園市桃園區中正路50號(近統領百貨桃園店),桃園市,桃園區,24.9910697,121.3129895
陽明公園停車場站,桃園市桃園區介壽路與保羅街交叉口(陽明公園機車停車場內),桃園市,桃園區,24.9829291,121.3088037
Gogoro 桃園文中服務中心站,桃園市桃園區文中路663號(近文中路/國豐六街口),桃園市,桃園區,24.9933087,121.2772693
台亞文中加油站,桃園市桃園區文中路666號(近文中路/國豐六街口),桃園市,桃園區,24.9935891,121.2764708
西門地下停車場站,桃園市桃園區四維街39號(近西門運動場),桃園市,桃園區,24.9944341,121.3049591
7-ELEVEN 立揚店站,桃園市桃園區正光路116號(近正光路/正光街112巷口),桃園市,桃園區,24.9955789,121.295432
中油來翔加油站,桃園市桃園區民生路33號(近新光三越桃園站前店),桃園市,桃園區,24.9908188,121.3150815
7-ELEVEN 埔民店站,桃園市桃園區民生路535號(近民生路/北埔路交叉口),桃園市,桃園區,25.0040724,121.3090658
全家桃園縣安店站,桃園市桃園區民安路99號1樓(近民安路/忠二路口),桃園市,桃園區,24.9964181,121.3000757
Gogoro 桃園永安服務中心站,桃園市桃園區永安路249號(近永安路/中山北路交叉口),桃園市,桃園區,24.9984854,121.3029394
7-ELEVEN 新德鴻店站,桃園市桃園區永福西街111號113號(近永福西街/永福西街115巷口),桃園市,桃園區,24.9637536,121.2950854
宏昌六街停車場站,桃園市桃園區宏昌六街與泰昌八街交叉口(近亞洲電台),桃園市,桃園區,24.9870685,121.2921255
桃園建國國小站,桃園市桃園區昆明路95號(近延平路/金門二街交叉口),桃園市,桃園區,24.9826867,121.3159166
欣桃天然氣站,桃園市桃園區法治路10號(近法治路/守法路口),桃園市,桃園區,24.9925699,121.296197
家樂福便利購桃園南平店站,桃園市桃園區南平路168號(近南平路/新埔七街路口),桃園市,桃園區,25.0199581,121.302177
全家桃園愛國店站,桃園市桃園區建國路40號(近建國路/建明街口),桃園市,桃園區,24.9859593,121.3166911
建國停車場站,桃園市桃園區建國路61巷與桃鶯路92巷交叉口(近建國公園),桃園市,桃園區,24.9850424,121.315505
中油春日路加油站,桃園市桃園區春日路971號(近春日路/寶山街口),桃園市,桃園區,25.0105668,121.3103754
台灣表面黏著科技站,桃園市桃園區桃鶯路437號(近可口可樂世界博物館),桃園市,桃園區,24.9788114,121.3217289
7-ELEVEN 泰昌店站,桃園市桃園區泰昌三街51-6號(近泰昌三街/宏昌六街交叉口),桃園市,桃園區,24.9878389,121.2949364
中油健行加油站,桃園市桃園區健行路29號(近家樂福桃園店),桃園市,桃園區,25.0221396,121.3087515
龍安二停車場站,桃園市桃園區國強一街與國豐五街交叉口(近桃園區戶政事務所),桃園市,桃園區,24.9905445,121.278284
7-ELEVEN 新莊伯店站,桃園市桃園區莊敬路一段175號(近莊敬路一段/莊敬路一段181巷口),桃園市,桃園區,25.0251765,121.3002527
全家桃園莊園店站,桃園市桃園區莊敬路二段243之1號(近莊敬路二段/敬三街交叉口),桃園市,桃園區,25.0211688,121.2899608
中油名揚加油站,桃園市桃園區富國路590號(近莊敬路二段/富國路口),桃園市,桃園區,25.0186735,121.2840104
Gogoro 桃園服務中心站,桃園市桃園區復興路20號(近桃園學苑),桃園市,桃園區,24.9910258,121.3184922
全聯桃園復興店站,桃園市桃園區復興路380號(近復興路/育樂街口),桃園市,桃園區,24.990365,121.303746
家樂福經國店站,桃園市桃園區經國路369號(近敏盛綜合醫院(經國院區)),桃園市,桃園區,25.0160008,121.3050032
中油佳順加油站,桃園市桃園區龍壽街196號之4(近龍壽街/龍壽街184巷口),桃園市,桃園區,24.9842779,121.2683741
7-ELEVEN 祥佑店站,桃園市桃園區寶慶路176號(近寶慶路/同德七街口),桃園市,桃園區,25.0132657,121.2931642
中油復興加油站,桃園市復興區澤仁里中正路267號(近中正路/北橫公路交叉口),桃園市,復興區,24.8232586,121.3540121
中油新屋北海加油站,桃園市新屋區三民路61號(近中華路/三民路口),桃園市,新屋區,24.970109,121.1098427
HiLife 桃縣桃濱店站,桃園市新屋區中山西路三段650號(近中山西路三段/文化路三段交叉口),桃園市,新屋區,24.9891376,121.0306567
中油亞柏新屋加油站,桃園市新屋區中山東路一段620號(近中山東路一段/台66線快速道路口),桃園市,新屋區,24.9720408,121.1288755
全聯桃園新屋店站,桃園市新屋區中山路409號(近中山路/中正路198巷交岔口),桃園市,新屋區,24.9728825,121.1010854
中油新屋加油站,桃園市新屋區中山路85號(近中山路/三民路交叉口),桃園市,新屋區,24.970814,121.11032
中華電信新屋服務中心站,桃園市新屋區新屋里電信街10號(近中山路/電信街口),桃園市,新屋區,24.9714629,121.1090642
三元停車場站,桃園市楊梅區三民北路35號對面(近三元街及三民北路交岔口),桃園市,楊梅區,24.9094313,121.1700552
臺鐵臺北貨運所楊梅車站後站,桃園市楊梅區大成路256號(近金德路/成德二街交叉口),桃園市,楊梅區,24.9142567,121.1464726
全聯楊梅中山店站,桃園市楊梅區中山北路一段260號(近中山北路一段/自強街交岔口),桃園市,楊梅區,24.9083864,121.1555141
Gogoro 楊梅騏轟服務中心站,桃園市楊梅區中山北路二段294號(近中山北路/梅獅路口),桃園市,楊梅區,24.9112524,121.1739616
7-ELEVEN 欣高店站,桃園市楊梅區文德路1號 (近文德路/梅高路交岔口),桃園市,楊梅區,24.9168812,121.1462626
新成立體停車場站,桃園市楊梅區光復北街20號(近新成路/光復北街口),桃園市,楊梅區,24.9119287,121.1466434
楊梅金山停車場站,桃園市楊梅區金山街(近金山街/中山北路一段494巷口),桃園市,楊梅區,24.9100041,121.1586608
全家楊梅金山店站,桃園市楊梅區新農街606號(近新農街/金山街交叉口),桃園市,楊梅區,24.9128137,121.1623339
埔心車站後站停車場站,桃園市楊梅區楊梅市梅獅路一段87巷(近埔心火車站後站),桃園市,楊梅區,24.911818,121.17268
臺鐵臺北貨運所楊梅車站前站,桃園市楊梅區楊梅里大成路256號(近大成路/光前路交叉口),桃園市,楊梅區,24.9142567,121.1464726
全家楊梅瑞溪店站,桃園市楊梅區瑞溪路一段129號(近瑞溪路一段/三民路交叉口),桃園市,楊梅區,24.9072592,121.1704125
全聯楊梅瑞溪店站,桃園市楊梅區瑞溪路二段161號(近瑞溪路二段/永美路445巷),桃園市,楊梅區,24.9093264,121.1812477
Gogoro 龍潭中正門市站,桃園市龍潭區中正路323號(近中正路/光明路交叉口),桃園市,龍潭區,24.8614483,121.2180766
台亞龍潭交流道加油站,桃園市龍潭區中正路605號 (近中正路/雙連街交岔口),桃園市,龍潭區,24.8549754,121.2203146
全聯龍潭三林店站,桃園市龍潭區中正路三林段298號(近中正路三林段/民生路交岔口),桃園市,龍潭區,24.8482116,121.2308449
桃園市客家文化館站,桃園市龍潭區中正路三林段500號(近中正路三林段/民族路交岔口),桃園市,龍潭區,24.8459037,121.234087
HiLife 桃縣龍吟店站,桃園市龍潭區中原路一段506號(近中原路一段/楊銅路一段交叉口),桃園市,龍潭區,24.8479011,121.198955
HiLife 桃縣桃魏店站,桃園市龍潭區中豐路596號(近中豐路/龍平路交叉口),桃園市,龍潭區,24.8857238,121.2124465
HiLife 桃縣桃翁店站,桃園市龍潭區中豐路711號(近中豐路/工五路交叉口),桃園市,龍潭區,24.8885885,121.2123069
中油建龍加油站,桃園市龍潭區中豐路716號(近中豐路/工五路口),桃園市,龍潭區,24.8890911,121.212815
全聯龍潭北龍店站,桃園市龍潭區北龍路19號(近北龍路15巷/北龍路交岔口),桃園市,龍潭區,24.8653618,121.2111656
富潭小人國加油站,桃園市龍潭區龍源路2-20號(近龍源路/中豐路高平段路口),桃園市,龍潭區,24.8270421,121.2054634
7-ELEVEN 山民店站,桃園市龜山區三民路100號(近三民路/壽山路交叉口),桃園市,龜山區,24.9954123,121.3242394
日月亭林口文化站,桃園市龜山區大湖里文二一街9之1號(近文二一街/文興路口),桃園市,龜山區,25.0607972,121.3630744
停五停車場站,桃園市龜山區中興路及幸福路交叉口(近龜山分局大林派出所),桃園市,龜山區,24.9901265,121.333212
Global Mall 桃園A8 B2F站,桃園市龜山區文化一路10巷42弄(地下二樓機車停車場)(近林口長庚紀念醫院),桃園市,龜山區,25.061042,121.3679272
7-ELEVEN 愿景店站,桃園市龜山區文化一路42號(近文化一路/復興二路交叉口),桃園市,龜山區,25.0567262,121.3738211
A7 體育大學站,桃園市龜山區文化一路688號(近文化一路/文青路口),桃園市,龜山區,25.0409986,121.3855281
中油文一加油站,桃園市龜山區文化一路73號(近文化一路/文德二路口),桃園市,龜山區,25.0515461,121.3803091
統一精工速邁樂華亞站,桃園市龜山區文化一路86-6號(近文化一路/復興三路口),桃園市,龜山區,25.0541534,121.3765088
Gogoro 龜山文化服務中心站,桃園市龜山區文化七路20-1號(近文化七路/文七三街口),桃園市,龜山區,25.0528274,121.361199
北基忠義加油站,桃園市龜山區忠義路一段496號(近忠義路/光華路口),桃園市,龜山區,25.0121943,121.3476093
全家龜山大湖店站,桃園市龜山區忠義路二段626號(近忠義路二段/大湖一路口),桃園市,龜山區,25.055888,121.3579236
停四停車場站,桃園市龜山區明成街(近明成街/明成街33巷交叉口),桃園市,龜山區,24.9904309,121.3469469
7-ELEVEN 柏魁店站,桃園市龜山區振興路1021之1號(近振興路/西勢湖路交岔口),桃園市,龜山區,25.0250155,121.3679365
HiLife 桃縣頂湖店站,桃園市龜山區頂湖路1號(近頂湖路/頂湖一街交叉口),桃園市,龜山區,25.047993,121.3598397
千葉火鍋林口店站,桃園市龜山區復興一路267號(近復興一路/文三二街交叉口),桃園市,龜山區,25.0563689,121.3622752
全家龜山忠義店站,桃園市龜山區楓樹村忠義路一段56號(近忠義路一段/楓樹七街口),桃園市,龜山區,25.0037742,121.3444106
中油翔大加油站,桃園市龜山區萬壽路二段361號(近萬壽路二段/華美街口),桃園市,龜山區,25.0011136,121.3542078
中油工三加油站,桃園市龜山區樂善里文化一路33號(近文化一路/復興一路交叉口),桃園市,龜山區,25.0613479,121.3705406
中油迴龍加油站,桃園市龜山區龍壽里萬壽路一段383號(近萬壽路一段/三興路交叉口),桃園市,龜山區,25.0164106,121.3996997
大新停車場站,桃園市蘆竹區大新一街與新福街口(近大竹黃昏市場),桃園市,蘆竹區,25.02434,121.2566197
7-ELEVEN 亮亞店站,桃園市蘆竹區大福路189號(近大福路/大新一街口),桃園市,蘆竹區,25.0208166,121.2578266
特力家居站,桃園市蘆竹區中正路1號(近榮興橋),桃園市,蘆竹區,25.0401823,121.2947327
Gogoro 南崁中正服務中心站,桃園市蘆竹區中正路217號(近第一銀行南崁分行正對面),桃園市,蘆竹區,25.0462046,121.2925728
全家蘆竹五福店站,桃園市蘆竹區五福村五福一路34號(近五福一路/五福一路32巷口),桃園市,蘆竹區,25.057754,121.2950116
中油柑園南榮加油站,桃園市蘆竹區南山路一段313號(近南山路一段/長榮路口),桃園市,蘆竹區,25.0575511,121.2890345
全聯蘆竹山腳店站,桃園市蘆竹區南山路三段427號(近山腳國小),桃園市,蘆竹區,25.0881934,121.2873664
全聯蘆竹南竹店站,桃園市蘆竹區南竹路二段171號(近南竹路二段/中正北路口),桃園市,蘆竹區,25.0386991,121.2829607
7-ELEVEN 景竹店站,桃園市蘆竹區南竹路五段200號(近南竹路五段/中華街口),桃園市,蘆竹區,25.0257097,121.2607341
全家蘆竹南亞店站,桃園市蘆竹區南崁路一段322號(近南崁路一段/南崁路一段300巷口),桃園市,蘆竹區,25.0545694,121.283292
Gogoro 蘆竹南崁服務中心站,桃園市蘆竹區南崁路一段56號(近台茂購物中心),桃園市,蘆竹區,25.0513259,121.2891334
山隆蘆竹加油站,桃園市蘆竹區南崁路二段532號(近南崁路/富國路口),桃園市,蘆竹區,25.0635195,121.2652524
全聯蘆竹光明店站,桃園市蘆竹區南福街102號(近南昌路/南順八街交叉口),桃園市,蘆竹區,25.0398454,121.2923603
7-ELEVEN 航福店站,桃園市蘆竹區南福街97號99號(近南福街/榮興路口),桃園市,蘆竹區,25.0403861,121.2931291
HiLife 桃縣桃楚店站,桃園市蘆竹區海山路二段262號(近海山路二段/海山中街交叉口),桃園市,蘆竹區,25.1055223,121.2581822
中油瑞龍加油站,桃園市蘆竹區海湖里濱海路一段409號(近濱海路一段/海湖北路口),桃園市,蘆竹區,25.1168396,121.2625355
中油觀音三和加油站,桃園市觀音區三和里濱海路武威段2號(近濱海路武威段/文化路交叉口),桃園市,觀音區,25.0240478,121.0859874
中油天滿加油站,桃園市觀音區大觀路一段200號(近大觀路一段/成功路一段口),桃園市,觀音區,25.0528199,121.1530601
全聯觀音中山店站,桃園市觀音區中山路二段891號(近環中路/中山路二段交叉口),桃園市,觀音區,25.0101824,121.1407184
全家觀音草漯店站,桃園市觀音區四維路139號(近大觀路二段/四維路交叉口),桃園市,觀音區,25.0459781,121.139685
7-ELEVEN 觀成店站,桃園市觀音區成功路一段557號(近成功路一段/敬業街路口),桃園市,觀音區,25.0547519,121.1241418
7-ELEVEN 福音店站,桃園市觀音區草漯里五福三街83號(近新生路/五福三街路口),桃園市,觀音區,25.0418906,121.1435452
7-ELEVEN 觀濤店站,桃園市觀音區樹林里民權路1號(近民權路/成功路一段路口),桃園市,觀音區,25.051715,121.118259
全聯嘉義仁愛店站,嘉義市西區仁愛路335號(近仁愛路/康樂街口),嘉義市,西區,23.474528,120.4420193
車之輪嘉西門市站,嘉義市西區北港路303號 ( 近北港路/僑嘉一街口),嘉義市,西區,23.4806871,120.4286427
全家嘉義湖瑞店站,嘉義市西區民生南路589號(近民生南路/南京東街口),嘉義市,西區,23.455747,120.443664
中油北興加油站,嘉義市西區自由路436號(近自由路/保安一路口),嘉義市,西區,23.4921329,120.4332159
中油林森路加油站,嘉義市西區林森西路281號(近林森西路/北榮街口),嘉義市,西區,23.4806834,120.4437307
全聯嘉義南京店站,嘉義市西區南京路416號(近南京路/錦州三街口),嘉義市,西區,23.4643957,120.4363078
家樂福嘉義店站,嘉義市西區博愛路二段461號(近興業西路停車場入口),嘉義市,西區,23.4711973,120.4319822
中油嘉義信義路加油站,嘉義市西區博愛路二段519號(近博愛路二段/大統路口),嘉義市,西區,23.4689805,120.4290187
宏佳騰嘉義興業西店站,嘉義市西區興業西路17.19號(近興業西路/民生南路口),嘉義市,西區,23.4678804,120.4388077
全聯嘉義大雅店站,嘉義市東區大雅路二段555號(近大雅路二段/小雅路口),嘉義市,東區,23.4775301,120.469557
PGO 嘉義中山店站,嘉義市東區中山路258、258-1號(近中央噴水池),嘉義市,東區,23.4803828,120.4502928
中油嘉義中山路加油站,嘉義市東區中山路90號(近中山路/維新路口),嘉義市,東區,23.4823999,120.4593801
中油文化路加油站,嘉義市東區文化路11號(近文化路/垂楊路口),嘉義市,東區,23.474549,120.4499999
全聯嘉義民國店站,嘉義市東區民國路30號(近民國路/朝陽街口),嘉義市,東區,23.4760791,120.4608724
全聯嘉義吳鳳店站,嘉義市東區吳鳳南路529號(近吳鳳南路/吳鳳南路521巷),嘉義市,東區,23.4611607,120.4571606
嘉義市文化局站,嘉義市東區忠孝路275號(近嘉義市政府文化局音樂廳後方機車停車場),嘉義市,東區,23.4880349,120.4523871
家樂福北門店站,嘉義市東區忠孝路346巷21號(近北興國中),嘉義市,東區,23.4897738,120.4554494
台亞忠孝加油站,嘉義市東區忠孝路808號(近忠孝路/中興圳幹線口),嘉義市,東區,23.5180089,120.4411929
Gogoro 嘉義興業東門市站,嘉義市東區興業東路18號(近就業中心),嘉義市,東區,23.4692298,120.4546918
全家竹北環竹店站,新竹縣竹北市9鄰中山路178號(近中山路與環北路一段交叉口),新竹縣,竹北市,24.8356548,121.0205748
HiLife 竹北北鮮店站,新竹縣竹北市大同街33號(近三民路/大同街口),新竹縣,竹北市,24.8345448,121.0097319
俥亭新國站,新竹縣竹北市中央路205號旁平面停車場(近中央路與新光街31巷32弄口),新竹縣,竹北市,24.8397638,120.9983084
Gogoro 竹北中正東門市站,新竹縣竹北市中正東路176號(近中正東路與仁義路口),新竹縣,竹北市,24.8353418,121.015331
竹北市農會站,新竹縣竹北市中正東路487號(近中正東路與中華路口),新竹縣,竹北市,24.8376941,121.0062273
HiLife 竹北鳳岡店站,新竹縣竹北市中華路1165號(近中華路/鳳岡路一段路口),新竹縣,竹北市,24.8552855,121.001663
全聯竹北中華店站,新竹縣竹北市中華路535號(近中華路與華興街口),新竹縣,竹北市,24.843051,121.0052546
普拉伯義大利坊竹北文興店站,新竹縣竹北市文興路一段273號(近文興路/嘉豐南路口),新竹縣,竹北市,24.8091808,121.0315553
全家竹北宏福店站,新竹縣竹北市光明一路236號1樓(近光明一路與文田街口),新竹縣,竹北市,24.8306215,121.0151749
全家竹北新崙店站,新竹縣竹北市光明十一路31號(近光明十一路與光明十一路1巷50弄口),新竹縣,竹北市,24.8295901,120.9986211
全聯竹北光明店站,新竹縣竹北市光明六路東一段225號(近光明六路東一段與莊敬五街口),新竹縣,竹北市,24.821159,121.025865
Gogoro 竹北成功服務中心站,新竹縣竹北市成功八路207號(近莊敬南路/成功八路口),新竹縣,竹北市,24.817221,121.0198656
全聯竹北自強店站,新竹縣竹北市自強五路60號(近自強五路與成功三路口),新竹縣,竹北市,24.8191485,121.0233862
中油台大加油站,新竹縣竹北市自強北路153號(近自強北路與勝利十一街口),新竹縣,竹北市,24.8248546,121.0318624
千葉火鍋竹北店站,新竹縣竹北市自強北路20號(近自強北路與東興路一段口),新竹縣,竹北市,24.8204134,121.0290868
7-ELEVEN 鐵家店站,新竹縣竹北市自強南路211號(近自強南路與文興路一段交岔口),新竹縣,竹北市,24.8133545,121.0236072
臺鐵臺北貨運所竹北車站,新竹縣竹北市和平街59號(近西出口/南茂科技公司),新竹縣,竹北市,24.8390081,121.0092759
中油日清加油站,新竹縣竹北市東海里東興路二段896號(近東興路二段與三民路口),新竹縣,竹北市,24.7877106,121.0643127
台灣高鐵新竹站,新竹縣竹北市高鐵七路6號(近高鐵六路與隘口一街口),新竹縣,竹北市,24.8081784,121.0404081
HiLife 竹北皇家店站,新竹縣竹北市莊敬三路117號(近莊敬三路與勝利六街口),新竹縣,竹北市,24.8248578,121.0259704
全聯竹北莊敬南店站,新竹縣竹北市莊敬南路125.127.129.131號(近莊敬南路與成功十一街口),新竹縣,竹北市,24.8160962,121.0201827
HiLife 竹北水妍店站,新竹縣竹北市莊敬南路63號(近莊敬南路與成功六街口),新竹縣,竹北市,24.8179883,121.0211181
全家竹北嘉興店站,新竹縣竹北市勝利七街二段66號1樓,新竹縣,竹北市,24.8225177,121.032985
全聯竹北勝利店站,新竹縣竹北市勝利六街36號(近勝利六街與莊敬三路口),新竹縣,竹北市,24.8250699,121.0255733
全聯竹北隘口店站,新竹縣竹北市隘口六街57號(近隘口六街與隘口二路口),新竹縣,竹北市,24.8033601,121.0334473
全家竹北金十興店站,新竹縣竹北市嘉興路498號,新竹縣,竹北市,24.8247299,121.0346106
車太炫自助洗車竹北嘉興店站,新竹縣竹北市嘉興路507號(近嘉興路與十興一街口),新竹縣,竹北市,24.8235919,121.0332361
全家竹北嘉豐店站,新竹縣竹北市嘉豐五路二段79號1樓(近嘉豐五路二段與六家五路一段交叉口),新竹縣,竹北市,24.8089244,121.0258491
HiLife 竹北竹文店站,新竹縣竹北市縣政九路215號(近縣鎮九路/文信路口),新竹縣,竹北市,24.8319118,121.0119218
全聯竹北縣政店站,新竹縣竹北市縣政二路189號(近縣政二路與文愛街口),新竹縣,竹北市,24.8317645,121.0181163
全家竹北縣政店站,新竹縣竹北市縣政二路396號(近縣政二路與縣政二路394巷口),新竹縣,竹北市,24.8277772,121.016649
全家竹東新市店站,新竹縣竹東鎮中央路92號(近中央路與光明路交叉口),新竹縣,竹東鎮,24.7693122,121.0569658
HiLife 竹東巨星店站,新竹縣竹東鎮中興路二段426號(近中興路二段/三重路口),新竹縣,竹東鎮,24.7650465,121.0586797
中油豐興加油站,新竹縣竹東鎮北興路一段40號(近北興路一段與中豐路一段口),新竹縣,竹東鎮,24.7251666,121.0996079
全家竹東上舜店站,新竹縣竹東鎮光明路261號、263號(近光明路與光明路267巷口),新竹縣,竹東鎮,24.7722568,121.0560183
中油竹東加油站,新竹縣竹東鎮東寧路一段2號(近東寧路/中豐路口),新竹縣,竹東鎮,24.722513,121.0964809
Gogoro 竹東長春服務中心站,新竹縣竹東鎮長春路一段280號(近長春路一段與長春路一段287巷口),新竹縣,竹東鎮,24.7359982,121.0894108
中油廣源加油站,新竹縣芎林鄉上山村13鄰富林路三段147號(近富林路三段與文德路口),新竹縣,芎林鄉,24.7710028,121.0765607
7-ELEVEN 宥昌店站,新竹縣芎林鄉文富街100號1樓(近文德路與文富街口),新竹縣,芎林鄉,24.7762939,121.0761605
HiLife 竹縣富林店站,新竹縣芎林鄉文德路51號(近文德路與文山路口),新竹縣,芎林鄉,24.7774658,121.0773233
中油順興加油站,新竹縣湖口鄉八德路一段396號(近中山路/八德路口),新竹縣,湖口鄉,24.8799669,121.036691
7-ELEVEN 宏橋店站,新竹縣湖口鄉工業一路7號(近光復路/工業一路交叉口),新竹縣,湖口鄉,24.8701255,121.0265552
HiLife 湖口德成店站,新竹縣湖口鄉中山路一段506號(近中山路一段與達生八街口),新竹縣,湖口鄉,24.8927987,121.0416505
全聯湖口中山店站,新竹縣湖口鄉中山路一段726、728號(近中山路一段與溪南街口),新竹縣,湖口鄉,24.897564,121.0429333
HiLife 竹縣東光店站,新竹縣湖口鄉光復東路150號(近光復東路與安宅六街口),新竹縣,湖口鄉,24.8697834,121.028571
中油長安加油站,新竹縣湖口鄉湖口村八德路二段461號(近新普科技),新竹縣,湖口鄉,24.8857896,121.0782399
7-ELEVEN 晨希店站,新竹縣湖口鄉榮光路617號(近榮光路/三民路交叉口),新竹縣,湖口鄉,24.865864,120.9970917
全聯新埔中正店站,新竹縣新埔鎮中正路137號(近中正路/楊新路一段路口),新竹縣,新埔鎮,24.8267985,121.08303
中油新庄子加油站,新竹縣新豐鄉重興村新庄路429號(近新庄路與新庄路431巷口),新竹縣,新豐鄉,24.906901,120.9833588
Gogoro 新豐學府門市站,新竹縣新豐鄉學府路59號(近學府街與文昌街口),新竹縣,新豐鄉,24.8732108,120.9981842
全聯關西北平店站,新竹縣關西鎮北平路463、465號(近北平路與民享街口),新竹縣,關西鎮,24.794739,121.17136
中油寶山加油站,新竹縣寶山鄉雙新村寶新路1段65號(近寶新路一段與明湖路口),新竹縣,寶山鄉,24.7635547,120.9879215
三義鄉農會站,苗栗縣三義鄉中正路80號(近中正路與光復路口),苗栗縣,三義鄉,24.4146057,120.7723584
中油三灣加油站,苗栗縣三灣鄉三灣村中正路7-2號(近中正路與三灣南庄道路口),苗栗縣,三灣鄉,24.6482611,120.954602
中油汶水加油站,苗栗縣大湖鄉富興村1鄰水尾41號(近7-ELEVEN新雪霸門市),苗栗縣,大湖鄉,24.448245,120.87373
中油玉泉村加油站,苗栗縣公館鄉玉泉村8鄰玉泉211-3號(近後汶公路與128縣道口),苗栗縣,公館鄉,24.5122393,120.8258798
全聯竹南中正店站,苗栗縣竹南鎮中正路96-1號(近中正路與中正路167巷口),苗栗縣,竹南鎮,24.6839745,120.8752387
中油光騏加油站,苗栗縣竹南鎮公義里公義路2433-10號(近公義路與西濱公路聯絡道口),苗栗縣,竹南鎮,24.7390764,120.9044117
全聯竹南公義店站,苗栗縣竹南鎮公義路1146號(近公義路與大埔一街口),苗栗縣,竹南鎮,24.7121027,120.9021025
中油來來加油站,苗栗縣竹南鎮公館里6鄰公館仔65號(近縱貫公路旁),苗栗縣,竹南鎮,24.6630852,120.8754797
家樂福便利購民族店站,苗栗縣竹南鎮民族街106號(近民族街與博愛街口),苗栗縣,竹南鎮,24.686408,120.8785582
全家竹南崁頂店站,苗栗縣竹南鎮永貞路二段149號(近永貞路二段與崁頂街口),苗栗縣,竹南鎮,24.6904476,120.8852949
全聯竹南光復店站,苗栗縣竹南鎮光復路193巷48號(近光復路193巷與立達街口),苗栗縣,竹南鎮,24.6885565,120.8780229
中油竹苗加油站,苗栗縣竹南鎮頂埔里12鄰中華路378號(近中華路與南隘路一段路口),苗栗縣,竹南鎮,24.715224,120.9213608
全聯竹南龍山店站,苗栗縣竹南鎮龍山路一段260、262號(近龍山路一段與龍安街113巷口),苗栗縣,竹南鎮,24.693832,120.8677929
中油西湖加油站,苗栗縣西湖鄉湖東村埔頂9-3號(近西湖鄉湖東社區活動中心),苗栗縣,西湖鄉,24.5708036,120.7616802
全家卓蘭水梨店站,苗栗縣卓蘭鎮中正路48號(近中正路與昭永路口),苗栗縣,卓蘭鎮,24.3109839,120.8259695
中油苗栗豐富加油站,苗栗縣後龍鎮豐富里造豐路170號(近造豐路與新港三路口),苗栗縣,後龍鎮,24.6018108,120.8300551
全聯苑裡中山店站,苗栗縣苑裡鎮中山路320號(近苑裡國民小學對面),苗栗縣,苑裡鎮,24.447563,120.6551065
全聯苑裡世界店站,苗栗縣苑裡鎮世界路一段91-13號,苗栗縣,苑裡鎮,24.439888,120.657149
中油中苗加油站,苗栗縣苗栗市中正路442號(近大川醫院),苗栗縣,苗栗市,24.5599806,120.821757
家樂福苗栗店站,苗栗縣苗栗市國華路599號(近國華路/英才路口),苗栗縣,苗栗市,24.5734594,120.8177692
千葉火鍋苗栗店站,苗栗縣苗栗市國華路982號(近國華路與國華路1026巷口),苗栗縣,苗栗市,24.5668091,120.8134306
中油通霄加油站,苗栗縣通霄鎮中山路297號(近通霄國中),苗栗縣,通霄鎮,24.4931942,120.6799207
中油大坪加油站,苗栗縣造橋鄉錦水村錦水7-30號(近尖豐公路與長壽街口),苗栗縣,造橋鄉,24.6143213,120.8918739
中油獅潭加油站,苗栗縣獅潭鄉新店村新店9-1號(近內山公路與六份農路口),苗栗縣,獅潭鄉,24.5468184,120.9244772
全聯苗栗銅鑼店站,苗栗縣銅鑼鄉大同路51號(近大同路與文化街口),苗栗縣,銅鑼鄉,24.4894726,120.7865109
中油銅鑼加油站,苗栗縣銅鑼鄉中正路151號(近銅鑼郵局),苗栗縣,銅鑼鄉,24.4880076,120.786936
全家頭份田寮店站,苗栗縣頭份市10鄰自強路二段628號(近自強路二段與環市路一段),苗栗縣,頭份市,24.6825894,120.8823943
中油頭份蘆竹加油站,苗栗縣頭份市中華路444號(近中華路與中民路口),苗栗縣,頭份市,24.6763629,120.8956488
Gogoro 頭份自強門市站,苗栗縣頭份市自強路216號(近自強路與和平路口),苗栗縣,頭份市,24.6867213,120.9052637
中油頭份加油站,苗栗縣頭份市自強路2號(近東園大飯店),苗栗縣,頭份市,24.6904791,120.9125166
中油頭份工業區加油站,苗栗縣頭份市蘆竹里中華路519號(近中華路與中民路口),苗栗縣,頭份市,24.6766038,120.8951852
中油南平路加油站,苗栗縣頭份市蘆竹路270號(近蘆竹路與永貞路一段交叉口),苗栗縣,頭份市,24.6779435,120.8843666
全聯頭份中央店站,苗栗縣頭份鎮中央路706號(近中央路與八德一路305巷口),苗栗縣,頭份鎮,24.6945006,120.8916232
全聯頭份中華店站,苗栗縣頭份鎮中華路818號(近中華路與銀河路280巷口),苗栗縣,頭份鎮,24.6821874,120.9042992
中油中寮加油站,南投縣中寮鄉永平村永平路349-13號(近永平路/永安街口),南投縣,中寮鄉,23.870863,120.777135
全聯南投水里店站,南投縣水里鄉中山路一段271號(近中山路一段/南湖路口),南投縣,水里鄉,23.8070966,120.8518985
中油水里加油站,南投縣水里鄉南光村民生路53號(近水里國中),南投縣,水里鄉,23.7919524,120.8613785
全聯南投名間店站,南投縣名間鄉彰南路46-2號(近南投縣名間鄉戶政事務所),南投縣,名間鄉,23.8389686,120.7025452
中油竹山延平加油站,南投縣竹山鎮延平里集山路二段869號(近集山路二段/保甲路交叉路口),南投縣,竹山鎮,23.7753249,120.7097231
全聯竹山集山店站,南投縣竹山鎮集山路三段227號(近集山路三段/集山路三段301巷),南投縣,竹山鎮,23.7633073,120.7011423
家樂福南投店站,南投縣南投市三和三路21號(近三和三路/公園南街交岔口),南投縣,南投市,23.9056661,120.6891209
中油南崗工業區加油站,南投縣南投市仁和路13號(近南崗三路口/仁和路交叉路口),南投縣,南投市,23.9225484,120.6717184
全聯南投南陽店站,南投縣南投市南陽路452號(近南陽路/彰南路二段口),南投縣,南投市,23.9125595,120.6814809
全聯南投學藝店站,南投縣南投市學藝路27號(近向上公園),南投縣,南投市,23.9500889,120.6887311
中油埔里中山路加油站,南投縣埔里鎮中山路二段141號(近埔里林務局),南投縣,埔里鎮,23.9687825,120.9722234
南投埔里鎮公所站,南投縣埔里鎮中山路二段239號(近警察局埔里分局),南投縣,埔里鎮,23.9665635,120.9692252
全聯埔里中正店站,南投縣埔里鎮中正路597號（近中正路/信義路）,南投縣,埔里鎮,23.9723779,120.9630059
全家埔里牛埔店站,南投縣埔里鎮西安路二段90號(近西安路二段/西安路二段136巷口),南投縣,埔里鎮,23.9895367,120.974386
順發3C草屯店站,南投縣草屯鎮中正路1002號(近中正路/登輝路口),南投縣,草屯鎮,23.988358,120.6876676
中油草屯新豐加油站,南投縣草屯鎮中正路1615號(近中正路/御富路口),南投縣,草屯鎮,23.9996978,120.6899785
全聯草屯中正店站,南投縣草屯鎮中正路557之19-5號(近富功國小),南投縣,草屯鎮,23.9785609,120.6994741
宏佳騰草屯太平店站,南投縣草屯鎮太平路一段180號(近太平路一段/民族路口),南投縣,草屯鎮,23.960386,120.6816484
Gogoro 草屯太平門市站,南投縣草屯鎮太平路二段66號(近太平路二段78巷),南投縣,草屯鎮,23.9709338,120.6831859
全聯南投草屯店站,南投縣草屯鎮信義街368號(近忠孝街/信義街交叉路口),南投縣,草屯鎮,23.9829217,120.6799452
山隆草屯加油站,南投縣草屯鎮敦和里博愛路642號(近博愛路/芬草路一段口),南投縣,草屯鎮,23.9870969,120.679379
HiLife 南投國姓店站,南投縣國姓鄉中正路一段100之1號(近台3線/線道136口),南投縣,國姓鄉,24.0236989,120.8262454
台灣聯通日月潭中興場站,南投縣魚池鄉中山路163號( 近日月潭水社遊客中心),南投縣,魚池鄉,23.8665226,120.9113168
中油鹿谷加油站,南投縣鹿谷鄉鹿谷村中正路二段137號(近台電鹿谷服務所),南投縣,鹿谷鄉,23.747982,120.7524032
全聯南投集集店站,南投縣集集鎮民生路9-21號(近民生路/民生五街口),南投縣,集集鎮,23.8277573,120.7934724
中油集集加油站,南投縣集集鎮林尾里民生路317號(近山腳巷/林尾路口),南投縣,集集鎮,23.8261594,120.7756233
台糖儒林加油站,彰化縣二林鎮仁愛路175號(近仁愛路/二溪路交叉口),彰化縣,二林鎮,23.90295,120.3742192
中油二林加油站,彰化縣二林鎮豐田里二溪路一段212號(近二林國小),彰化縣,二林鎮,23.9023828,120.3735179
7-ELEVEN 明城店站,彰化縣大城鄉東城村北平路76號(近大城郵局),彰化縣,大城鄉,23.8557223,120.3219921
中油大城加油站,彰化縣大城鄉魚寮路50號(近大城鄉玄天宮),彰化縣,大城鄉,23.8638131,120.3296095
7-ELEVEN 寶斗店站,彰化縣北斗鎮復興路281號(近心動廣場),彰化縣,北斗鎮,23.8784617,120.5278865
全聯永靖中山店站,彰化縣永靖鄉永社路291號(近中油永靖站),彰化縣,永靖鄉,23.9169431,120.5458516
中油田中加油站,彰化縣田中鎮員集路一段783號(近員集路一段/興工路口),彰化縣,田中鎮,23.8500637,120.5906857
台灣高鐵彰化站,彰化縣田中鎮站區路二段99號(近高鐵二路二段/大社路二段口),彰化縣,田中鎮,23.8740109,120.5752354
全聯田中新福店站,彰化縣田中鎮福安路285號(近福安路/福安路292巷),彰化縣,田中鎮,23.8634739,120.587349
7-ELEVEN 田正店站,彰化縣田尾鄉中山路一段191號(近中山路/中正路口),彰化縣,田尾鄉,23.8874367,120.5245374
全聯彰化竹塘店站,彰化縣竹塘鄉中興街57巷22號(近中興街/中興街57巷),彰化縣,竹塘鄉,23.8589601,120.4263429
全聯彰化伸港店站,彰化縣伸港鄉新港路311號(近彰化農田水利會伸港工作站),彰化縣,伸港鄉,24.1490658,120.4871087
全家秀水好水店站,彰化縣秀水鄉福安村22鄰彰水路二段628號(近彰水路二段/彰水路二段620巷口),彰化縣,秀水鄉,24.0321342,120.4982873
中油和美加油站,彰化縣和美鎮和東里彰美路五段85號(近彰美路五段/孝文路交叉路口),彰化縣,和美鎮,24.106767,120.502605
7-ELEVEN 和峰店站,彰化縣和美鎮道周路279號(近道周路/愛國路交岔口),彰化縣,和美鎮,24.1066305,120.4991388
福懋新美加油站,彰化縣和美鎮彰美路二段232號(近彰美路/東發路交叉口),彰化縣,和美鎮,24.0958458,120.5290982
宏佳騰和美德美店站,彰化縣和美鎮德美路241號(近德美路/美寮路二段口),彰化縣,和美鎮,24.1131172,120.501868
全聯彰化社頭店站,彰化縣社頭鄉民生路702號(近民生路/員集路二段74巷口),彰化縣,社頭鄉,23.8960383,120.5891354
中油社頭加油站,彰化縣社頭鄉員集路二段583號(近中華電信社頭服務中心),彰化縣,社頭鄉,23.9045782,120.5836374
中油芬園加油站,彰化縣芬園鄉彰南路四段354號(近芬園鄉農會),彰化縣,芬園鄉,24.0186614,120.6274943
HiLife 彰縣彰花店站,彰化縣花壇鄉中山路一段72號(近中山路一段/中橋街交叉口),彰化縣,花壇鄉,24.0114566,120.5522023
中油芳苑加油站,彰化縣芳苑鄉仁愛村斗苑路10號(近西部濱海公路),彰化縣,芳苑鄉,23.9257073,120.3166287
中油員林加油站,彰化縣員林市三多里中山路二段495號(近玉山銀行員林分行),彰化縣,員林市,23.9714023,120.5712629
全聯彰化員林店站,彰化縣員林市三和里三民東街359號(近員林國小),彰化縣,員林市,23.9608506,120.582454
山隆員林加油站,彰化縣員林市三義里21鄰中山路1段399號(近中山路一段/惠明街口),彰化縣,員林市,23.9427813,120.5613698
Gogoro 員林中山門市站,彰化縣員林市中山路一段578號(近中山路一段/三義街),彰化縣,員林市,23.954604,120.568537
宏佳騰彰化員林店站,彰化縣員林市中山路二段386號(近中山路二段/大同路二段口),彰化縣,員林市,23.968901,120.571678
全聯彰化育英店站,彰化縣員林市育英路600號(近育英路/大同路二段口),彰化縣,員林市,23.9693419,120.5738496
7-ELEVEN 家和店站,彰化縣員林市員集路二段216號(近中油饒明站/饒明國小),彰化縣,員林市,23.9409612,120.576479
全聯員林浮圳店站,彰化縣員林市浮圳路二段135號(近浮圳路二段/員林大道三段口),彰化縣,員林市,23.9674034,120.5833406
車麗屋彰化員林店站,彰化縣員林鎮莒光路555號(近莒光路/台鳳路),彰化縣,員林鎮,23.9641882,120.5664267
中油埔心加油站,彰化縣埔心鄉瓦北村員鹿路一段421號(近台76快速道路),彰化縣,埔心鄉,23.9532022,120.5534529
全聯埔心東明店站,彰化縣埔心鄉員林大道七段133號(近員林大道/東明路口),彰化縣,埔心鄉,23.9545785,120.5626722
中油埔鹽加油站,彰化縣埔鹽鄉好修村員鹿路二段99號(近員鹿路二段/中山路口),彰化縣,埔鹽鄉,24.0048316,120.4605722
7-ELEVEN 埤頭店站,彰化縣埤頭鄉彰水路3段5鄰537號(近埤頭國中),彰化縣,埤頭鄉,23.8808021,120.4588523
Gogoro 鹿港民族門市站,彰化縣鹿港鎮民族路83號(近民族路/民族路108巷口),彰化縣,鹿港鎮,24.05558,120.436272
全聯鹿港長安店站,彰化縣鹿港鎮長安路200號(近長安路/港后路口),彰化縣,鹿港鎮,24.0607976,120.4435705
全聯鹿港彰頂店站,彰化縣鹿港鎮頂草路一段25號(近頂番派出所),彰化縣,鹿港鎮,24.0869003,120.4802924
全聯鹿港鹿草店站,彰化縣鹿港鎮鹿草路一段487巷11號(近彰化縣政府消防局第三大隊鹿鳴分隊),彰化縣,鹿港鎮,24.0661204,120.4366789
全聯彰化鹿港店站,彰化縣鹿港鎮復興路210號(近復興路/育民街口),彰化縣,鹿港鎮,24.0548932,120.438425
7-ELEVEN 明道店站,彰化縣溪州鄉中山路四段627號(近彰182線),彰化縣,溪州鄉,23.8692677,120.5131995
全聯彰化溪州店站,彰化縣溪州鄉忠孝路5號(近溪州國中),彰化縣,溪州鄉,23.8496574,120.4934945
中油溪州加油站,彰化縣溪州鄉溪州村中山路三段6號(近溪洲森林公園),彰化縣,溪州鄉,23.8519246,120.4889291
台糖糖友加油站,彰化縣溪湖鎮彰水路二段820號(近溪湖糖廠),彰化縣,溪湖鎮,23.9524769,120.4815996
山隆彰化加油站,彰化縣彰化市中山路一段66號(近中山路一段/中山路一段51巷口),彰化縣,彰化市,24.0540474,120.5340055
Gogoro 彰化中山門市站,彰化縣彰化市中山路二段437號(近台灣電力公司),彰化縣,彰化市,24.0767759,120.5440666
HiLife 彰化國聖店站,彰化縣彰化市中山路三段706號(近國聖國小),彰化縣,彰化市,24.0945993,120.56947
台亞彰化中央路加油站,彰化縣彰化市中央路292號(近彰化中央路郵局),彰化縣,彰化市,24.0682991,120.5263107
全聯彰化彰安店站,彰化縣彰化市中正路二段828號1樓(近彰化縣警察局),彰化縣,彰化市,24.0645696,120.5342047
7-ELEVEN 巨峰店站,彰化縣彰化市天祥路359號(近天祥路/雲長路交叉路口),彰化縣,彰化市,24.0615314,120.5332522
千葉火鍋彰化店站,彰化縣彰化市四維路69巷15號(近四維路/四維路69巷口),彰化縣,彰化市,24.0659575,120.5361626
全聯彰化自強南店站,彰化縣彰化市自強南路589號(近自強南路/公益街口),彰化縣,彰化市,24.0787496,120.5305585
中油彰化加油站,彰化縣彰化市和調里中山路三段27號(近彰化師大附工),彰化縣,彰化市,24.0848173,120.5536573
家樂福彰化店站,彰化縣彰化市金馬路二段321號(近金馬路/東谷路),彰化縣,彰化市,24.0945919,120.5423964
車麗屋彰化金馬店站,彰化縣彰化市金馬路三段198號(近金馬路三段188巷),彰化縣,彰化市,24.0866351,120.5319167
宏佳騰彰化金馬店站,彰化縣彰化市金馬路三段623號(近金馬路三段/彰草路口),彰化縣,彰化市,24.0759889,120.5310917
中油國聖加油站,彰化縣彰化市國聖里中山路三段708號(近中山路三段/金馬東路口),彰化縣,彰化市,24.0947343,120.5696792
全聯彰化進德店站,彰化縣彰化市進德路49巷35號(近進德路49巷/竹和路口),彰化縣,彰化市,24.0845409,120.5573256
福懋彰益加油站,彰化縣彰化市彰鹿路180號(近彰鹿路/秀安路交叉口),彰化縣,彰化市,24.0534966,120.5090249
福懋益民加油站,彰化縣彰化市彰鹿路45號(近彰鹿路/彰馬路交叉口),彰化縣,彰化市,24.0614944,120.5176506
全聯彰化福興店站,彰化縣福興鄉沿海路5段363號(近沿海路/福興路口),彰化縣,福興鄉,24.0506662,120.4310668
新竹士林市場站,新竹市北區士林里東大路二段477號(近東大路二段與境福街口),新竹市,北區士,24.820805,120.9601238
HiLife 新竹竹諺店站,新竹市北區中華路三段88號(近中華路三段/林森路口),新竹市,北區中,24.7969846,120.9613475
Gogoro 新竹北大店站,新竹市北區北大路321號(近中正棒球場),新竹市,北區北,24.805838,120.9621526
宏佳騰新竹北大店站,新竹市北區北大路350號(近北大路與少年街口),新竹市,北區北,24.8057321,120.9613837
竹光國民運動中心站,新竹市北區竹光路325號(近竹光路與經國路二段438巷路口),新竹市,北區竹,24.8076074,120.9538899
全家新竹遠百店站,新竹市北區西門街101號1樓(近西門街與勝利路口),新竹市,北區,24.8016235,120.9639984
7-ELEVEN 冠盈店站,新竹市北區西濱路一段286號(近西濱路一段與延濱路口),新竹市,北區,24.8355202,120.9293534
7-ELEVEN 聖華店站,新竹市北區西濱路一段399號(近西濱路一段與興濱路口),新竹市,北區,24.8409823,120.9322936
全家新竹金鵬店站,新竹市北區延平路一段388號1樓(近延平路一段與成功路口),新竹市,北區延,24.8051959,120.9492223
中油南寮加油站,新竹市北區東大路四段292號(近新竹17公里海岸風景區),新竹市,北區東,24.8455678,120.9280799
新竹南寮市場站,新竹市北區東大路四段32號(近東大路四段與延平路三段路口),新竹市,北區東,24.8414741,120.9362432
全聯新竹武陵店站,新竹市北區武陵路157-1號(近武陵路/湳中街口),新竹市,北區武,24.8205933,120.9677462
國軍新竹地區醫院站,新竹市北區武陵路3號(近急診室路口),新竹市,北區武,24.8161603,120.96212
全家新竹武東店站,新竹市北區武陵路71號1樓,新竹市,北區武,24.8182899,120.965785
大潤發新竹湳雅店站,新竹市北區湳雅街95號(近湳雅街/光華街口),新竹市,北區湳,24.818556,120.9709257
車麗屋新竹中華店站,新竹市東區中華路一段208號(近中華路一段與中華路一段204巷口),新竹市,東區中,24.814128,120.9910578
新竹國賓大飯店站,新竹市東區中華路二段188號(近國賓飯店地下停車場出口),新竹市,東區中,24.8064522,120.9782407
西歐新竹中華加油站,新竹市東區中華路二段59號(近新竹高工),新竹市,東區中,24.8083832,120.9820194
南山人壽新竹科技大樓站,新竹市東區公道五路二段176號(近新竹美麗信酒店),新竹市,東區公,24.7996446,121.0051861
Gogoro 東區民權服務中心站,新竹市東區民權路38號(近中央路/民權路口),新竹市,東區民,24.8063789,120.9765202
新科國民運動中心站,新竹市東區光復路1段89巷90號(近新竹市立新科國民中學),新竹市,東區光,24.7920609,120.993378
寶立發彩券行站,新竹市東區光復路一段659號(近光復路一段與科學園路口),新竹市,東區光,24.7867915,121.0103628
Nova 資訊廣場新竹店站,新竹市東區光復路二段194巷3號(近國立清華大學),新竹市,東區光,24.7942396,121.0004026
HiLife 新竹竹亮店站,新竹市東區光復路二段962號(近市立體育場),新竹市,東區光,24.8037112,120.9799342
新竹竹蓮市場站,新竹市東區竹蓮街15號(近竹蓮街與竹蓮街26巷口),新竹市,東區竹,24.7969615,120.9717992
大潤發新竹忠孝店站,新竹市東區忠孝路300號(大潤發忠孝店室內機車停車場),新竹市,東區忠,24.8044796,120.9846409
中油新竹明湖加油站,新竹市東區明湖路1036號(近明湖路與明湖路1229巷口),新竹市,東區明,24.7679869,120.9781947
全家新竹五福店站,新竹市東區明湖路1255號1樓(近明湖路與花園新城街口),新竹市,東區明,24.7675853,120.9798002
Gogoro 新竹東勝門市站,新竹市東區東勝街5號(近東勝街與新光路口),新竹市,東區東,24.8032943,120.988928
全聯新竹金山店站,新竹市東區金山七街20號(近金山街與金山七街口),新竹市,東區金,24.7783815,121.0201208
全家新竹金元寶店站,新竹市東區金山九街68號1樓(近金山九街與金山忠街口),新竹市,東區金,24.7771361,121.0207907
順發3C新竹店站,新竹市東區金城一路7號(近金城一路與光復路二段口),新竹市,東區金,24.7936524,121.0015616
HiLife 新竹竹高店站,新竹市東區高峰路1號(近高峰路/寶山路口),新竹市,東區高,24.7941605,120.9728639
迪卡儂新竹店站,新竹市東區慈雲路126號(一樓機車停車場)(近埔頂二路與慈雲路口),新竹市,東區慈,24.7917081,121.0124341
台亞經國路一加油站,新竹市東區經國路一段243號(近公道五路三段/經國路一段路口),新竹市,東區經,24.814786,120.985103
順發3C新竹經國店站,新竹市東區經國路一段468、470號(近經國路一段與由美三街22巷6弄口),新竹市,東區經,24.8147473,120.978728
全家新竹綠光店站,新竹市東區綠水路63號1樓及地下室(近綠水路與園後街66巷口),新竹市,東區綠,24.8005767,120.9838144
全聯新竹龍山店站,新竹市東區龍山西路100號(近龍山西路與立鵬路口),新竹市,東區龍,24.7906012,121.0102064
全家新竹龍山店站,新竹市東區龍山東路228號1樓(龍山東路與龍山東一街口),新竹市,東區龍,24.7887604,121.0123171
全聯關新西店站,新竹市東區關新里關新西街163、165號(近關東路與關東路376巷口),新竹市,東區關,24.7890106,121.0199455
鼎盛十里關新店站,新竹市東區關新東路199號(近關新東路與關新二街口),新竹市,東區關,24.7849155,121.0195893
Gogoro 新竹關新服務中心站,新竹市東區關新路215號,新竹市,東區關,24.7882254,121.0195133
中油百祥加油站,新竹市香山區中華路五段111號(近新竹市香山高中),新竹市,香山區,24.786978,120.926352
全家新竹中華店站,新竹市香山區五福路二段776﹑778號(近五福路二段與明德路口),新竹市,香山區,24.7569748,120.9522609
7-ELEVEN 岦湖店站,新竹市香山區內湖路138號(近內湖國小),新竹市,香山區,24.7418238,120.9059448
全家新竹濱海店站,新竹市香山區西濱路二段６０１號,新竹市,香山區,24.7798216,120.9302603
全聯新竹大庄店站,新竹市香山區香北路58號(近莊敬街與香北路交岔口),新竹市,香山區,24.792337,120.9281201
中油奕承加油站,新竹市香山區景觀大道830號(近景觀大道與柴橋路口),新竹市,香山區,24.7602698,120.9581182
中油二崙加油站,雲林縣二崙鄉中山路一段102號(近中山路一段/中山路一段100巷口),雲林縣,二崙鄉,23.7737702,120.4172736
中油口湖加油站,雲林縣口湖鄉中正路一段99號(近雲林縣口湖鄉衛生所),雲林縣,口湖鄉,23.5821431,120.1850071
中油土庫加油站,雲林縣土庫鎮建國路131號(近建國路/光明路口),雲林縣,土庫鎮,23.6787679,120.3934922
宏佳騰斗六中山店站,雲林縣斗六市中山路388號(近中山路/中山路390巷口),雲林縣,斗六市,23.69898,120.5380551
全家斗六新中興店站,雲林縣斗六市中興路30號(近中興路/北環路口),雲林縣,斗六市,23.7236408,120.5817983
全聯斗六西平店站,雲林縣斗六市西平路248號(近台電雲林區營業處),雲林縣,斗六市,23.7122284,120.5354293
7-ELEVEN 朱丹灣店站,雲林縣斗六市西平路362號(近西平路/斗六西二路口),雲林縣,斗六市,23.7159527,120.5303481
中油雅虎加油站,雲林縣斗六市西平路776號(近西平路/雲科路三段口),雲林縣,斗六市,23.7265456,120.5236827
Gogoro 斗六明德北門市站,雲林縣斗六市明德北路二段350號(近斗六棒球場),雲林縣,斗六市,23.715315,120.5349033
全聯雲林斗六店站,雲林縣斗六市林投里莊敬路43號(近中山紀念公園),雲林縣,斗六市,23.7038635,120.5506309
雲林縣環保局站,雲林縣斗六市雲林路一段170號(近鎮西國小),雲林縣,斗六市,23.7075263,120.5377215
家樂福斗六店站,雲林縣斗六市雲林路二段297號(近雲林縣政府),雲林縣,斗六市,23.7017605,120.5298637
中油斗六加油站,雲林縣斗六市雲林路二段334號(近雲林縣政府),雲林縣,斗六市,23.7008462,120.5276245
福懋大學加油站,雲林縣斗六市鎮東里大學路1段263號(近大學路一段/中華路交叉口),雲林縣,斗六市,23.7118702,120.5569033
全聯雲林斗南店站,雲林縣斗南鎮中山路32巷6號(近斗南火車站),雲林縣,斗南鎮,23.6741509,120.4803564
中油斗南中興路加油站,雲林縣斗南鎮中興路201號(近中興路/中昌街口),雲林縣,斗南鎮,23.6776797,120.463261
7-ELEVEN 真嘉店站,雲林縣斗南鎮南昌西路1號(近延平路二段/南昌西路口),雲林縣,斗南鎮,23.6724678,120.4758945
台糖北港加油站,雲林縣北港鎮華南路66號(近華南路/民權路口),雲林縣,北港鎮,23.5721164,120.3001859
全聯雲林北港店站,雲林縣北港鎮華勝路171號(近華勝路/文仁路口),雲林縣,北港鎮,23.5721164,120.3001859
中油古坑加油站,雲林縣古坑鄉中山路291號(近中山路/中山路243巷口),雲林縣,古坑鄉,23.6504,120.560309
中油台西加油站,雲林縣台西鄉中山路36號(近中山路/文化路口),雲林縣,台西鄉,23.6990134,120.2027083
全聯西螺福來店站,雲林縣西螺鎮中山路500號(近中山路/福來路口),雲林縣,西螺鎮,23.7987753,120.4500078
7-ELEVEN 星光店站,雲林縣西螺鎮公正路15號(近公正路/興農西路口),雲林縣,西螺鎮,23.7942783,120.4630113
西螺三井店站,雲林縣西螺鎮振興里119-1號(近振興/大同路口),雲林縣,西螺鎮,23.7886536,120.4732056
中油林內加油站,雲林縣林內鄉中正路532號(近中正路/中正路479巷口),雲林縣,林內鄉,23.7523798,120.6108553
家樂福虎尾店站,雲林縣虎尾鎮立新街96號(近立仁國小),雲林縣,虎尾鎮,23.7049897,120.4266946
台糖光明加油站,雲林縣虎尾鎮光明路105號(近虎尾鎮立圖書館),雲林縣,虎尾鎮,23.707717,120.4489277
Gogoro 虎尾光復門市站,雲林縣虎尾鎮光復路478號(近光復路/新興路口),雲林縣,虎尾鎮,23.7112292,120.4339742
全聯虎尾中正店站,雲林縣虎尾鎮林森路二段23號(近虎尾天后宮商店街),雲林縣,虎尾鎮,23.7074329,120.4311783
福懋虎尾加油站,雲林縣虎尾鎮廉使里文科路1131號(近文科路/光復路交叉口),雲林縣,虎尾鎮,23.7170363,120.4249726
中油虎尾新生路加油站,雲林縣虎尾鎮新生路155號(近新生路/新興路口),雲林縣,虎尾鎮,23.7071137,120.4359893
中油崙背加油站,雲林縣崙背鄉南陽村正義路123號(近崙背鄉公所),雲林縣,崙背鄉,23.7609348,120.3591228
全聯麥寮橋頭店站,雲林縣麥寮鄉橋頭村160號(近橋頭路/新民街口),雲林縣,麥寮鄉,23.7894076,120.2714642
中油義和加油站,雲林縣莿桐鄉三和37-5號(近埤源派出所),雲林縣,莿桐鄉,23.7554232,120.4967222
福懋中正加油站,雲林縣莿桐鄉埔子村中正路20號(近莿桐鄉農會),雲林縣,莿桐鄉,23.7560851,120.5044274
中油褒忠加油站,雲林縣褒忠鄉埔姜村三民路231號(近三民路/三民路233巷口),雲林縣,褒忠鄉,23.7015951,120.3164404
台亞大林加油站,嘉義縣大林鎮明華路48-9號(近民生北路/忠孝路口),嘉義縣,大林鎮,23.6040709,120.4542004
台灣高鐵嘉義站,嘉義縣太保市保鐵五路(近2號出入口),嘉義縣,太保市,23.4590227,120.3225133
福懋太保加油站,嘉義縣太保市春珠里春珠170號(近太保市衛生所),嘉義縣,太保市,23.4529577,120.3364275
福懋南亞加油站,嘉義縣太保市麻寮里北港路2段203-1號(近北港路二段/三合路交叉口),嘉義縣,太保市,23.4974511,120.3760431
中油嘉保加油站,嘉義縣太保市嘉朴東路1段116號(近嘉朴東路一段/太保五路口),嘉義縣,太保市,23.4583915,120.3050665
中油南靖加油站,嘉義縣水上鄉三鎮路101-1號(近嘉義縣政府消防局第二大隊水上分隊),嘉義縣,水上鄉,23.4198127,120.3890572
全家水上柳子林店站,嘉義縣水上鄉柳林村1500號(近水上鄉農會柳林辦事處),嘉義縣,水上鄉,23.4296769,120.4170377
福懋水上加油站,嘉義縣水上鄉粗溪村嘉朴路222號(近嘉朴路/水德路交叉口),嘉義縣,水上鄉,23.435308,120.393526
7-ELEVEN 豐收店站,嘉義縣民雄鄉大學路二段291號(近大學路二段/大民南路口),嘉義縣,民雄鄉,23.5619424,120.4613056
7-ELEVEN 友樂店站,嘉義縣民雄鄉建國路二段146-61號(近吳鳳科技大學),嘉義縣,民雄鄉,23.5374548,120.4361831
中油民雄加油站,嘉義縣民雄鄉建國路二段329號(近民雄鄉公所),嘉義縣,民雄鄉,23.550755,120.433503
全聯嘉義民雄店站,嘉義縣民雄鄉復興路226號(近復興路179巷交叉口),嘉義縣,民雄鄉,23.5594093,120.4266454
全聯嘉義朴子店站,嘉義縣朴子市大同路291號(近中央公路/中正路口),嘉義縣,朴子市,23.4614329,120.237026
Gogoro 朴子山通門市站,嘉義縣朴子市山通路202號(近山通路/文化北路口),嘉義縣,朴子市,23.4642832,120.2419946
全聯朴子文化店站,嘉義縣朴子市文化北路18號（近文化北路/開元路口）,嘉義縣,朴子市,23.4644522,120.2415261
福懋朴子加油站,嘉義縣朴子市安福里山通路2-8號(近朴子藝術公園),嘉義縣,朴子市,23.4464152,120.2570421
嘉義縣政府站,嘉義縣朴子市朴子三路口(近朴子三路與朴嘉路西段口),嘉義縣,朴子市,23.460239,120.288703
全聯嘉義梅山店站,嘉義縣梅山鄉中山路332﹑332-5號(近梅山鄉公所),嘉義縣,梅山鄉,23.5856757,120.5539602
中油梅山加油站,嘉義縣梅山鄉梅北村中山路746號(近中山路/三美庄口),嘉義縣,梅山鄉,23.5899757,120.5452868
7-ELEVEN 宮前店站,嘉義縣新港鄉宮前村新民路24鄰252號附1(近新民路/嘉民路口),嘉義縣,新港鄉,23.5565441,120.3469879
7-ELEVEN 三多利店站,屏東縣九如鄉九如路三段56號(近九如路三段/九如路三段62巷),屏東縣,九如鄉,22.7463483,120.491077
814生鮮超市屏東內埔店站,屏東縣內埔鄉內埔村中興路220號(近中興路/勝光路),屏東縣,內埔鄉,22.6146394,120.5706841
全聯內埔永光店站,屏東縣內埔鄉永光路3號(近學人路/永光路口),屏東縣,內埔鄉,22.6088409,120.5641535
全家內埔埔勝店站,屏東縣內埔鄉南寧路164-1號(近南寧路 / 中寧路),屏東縣,內埔鄉,22.6194393,120.5627403
中油內埔加油站,屏東縣內埔鄉南寧路422號(近南寧路/台一線路口),屏東縣,內埔鄉,22.6227142,120.5577071
全家車城風車店站,屏東縣車城鄉中山路2-1號(近中山路/福安路),屏東縣,車城鄉,22.0691812,120.7135955
HiLife 車城元寶店站,屏東縣車城鄉福安村忠孝路168號(近福安路與忠孝路交叉口),屏東縣,車城鄉,22.0702765,120.7104339
台糖土庫加油站,屏東縣里港鄉北安路1-36號 (近北安路/屏10號公路),屏東縣,里港鄉,22.822082,120.5064629
全聯屏東里港店站,屏東縣里港鄉鐵店路21-30.21-31號(近里港地政事務所),屏東縣,里港鄉,22.7776874,120.5005478
中油佳冬加油站,屏東縣佳冬鄉佳和路145號(近佳和路/佳豐路口),屏東縣,佳冬鄉,22.4173146,120.5441432
中油東港加油站,屏東縣東港鎮中正路一段85號(近東港國小),屏東縣,東港鎮,22.4717569,120.45507
Gogoro 東港光復門市站,屏東縣東港鎮光復路一段162號(近光復路一段/長春一路),屏東縣,東港鎮,22.4701905,120.458508
全家東港東光店站,屏東縣東港鎮長春二路206號(近長春二路/水源三街),屏東縣,東港鎮,22.4673065,120.4591884
八百屋東港店站,屏東縣東港鎮船頭路25-12號(近船頭路/沿海路口),屏東縣,東港鎮,22.4621528,120.463476
中油楓港加油站,屏東縣枋山鄉舊庄路53號(近枋山郵局),屏東縣,枋山鄉,22.199259,120.6894097
7-ELEVEN 維軒店站,屏東縣枋寮鄉中山路二段143號(近中山路二段與中正大路口),屏東縣,枋寮鄉,22.3824786,120.5956493
福懋林邊加油站,屏東縣林邊鄉中山路530號(近林邊交流道),屏東縣,林邊鄉,22.4426448,120.5083432
全聯長治潭頭店站,屏東縣長治鄉潭頭路86號(近潭頭路/頭路37巷口),屏東縣,長治鄉,22.6755345,120.5254434
全家長治交流店站,屏東縣長治鄉繁華村水源路195號(近水源路/中興路),屏東縣,長治鄉,22.6963341,120.5560228
中油南洲加油站,屏東縣南州鄉七塊村三民路270號(近三民路/新興路口),屏東縣,南州鄉,22.488602,120.501593
全聯屏東南州店站,"屏東縣南州鄉人和路1-2,1-3號(近南州郵局屏東56支局 )",屏東縣,南州鄉,22.4895991,120.5116438
中油中正加油站,屏東縣屏東市中正路375號(近義美食品),屏東縣,屏東市,22.685602,120.494546
Gogoro 屏東公園門市站,屏東縣屏東市中華路80號(近太平洋百貨屏東店),屏東縣,屏東市,22.6739421,120.4907417
家樂福屏東店站,屏東縣屏東市仁愛路188號(近平面機車停車場內),屏東縣,屏東市,22.6824698,120.4979512
Global Mall 屏東站,屏東縣屏東市仁愛路90號(近屏東女中),屏東縣,屏東市,22.6729913,120.4936323
千葉火鍋屏東店站,屏東縣屏東市太原路17-1號(近太原路/自由路口),屏東縣,屏東市,22.6836505,120.4851106
家樂福新屏店站,屏東縣屏東市台糖街3號(近台糖街/復興路口),屏東縣,屏東市,22.6634677,120.4888746
宏佳騰屏東光復路店站,屏東縣屏東市光復路45號(近光復路/中山路),屏東縣,屏東市,22.6694818,120.485901
全聯屏東林森店站,屏東縣屏東市自由路163號(近自由路/民生路路口),屏東縣,屏東市,22.6685616,120.4942724
PGO 屏東自由店站,屏東縣屏東市自由路487號(近自由路/信義路),屏東縣,屏東市,22.6829404,120.4909555
家樂福便利購屏東自由店站,屏東縣屏東市自由路618號(近自由路/洛陽街),屏東縣,屏東市,22.6833849,120.4829698
Gogoro 屏東和平服務中心站,屏東縣屏東市和平路459號(和平路/蘭州街),屏東縣,屏東市,22.6798523,120.4775388
中油忠孝路加油站,屏東縣屏東市忠孝路209-1號(近勝利路與內山公路),屏東縣,屏東市,22.6796821,120.4883404
台糖廣興加油站,屏東縣屏東市忠孝路323號(近忠孝路/敬軍路),屏東縣,屏東市,22.6938473,120.489534
台糖豐泰加油站,屏東縣屏東市海豐街231號(近海豐街/盛豐路),屏東縣,屏東市,22.7081364,120.5209025
HiLife 屏東崇朝店站,屏東縣屏東市崇朝一路160號(崇朝一路 / 崇朝路),屏東縣,屏東市,22.6885498,120.4754229
中油復興路加油站,屏東縣屏東市復興路261號(近屏東高工),屏東縣,屏東市,22.660946,120.487895
山隆屏東加油站,屏東縣屏東市華山里瑞光路三段202號(近瑞光路三段/中正路),屏東縣,屏東市,22.6917617,120.503006
HiLife 屏東豐光店站,屏東縣屏東市瑞光路二段212號(近瑞光路二段與興豐路交叉口),屏東縣,屏東市,22.6782145,120.508186
HiLife 屏東好豐年店站,屏東縣屏東市豐年街149號(近豐華街 / 豐年街),屏東縣,屏東市,22.6791318,120.5060375
中油領航加油站,屏東縣恆春鎮省北路500號,屏東縣,恆春鎮,22.0241541,120.743572
中油恆春加油站,屏東縣恆春鎮省北路7號(近僑勇國小),屏東縣,恆春鎮,22.0091647,120.7435936
中油墾丁加油站,屏東縣恆春鎮墾丁路402號(近墾丁大街),屏東縣,恆春鎮,21.9461889,120.7929232
中油崁頂加油站,屏東縣崁頂鄉崁頂村中正路251號(近中正路與屏68鄉道),屏東縣,崁頂鄉,22.5213684,120.5209157
中油小琉球加油站,屏東縣琉球鄉大福村和平路3巷33-7號(近和平路/屏202),屏東縣,琉球鄉,22.3322119,120.3717685
全聯屏東高樹店站,屏東縣高樹鄉信義路21號(近信義路/雙興路口),屏東縣,高樹鄉,22.8235563,120.5991107
中油新園加油站,屏東縣新園鄉內庄村興安路54號(近興安路/興中路口),屏東縣,新園鄉,22.5239667,120.4630986
美廉社屏東新園店站,屏東縣新園鄉南興路301號(近東港分局興龍派出所),屏東縣,新園鄉,22.4910134,120.4589357
台糖萬泰加油站,屏東縣萬丹鄉和平西路167號(近萬丹鄉鄉公所),屏東縣,萬丹鄉,22.5900248,120.4842108
中油萬丹加油站,屏東縣萬丹鄉萬丹路一段399號(近萬丹路一段與新全街),屏東縣,萬丹鄉,22.5933785,120.4885964
7-ELEVEN 丹榮店站,屏東縣萬丹鄉萬全村丹榮路625號(近丹榮路/和平東路口),屏東縣,萬丹鄉,22.5889413,120.4919347
中油萬巒加油站,屏東縣萬巒鄉中正路5-2號(近萬巒郵局),屏東縣,萬巒鄉,22.5702027,120.5638786
全聯屏東萬巒店站,屏東縣萬巒鄉褒忠路229-1號(近萬巒國王宮),屏東縣,萬巒鄉,22.5755225,120.5676094
Gogoro 屏東潮州門市站,屏東縣潮州鎮中山路177號(近台鐵潮州車站),屏東縣,潮州鎮,22.5496897,120.5375878
中油潮州加油站,屏東縣潮州鎮延平路217號(近中油快保中心),屏東縣,潮州鎮,22.556962,120.540054
順發3C潮州店站,屏東縣潮州鎮延平路255號(近延平路/德仁街),屏東縣,潮州鎮,22.557705,120.5400874
台亞麟洛交流道加油站,屏東縣麟洛鄉中山路27號(近麟洛國中),屏東縣,麟洛鄉,22.6429167,120.5333742
814生鮮超市屏東麟洛店站,屏東縣麟洛鄉麟趾村中正路58號(近中正路/復興街),屏東縣,麟洛鄉,22.6492852,120.5253259
7-ELEVEN 永盛店站,屏東縣鹽埔鄉鹽中村勝利路81之3號(近勝利路/中和路口),屏東縣,鹽埔鄉,22.7564256,120.5754542
中油玉里加油站,花蓮縣玉里鎮大同路219號(近玉里國中),花蓮縣,玉里鎮,23.3334286,121.3125147
台糖大進加油站,花蓮縣光復鄉大全村中山路一段232號(近花蓮觀光糖廠),花蓮縣,光復鄉,23.6534753,121.4177762
中油南埔加油站,花蓮縣吉安鄉中正路二段6號(近客家文化中心),花蓮縣,吉安鄉,23.9641034,121.5896462
7-ELEVEN 姐妹店站,花蓮縣吉安鄉吉安路五段262之1號(近吉安路五段/華南四街口),花蓮縣,吉安鄉,23.9535931,121.550277
7-ELEVEN 南濱店站,花蓮縣吉安鄉南濱路一段116號(南濱路一段/東海十街交叉口),花蓮縣,吉安鄉,23.955736,121.6012414
花蓮慈惠三街站,花蓮縣吉安鄉慈惠三街106號(近慈惠三街/慈惠三街105巷口),花蓮縣,吉安鄉,23.9771603,121.5873211
中油秀林和平加油站,花蓮縣秀林鄉和平村和平路32-1號(近和平電廠),花蓮縣,秀林鄉,24.310721,121.748189
中油太魯閣加油站,花蓮縣秀林鄉富世村154-1號(近東西橫貫公路牌坊),花蓮縣,秀林鄉,24.1938259,121.4913182
中油花蓮中山路加油站,花蓮縣花蓮市中山路752號(近花蓮慈濟醫院),花蓮縣,花蓮市,23.9959478,121.5950578
北基中央路加油站,花蓮縣花蓮市中央路4段568號(近中央路四段/十六股大道 交叉口),花蓮縣,花蓮市,24.0040795,121.6017672
全聯花蓮美崙店,花蓮縣花蓮市中美路113-6號(近中美路/順興路口),花蓮縣,花蓮市,23.9930353,121.6269832
Gogoro 花蓮中華門市站,花蓮縣花蓮市中華路266號(近花蓮文化創意產業園區),花蓮縣,花蓮市,23.9753498,121.6002404
中油港口加油站,花蓮縣花蓮市吉林路2號(近美崙國中),花蓮縣,花蓮市,23.9974347,121.6315959
全聯花蓮太昌店站,花蓮縣花蓮市建國路二段262.266號(近建國路二段/建華路口),花蓮縣,花蓮市,23.9942221,121.5709959
宏佳騰花蓮國聯店站,花蓮縣花蓮市國聯一路199號(近花蓮市中山公園),花蓮縣,花蓮市,23.9892509,121.6008576
中油富里加油站,花蓮縣富里鄉中興路85號(近中興路/中興路98巷交叉路口),花蓮縣,富里鄉,23.1829342,121.2522823
全家新城太魯閣店站,花蓮縣新城鄉新興路53號(近亞洲水泥),花蓮縣,新城鄉,24.1312707,121.6440147
家樂福花蓮店站,花蓮縣新城鄉嘉里路15號(近福德路/嘉里二街口),花蓮縣,新城鄉,24.0153428,121.6103034
全家新城民益店站,花蓮縣新城鄉嘉新路45號(近海星高級中學),花蓮縣,新城鄉,24.0070459,121.6141633
中油瑞穗加油站,花蓮縣瑞穗鄉瑞穗村2鄰中正南路一段105號(近中正南路一段/民權西路路口),花蓮縣,瑞穗鄉,23.4937706,121.3771048
中油壽豐加油站,花蓮縣壽豐鄉壽豐路一段1號(近壽豐鄉戶政事務所),花蓮縣,壽豐鄉,23.8677317,121.5088107
中油豐濱加油站,花蓮縣豐濱鄉豐濱村光豐路53號(近豐濱鄉公所),花蓮縣,豐濱鄉,23.6023053,121.52022
中油大武加油站,台東縣大武鄉尚武村尚武路8號(近台灣電力公司大武服務所),台東縣,大武鄉,22.3418154,120.8948882
7-ELEVEN 金倫店站,台東縣太麻里鄉金崙村金崙路262號(近金崙聖若瑟天主堂),台東縣,太麻里,22.53134,120.963758
中油太麻里加油站,台東縣太麻里鄉泰和村1鄰太麻里街157號(近太麻里街/金萱路口),台東縣,太麻里,22.6129357,121.0071458
大潤發台東店站,台東縣台東市中興路三段592號(近中興陸橋下),台東縣,台東市,22.772708,121.1062513
Gogoro 台東新生門市站,台東縣台東市新生路191之1號(近公有停五停車場),台東縣,台東市,22.7549705,121.1445449
台糖中興二加油站,台東縣台東市臨海路三段431號(近鄰臨海路三段/四川路一段口),台東縣,台東市,22.727688,121.1191478
7-ELEVEN 東馳店站,台東縣池上鄉中東三路46號(近池上鄉公有零售市場),台東縣,池上鄉,23.1227232,121.218716
中油池上加油站,台東縣池上鄉福原村中山路25號(近中山路/忠孝路口),台東縣,池上鄉,23.1208356,121.2126082
中油初鹿加油站,台東縣卑南鄉明峰村13鄰忠孝路32號(近初鹿國中),台東縣,卑南鄉,22.8529992,121.0926462
中油泰源加油站,台東縣東河鄉北源村柑桔林路37-3號(近泰源國中),台東縣,東河鄉,23.0040762,121.2869432
中油鹿野加油站,台東縣鹿野鄉鹿野村中華路二段169號(近消防局關山大隊鹿野分隊),台東縣,鹿野鄉,22.9159131,121.1370017
7-ELEVEN 安朔店站,台東縣達仁鄉森永村森永216號(近台9線444公里處),台東縣,達仁鄉,22.2914219,120.8809644
全聯台東漢陽店站,台東縣臺東市漢陽南路89號(近漢陽南路/漢陽南路65巷口),台東縣,臺東市,22.7419502,121.1379067
全聯台東更生店站,臺東縣台東市更生路1051號(近貴築精品汽車旅館),台東縣,台東市,22.7732573,121.1304723
中油赤崁加油站,澎湖縣白沙鄉赤崁村37號(近赤崁碼頭),澎湖縣,白沙鄉,23.6671794,119.5992019
中油通梁加油站,澎湖縣白沙鄉通梁村25-1號(近保安宮牌坊),澎湖縣,白沙鄉,23.6594738,119.5586174
中油馬公加油站,澎湖縣馬公市民福路18號(近民福路/興港南運河街口),澎湖縣,馬公市,23.5671199,119.5645509
Gogoro 馬公同和門市站,澎湖縣馬公市同和路158號(近Pier3 三號港),澎湖縣,馬公市,23.56734,119.572906
